# 2015  1 31 22 44 37.451   45.95423 -129.99182  1.168  0.4  0.820  0.934  0.026  28040
 AXCC1  0.489 1.00 P
 AXEC1  0.449 1.00 P
 AXEC2  0.624 1.00 P
 AXEC3  0.709 1.00 P
 AXAS1  0.659 0.50 P
 AXAS2  0.764 1.00 P
 AXCC1  0.994 0.25 S
 AXEC1  0.924 0.33 S
 AXEC2  1.189 0.33 S
 AXEC3  1.254 0.33 S
 AXAS1  1.594 0.25 S
# 2015  1 31 22 48 20.419   45.95295 -129.99326  0.765  0.8  0.501  0.360  0.035  28062
 AXCC1  0.426 1.00 P
 AXEC1  0.421 1.00 P
 AXEC2  0.611 1.00 P
 AXEC3  0.636 1.00 P
 AXAS1  0.711 1.00 P
 AXAS2  0.721 1.00 P
 AXEC1  0.921 0.33 S
 AXEC2  1.216 0.33 S
 AXEC3  1.276 0.33 S
 AXAS2  1.241 0.33 S
 AXID1  1.581 0.25 S
# 2015  1 31 23 40 54.974   45.93713 -130.01624  0.970  0.3  0.880  0.721  0.044  28213
 AXCC1  0.611 1.00 P
 AXEC1  0.866 0.75 P
 AXEC2  0.796 1.00 P
 AXEC3  0.821 1.00 P
 AXAS1  0.501 1.00 P
 AXAS2  0.341 1.00 P
 AXEC1  1.606 0.33 S
 AXEC2  1.606 0.33 S
 AXEC3  1.576 0.33 S
 AXAS1  1.216 0.25 S
 AXAS2  0.341 0.30 S
# 2015  2  1  0  2  3.331   45.94975 -130.02818  0.917  0.6  1.253  0.688  0.052  28281
 AXCC1  0.484 1.00 P
 AXEC1  0.889 1.00 P
 AXEC2  1.014 1.00 P
 AXEC3  0.994 1.00 P
 AXAS1  0.789 1.00 P
 AXAS2  0.554 1.00 P
 AXID1  1.089 1.00 P
 AXCC1  0.834 0.25 S
 AXEC1  1.709 0.25 S
 AXEC3  1.884 0.25 S
 AXAS1  1.659 0.25 S
 AXAS2  0.974 0.33 S
# 2015  2  1  0 46 24.242   45.93703 -129.97171  1.528  0.3  0.424  0.510  0.049  28387
 AXCC1  0.888 0.50 P
 AXEC1  0.548 1.00 P
 AXEC2  0.438 1.00 P
 AXEC3  0.438 1.00 P
 AXAS1  0.643 1.00 P
 AXID1  0.528 1.00 P
 AXEC1  1.008 0.25 S
 AXEC3  0.863 0.33 S
 AXAS1  1.248 0.25 S
 AXAS2  2.088 0.21 S
 AXID1  0.958 0.25 S
# 2015  2  1  2 21  7.596   45.95110 -130.01929  0.978  0.6  1.005  0.872  0.034  28574
 AXCC1  0.399 1.00 P
 AXEC1  0.809 1.00 P
 AXEC2  0.924 1.00 P
 AXEC3  0.914 1.00 P
 AXAS1  0.774 1.00 P
 AXAS2  0.584 1.00 P
 AXID1  1.069 1.00 P
 AXEC1  1.599 0.25 S
 AXEC2  1.834 0.25 S
 AXEC3  1.794 0.33 S
 AXAS2  0.934 0.25 S
 AXID1  1.899 0.25 S
# 2015  2  1  3 56 23.588   45.93728 -130.01932  0.911  0.4  0.767  0.495  0.030  28655
 AXCC1  0.627 1.00 P
 AXEC1  0.867 1.00 P
 AXEC2  0.907 1.00 P
 AXEC3  0.877 1.00 P
 AXAS1  0.562 1.00 P
 AXAS2  0.322 1.00 P
 AXID1  0.907 0.50 P
 AXCC1  1.292 0.33 S
 AXEC1  1.607 0.25 S
 AXEC3  1.747 0.25 S
 AXAS1  1.172 0.33 S
 AXID1  1.412 0.25 S
# 2015  2  1  4 32 40.272   45.95233 -129.98524  1.623  0.7  0.492  0.700  0.034  28684
 AXCC1  0.593 1.00 P
 AXEC1  0.433 1.00 P
 AXEC2  0.613 1.00 P
 AXEC3  0.643 1.00 P
 AXAS1  0.758 1.00 P
 AXAS2  0.793 0.50 P
 AXID1  0.778 1.00 P
 AXEC1  0.903 0.33 S
 AXEC2  1.143 0.33 S
 AXEC3  1.188 0.33 S
 AXAS2  1.373 0.25 S
 AXID1  1.338 0.25 S
# 2015  2  1  5 25  2.807   45.94188 -130.01541  0.763  0.7  0.541  0.474  0.026  28720
 AXCC1  0.518 1.00 P
 AXEC1  0.783 1.00 P
 AXEC2  0.858 1.00 P
 AXEC3  0.813 1.00 P
 AXAS1  0.573 1.00 P
 AXAS2  0.378 1.00 P
 AXID1  0.883 1.00 P
 AXCC1  1.198 0.25 S
 AXEC1  1.503 0.25 S
 AXEC2  1.613 0.33 S
 AXEC3  1.643 0.33 S
 AXAS1  1.278 0.25 S
# 2015  2  1  5 26 22.521   45.94112 -130.01912  0.907  0.2  0.663  0.624  0.033  28722
 AXCC1  0.549 1.00 P
 AXEC1  0.824 0.50 P
 AXEC2  0.844 0.75 P
 AXEC3  0.879 1.00 P
 AXAS1  0.614 1.00 P
 AXAS2  0.374 1.00 P
 AXID1  0.924 1.00 P
 AXCC1  1.219 0.25 S
 AXEC1  1.534 0.25 S
 AXEC2  1.639 0.33 S
 AXEC3  1.674 0.33 S
 AXAS1  1.319 0.25 S
 AXAS2  0.659 0.25 S
# 2015  2  1  5 36 37.514   45.97355 -129.99377  2.744  0.7  0.760  0.836  0.042  28730
 AXCC1  0.796 1.00 P
 AXEC1  0.886 1.00 P
 AXEC2  1.066 1.00 P
 AXEC3  1.101 1.00 P
 AXAS1  1.251 0.50 P
 AXAS2  1.171 1.00 P
 AXID1  1.166 0.50 P
 AXCC1  1.601 0.25 S
 AXEC1  1.661 0.33 S
 AXEC2  2.001 0.25 S
 AXEC3  2.111 0.33 S
 AXAS2  2.076 0.25 S
# 2015  2  1  7  0 39.847   45.94869 -130.02402  1.108  0.8  0.725  0.575  0.035  28774
 AXCC1  0.478 1.00 P
 AXEC1  0.878 1.00 P
 AXEC2  0.988 1.00 P
 AXEC3  0.958 1.00 P
 AXAS1  0.783 1.00 P
 AXAS2  0.573 1.00 P
 AXID1  1.078 0.50 P
 AXEC1  1.643 0.25 S
 AXEC2  1.853 0.25 S
 AXEC3  1.853 0.33 S
 AXAS1  1.653 0.25 S
 AXAS2  0.923 0.33 S
# 2015  2  1 10 55 47.988   45.95704 -129.99223  1.528  0.6  0.557  0.941  0.038  28906
 AXCC1  0.472 1.00 P
 AXEC1  0.502 1.00 P
 AXEC2  0.687 1.00 P
 AXEC3  0.712 1.00 P
 AXAS1  0.797 1.00 P
 AXAS2  0.827 1.00 P
 AXCC1  1.267 0.25 S
 AXEC1  1.007 0.33 S
 AXEC2  1.312 0.33 S
 AXEC3  1.392 0.33 S
 AXAS2  1.322 0.33 S
# 2015  2  1 13 42 30.246   45.95889 -130.03365  1.390  0.9  0.564  0.789  0.038  28968
 AXCC1  0.609 1.00 P
 AXEC1  1.039 1.00 P
 AXEC2  1.179 1.00 P
 AXEC3  1.164 1.00 P
 AXAS1  1.059 1.00 P
 AXAS2  0.809 1.00 P
 AXID1  1.274 0.50 P
 AXEC2  2.174 0.33 S
 AXEC3  2.254 0.33 S
 AXAS1  2.039 0.25 S
 AXAS2  1.369 0.25 S
 AXID1  2.319 0.33 S
# 2015  2  1 20 46 50.321   45.94109 -130.02016  1.256  0.3  0.721  1.174  0.053  29061
 AXCC1  0.559 1.00 P
 AXEC1  0.839 0.50 P
 AXEC2  0.854 1.00 P
 AXEC3  0.854 1.00 P
 AXAS1  0.624 1.00 P
 AXAS2  0.414 1.00 P
 AXEC1  1.519 0.25 S
 AXEC2  1.684 0.33 S
 AXEC3  1.679 0.33 S
 AXAS1  1.314 0.25 S
 AXAS2  0.614 0.33 S
# 2015  2  1 21 56 24.104   45.94313 -130.01488  0.837  0.2  0.397  0.765  0.028  29083
 AXCC1  0.491 1.00 P
 AXEC1  0.761 1.00 P
 AXEC2  0.756 0.50 P
 AXEC3  0.851 1.00 P
 AXAS1  0.506 0.50 P
 AXAS2  0.406 1.00 P
 AXID1  0.911 1.00 P
 AXEC1  1.481 0.25 S
 AXEC2  1.591 0.25 S
 AXEC3  1.626 0.33 S
 AXAS1  1.301 0.25 S
 AXID1  1.556 0.25 S
# 2015  2  2  0  7 37.760   45.94688 -130.02292  0.822  0.2  1.169  1.353  0.047  29251
 AXCC1  0.400 1.00 P
 AXEC1  0.805 0.75 P
 AXEC2  0.925 0.50 P
 AXEC3  0.960 0.75 P
 AXAS1  0.690 0.50 P
 AXAS2  0.480 1.00 P
 AXCC1  1.075 0.25 S
 AXEC1  1.585 0.33 S
 AXEC2  1.765 0.25 S
 AXEC3  1.645 0.25 S
 AXAS1  1.425 0.25 S
 AXAS2  0.840 0.33 S
# 2015  2  2  1  8 17.124   45.93988 -129.97871  1.317  0.3  0.367  0.568  0.027  29364
 AXCC1  0.811 1.00 P
 AXEC1  0.446 1.00 P
 AXEC2  0.396 1.00 P
 AXEC3  0.401 1.00 P
 AXAS1  0.596 1.00 P
 AXAS2  0.761 1.00 P
 AXID1  0.511 0.75 P
 AXEC1  0.881 0.33 S
 AXEC2  0.776 0.33 S
 AXEC3  0.836 0.33 S
 AXAS1  1.201 0.25 S
 AXAS2  1.221 0.25 S
# 2015  2  2  4 15 17.846   45.93344 -129.98216  0.979  0.5  0.223  0.311  0.027  29567
 AXCC1  0.834 0.50 P
 AXEC1  0.584 1.00 P
 AXEC2  0.424 1.00 P
 AXEC3  0.304 1.00 P
 AXAS1  0.484 1.00 P
 AXAS2  0.709 1.00 P
 AXID1  0.424 1.00 P
 AXCC1  1.689 0.33 S
 AXEC1  1.094 0.33 S
 AXEC2  0.844 0.33 S
 AXAS2  1.139 0.25 S
 AXID1  0.679 0.25 S
# 2015  2  2  5 10 31.434   45.95444 -130.02968  0.989  0.5  2.456  3.467  0.058  29611
 AXCC1  0.531 1.00 P
 AXEC1  0.961 0.75 P
 AXEC2  1.116 1.00 P
 AXEC3  1.091 0.75 P
 AXAS2  0.731 0.75 P
 AXID1  1.246 0.75 P
 AXCC1  1.211 0.33 S
 AXEC1  1.816 0.25 S
 AXEC2  2.056 0.25 S
 AXEC3  1.986 0.25 S
 AXAS2  1.251 0.25 S
# 2015  2  2  6 29 26.682   45.93628 -130.02185  1.548  0.3  0.595  0.593  0.023  29655
 AXCC1  0.683 1.00 P
 AXEC1  0.948 0.50 P
 AXEC2  0.943 1.00 P
 AXEC3  0.928 0.75 P
 AXAS1  0.538 0.50 P
 AXAS2  0.423 1.00 P
 AXCC1  1.368 0.25 S
 AXEC1  1.663 0.25 S
 AXEC2  1.743 0.33 S
 AXEC3  1.673 0.33 S
 AXAS2  1.058 0.33 S
# 2015  2  2  6 36  7.039   45.94938 -130.02324  1.100  0.3  0.730  0.626  0.033  29656
 AXCC1  0.457 1.00 P
 AXEC1  0.862 1.00 P
 AXEC2  1.017 0.75 P
 AXEC3  0.992 0.50 P
 AXAS1  0.687 0.50 P
 AXAS2  0.617 1.00 P
 AXID1  0.982 0.50 P
 AXEC2  1.902 0.25 S
 AXEC3  1.857 0.33 S
 AXAS1  1.637 0.25 S
 AXAS2  0.952 0.33 S
 AXID1  1.992 0.25 S
# 2015  2  2  6 50 20.757   45.95166 -129.99432  0.563  0.6  0.252  0.282  0.038  29664
 AXCC1  0.413 1.00 P
 AXEC1  0.423 1.00 P
 AXEC2  0.613 1.00 P
 AXEC3  0.628 1.00 P
 AXAS1  0.668 0.50 P
 AXAS2  0.723 1.00 P
 AXID1  0.843 0.75 P
 AXEC1  0.923 0.33 S
 AXEC2  1.223 0.33 S
 AXEC3  1.268 0.33 S
 AXAS2  1.258 0.33 S
 AXID1  1.583 0.25 S
# 2015  2  2  6 50 30.346   45.95430 -129.99300  1.120  0.8  0.398  0.837  0.035  29666
 AXCC1  0.454 1.00 P
 AXEC1  0.449 1.00 P
 AXEC2  0.644 1.00 P
 AXEC3  0.659 1.00 P
 AXAS1  0.749 1.00 P
 AXAS2  0.759 1.00 P
 AXID1  0.874 0.75 P
 AXEC1  0.954 0.33 S
 AXEC2  1.254 0.33 S
 AXEC3  1.309 0.33 S
 AXAS2  1.244 0.33 S
 AXID1  1.579 0.25 S
# 2015  2  2 10 23 27.673   45.95146 -129.98497  1.665  0.7  0.452  0.726  0.030  29752
 AXCC1  0.607 1.00 P
 AXEC1  0.437 1.00 P
 AXEC2  0.607 1.00 P
 AXEC3  0.602 1.00 P
 AXAS1  0.757 1.00 P
 AXAS2  0.797 1.00 P
 AXID1  0.752 0.75 P
 AXEC1  0.902 0.33 S
 AXEC2  1.137 0.33 S
 AXEC3  1.207 0.33 S
 AXAS2  1.412 0.25 S
 AXID1  1.357 0.25 S
# 2015  2  2 10 59 51.044   45.94399 -130.02008  0.793  0.4  0.641  0.627  0.049  29766
 AXCC1  0.501 1.00 P
 AXEC1  0.826 0.50 P
 AXEC2  0.866 1.00 P
 AXEC3  0.836 0.50 P
 AXAS1  0.601 1.00 P
 AXAS2  0.401 1.00 P
 AXID1  0.966 0.75 P
 AXCC1  1.211 0.25 S
 AXEC1  1.506 0.33 S
 AXEC2  1.656 0.25 S
 AXAS1  1.316 0.25 S
 AXAS2  0.586 0.30 S
# 2015  2  2 14 13  2.911   45.92985 -130.00766  1.007  0.5  0.358  0.533  0.047  29846
 AXCC1  0.794 1.00 P
 AXEC1  0.754 0.50 P
 AXEC2  0.769 1.00 P
 AXEC3  0.689 1.00 P
 AXAS1  0.419 1.00 P
 AXAS2  0.364 1.00 P
 AXID1  0.674 1.00 P
 AXEC1  1.474 0.33 S
 AXEC2  1.349 0.25 S
 AXEC3  1.309 0.33 S
 AXAS1  0.924 0.25 S
 AXAS2  0.369 0.26 S
# 2015  2  2 15 39 57.443   45.95076 -130.02354  1.140  0.7  0.775  0.516  0.028  29871
 AXCC1  0.457 1.00 P
 AXEC1  0.882 1.00 P
 AXEC2  0.992 1.00 P
 AXEC3  0.982 1.00 P
 AXAS1  0.817 0.75 P
 AXAS2  0.592 1.00 P
 AXID1  1.092 1.00 P
 AXEC1  1.637 0.33 S
 AXEC2  1.787 0.25 S
 AXEC3  1.862 0.25 S
 AXAS1  1.627 0.25 S
 AXID1  1.932 0.25 S
# 2015  2  2 20 52 52.897   45.94410 -130.01938  1.245  1.2  0.609  1.174  0.028  29979
 AXCC1  0.503 1.00 P
 AXEC1  0.813 1.00 P
 AXEC2  0.903 1.00 P
 AXEC3  0.863 1.00 P
 AXAS1  0.648 1.00 P
 AXAS2  0.453 1.00 P
 AXID1  0.943 1.00 P
 AXEC1  1.548 0.25 S
 AXEC2  1.648 0.33 S
 AXEC3  1.698 0.25 S
 AXAS1  1.383 0.25 S
 AXID1  1.628 0.25 S
# 2015  2  2 22 55 20.041   45.93847 -129.98244  1.297  0.1  0.320  0.682  0.017  30025
 AXCC1  0.774 0.50 P
 AXEC1  0.504 1.00 P
 AXEC2  0.409 1.00 P
 AXEC3  0.389 1.00 P
 AXAS1  0.529 1.00 P
 AXAS2  0.694 0.75 P
 AXID1  0.509 0.50 P
 AXCC1  1.389 0.25 S
 AXEC1  0.904 0.25 S
 AXEC2  0.794 0.33 S
 AXEC3  0.804 0.33 S
 AXAS1  1.099 0.25 S
# 2015  2  2 23 27 47.135   45.94172 -129.98344  0.564  0.1  0.247  0.271  0.036  30078
 AXCC1  0.750 0.50 P
 AXEC1  0.400 1.00 P
 AXEC2  0.320 1.00 P
 AXEC3  0.325 1.00 P
 AXAS1  0.525 1.00 P
 AXID1  0.735 0.50 P
 AXCC1  1.375 0.25 S
 AXEC1  0.870 0.25 S
 AXEC2  0.790 0.25 S
 AXEC3  0.785 0.33 S
 AXAS1  1.160 0.25 S
# 2015  2  2 23 37 46.634   45.93493 -129.97310  1.722  0.2  0.485  0.610  0.048  30121
 AXCC1  1.006 0.50 P
 AXEC1  0.571 1.00 P
 AXEC2  0.506 1.00 P
 AXEC3  0.506 1.00 P
 AXAS1  0.696 1.00 P
 AXAS2  0.851 0.75 P
 AXID1  0.381 0.75 P
 AXCC1  1.476 0.25 S
 AXEC1  1.011 0.33 S
 AXEC2  0.886 0.33 S
 AXEC3  0.936 0.33 S
 AXAS1  1.296 0.33 S
# 2015  2  2 23 43 35.156   45.93797 -129.97513  1.795  0.6  0.436  0.566  0.024  30170
 AXCC1  0.869 1.00 P
 AXEC1  0.534 1.00 P
 AXEC2  0.479 1.00 P
 AXEC3  0.479 1.00 P
 AXAS1  0.659 1.00 P
 AXAS2  0.804 1.00 P
 AXID1  0.564 0.75 P
 AXEC1  1.009 0.25 S
 AXEC2  0.889 0.25 S
 AXEC3  0.939 0.33 S
 AXAS1  1.329 0.25 S
 AXID1  0.989 0.25 S
# 2015  2  2 23 44 29.267   45.93953 -129.97836  1.390  0.4  0.425  0.519  0.029  30179
 AXCC1  0.813 1.00 P
 AXEC1  0.458 1.00 P
 AXEC2  0.403 1.00 P
 AXEC3  0.408 1.00 P
 AXAS1  0.588 1.00 P
 AXAS2  0.748 0.50 P
 AXID1  0.508 0.50 P
 AXEC1  0.893 0.33 S
 AXEC2  0.823 0.25 S
 AXEC3  0.858 0.33 S
 AXAS1  1.228 0.25 S
 AXAS2  1.218 0.25 S
# 2015  2  2 23 46 31.741   45.94008 -129.98035  1.283  0.3  0.522  0.874  0.023  30199
 AXCC1  0.804 0.75 P
 AXEC1  0.444 1.00 P
 AXEC2  0.389 1.00 P
 AXEC3  0.389 1.00 P
 AXAS1  0.574 1.00 P
 AXAS2  0.729 1.00 P
 AXEC1  0.899 0.25 S
 AXEC2  0.789 0.25 S
 AXEC3  0.834 0.33 S
 AXAS1  1.214 0.25 S
 AXAS2  1.214 0.25 S
# 2015  2  2 23 47  7.034   45.93819 -129.97827  1.774  0.5  0.346  0.610  0.032  30204
 AXCC1  0.866 1.00 P
 AXEC1  0.526 1.00 P
 AXEC2  0.466 1.00 P
 AXEC3  0.466 1.00 P
 AXAS1  0.646 1.00 P
 AXAS2  0.726 1.00 P
 AXID1  0.561 1.00 P
 AXCC1  1.476 0.25 S
 AXEC1  1.021 0.25 S
 AXEC2  0.896 0.25 S
 AXEC3  0.921 0.33 S
 AXAS1  1.386 0.25 S
# 2015  2  2 23 48 19.977   45.94141 -129.97478  1.542  0.2  0.456  0.497  0.020  30212
 AXCC1  0.793 1.00 P
 AXEC2  0.418 1.00 P
 AXEC3  0.448 1.00 P
 AXAS1  0.678 1.00 P
 AXAS2  0.843 0.75 P
 AXID1  0.588 0.75 P
 AXEC1  0.963 0.33 S
 AXEC2  0.833 0.33 S
 AXEC3  0.918 0.33 S
 AXAS1  1.328 0.25 S
 AXID1  1.018 0.25 S
# 2015  2  2 23 51  5.038   45.94078 -129.98021  1.335  0.5  0.318  0.612  0.034  30232
 AXCC1  0.777 1.00 P
 AXEC1  0.432 1.00 P
 AXEC2  0.402 1.00 P
 AXEC3  0.417 1.00 P
 AXAS1  0.597 1.00 P
 AXAS2  0.757 1.00 P
 AXID1  0.542 1.00 P
 AXEC1  0.857 0.33 S
 AXEC2  0.802 0.25 S
 AXEC3  0.867 0.33 S
 AXAS1  1.217 0.25 S
 AXAS2  1.172 0.33 S
# 2015  2  2 23 57 38.493   45.93857 -129.97800  1.680  0.5  0.545  0.732  0.029  30273
 AXCC1  0.837 1.00 P
 AXEC1  0.497 1.00 P
 AXEC2  0.457 1.00 P
 AXEC3  0.462 1.00 P
 AXAS1  0.597 0.50 P
 AXAS2  0.777 1.00 P
 AXID1  0.557 0.75 P
 AXEC2  0.867 0.25 S
 AXEC3  0.912 0.33 S
 AXAS1  1.302 0.33 S
 AXAS2  1.282 0.25 S
 AXID1  0.997 0.25 S
# 2015  2  2 23 58 20.164   45.93874 -129.97496  1.867  0.8  0.494  0.652  0.031  30278
 AXCC1  0.861 1.00 P
 AXEC1  0.526 1.00 P
 AXEC2  0.486 1.00 P
 AXEC3  0.501 1.00 P
 AXAS1  0.691 1.00 P
 AXAS2  0.821 1.00 P
 AXID1  0.536 0.50 P
 AXCC1  1.886 0.25 S
 AXEC2  0.896 0.25 S
 AXEC3  0.961 0.33 S
 AXAS1  1.321 0.25 S
 AXAS2  1.321 0.25 S
 AXID1  1.146 0.25 S
# 2015  2  2 23 58 49.616   45.94028 -129.97581  1.457  0.3  0.466  0.586  0.025  30282
 AXCC1  0.814 1.00 P
 AXEC1  0.459 1.00 P
 AXEC2  0.424 1.00 P
 AXEC3  0.359 0.50 P
 AXAS1  0.629 1.00 P
 AXAS2  0.814 1.00 P
 AXID1  0.569 0.50 P
 AXCC1  1.824 0.25 S
 AXEC1  0.929 0.25 S
 AXEC2  0.829 0.25 S
 AXEC3  0.894 0.33 S
 AXAS1  1.249 0.33 S
# 2015  2  2 23 59 13.490   45.93944 -129.97682  1.866  1.0  0.342  0.542  0.031  30287
 AXCC1  0.830 1.00 P
 AXEC1  0.530 1.00 P
 AXEC2  0.495 1.00 P
 AXEC3  0.510 1.00 P
 AXAS1  0.680 1.00 P
 AXAS2  0.810 1.00 P
 AXID1  0.555 1.00 P
 AXEC1  1.005 0.33 S
 AXEC2  0.910 0.33 S
 AXEC3  0.970 0.33 S
 AXAS1  1.345 0.33 S
 AXAS2  1.330 0.25 S
 AXID1  1.045 0.25 S
# 2015  2  3  0  1 10.744   45.94027 -129.97870  1.442  0.3  0.478  0.709  0.030  30301
 AXCC1  0.791 1.00 P
 AXEC1  0.446 1.00 P
 AXEC2  0.416 1.00 P
 AXEC3  0.426 1.00 P
 AXAS1  0.601 1.00 P
 AXAS2  0.761 0.75 P
 AXEC1  0.936 0.33 S
 AXEC2  0.821 0.33 S
 AXEC3  0.876 0.33 S
 AXAS1  1.226 0.25 S
 AXAS2  1.236 0.25 S
 AXID1  0.976 0.25 S
# 2015  2  3  0  1 16.177   45.94060 -129.97951  1.575  0.6  0.318  0.609  0.029  30302
 AXCC1  0.798 1.00 P
 AXEC1  0.468 1.00 P
 AXEC2  0.438 1.00 P
 AXEC3  0.448 1.00 P
 AXAS1  0.623 1.00 P
 AXAS2  0.758 1.00 P
 AXID1  0.558 1.00 P
 AXCC1  1.278 0.25 S
 AXEC2  0.848 0.25 S
 AXEC3  0.908 0.33 S
 AXAS1  1.278 0.25 S
 AXAS2  1.258 0.25 S
# 2015  2  3  0  1 46.144   45.93809 -129.97525  1.949  0.9  0.470  0.634  0.032  30307
 AXCC1  0.866 1.00 P
 AXEC1  0.546 1.00 P
 AXEC2  0.506 1.00 P
 AXEC3  0.516 1.00 P
 AXAS1  0.696 1.00 P
 AXAS2  0.821 1.00 P
 AXID1  0.521 0.50 P
 AXEC2  0.921 0.25 S
 AXEC3  0.976 0.33 S
 AXAS1  1.351 0.33 S
 AXAS2  1.351 0.25 S
 AXID1  1.051 0.25 S
# 2015  2  3  0  3 37.575   45.94074 -129.97928  1.507  0.9  0.316  0.612  0.033  30324
 AXCC1  0.790 1.00 P
 AXEC1  0.465 1.00 P
 AXEC2  0.445 1.00 P
 AXEC3  0.315 0.50 P
 AXAS1  0.630 1.00 P
 AXAS2  0.755 1.00 P
 AXID1  0.565 1.00 P
 AXCC1  1.290 0.25 S
 AXEC1  0.950 0.25 S
 AXEC2  0.860 0.25 S
 AXEC3  0.895 0.33 S
 AXAS1  1.290 0.33 S
 AXAS2  1.270 0.25 S
# 2015  2  3  0  3 40.996   45.94161 -129.97954  1.457  0.9  0.403  0.693  0.035  30325
 AXCC1  0.744 1.00 P
 AXEC1  0.449 1.00 P
 AXEC2  0.424 1.00 P
 AXEC3  0.434 1.00 P
 AXAS1  0.614 1.00 P
 AXAS2  0.804 1.00 P
 AXID1  0.564 0.75 P
 AXEC1  0.919 0.25 S
 AXEC2  0.829 0.25 S
 AXEC3  0.889 0.33 S
 AXAS1  1.234 0.25 S
 AXAS2  1.174 0.24 S
 AXID1  0.954 0.25 S
# 2015  2  3  0  5 59.939   45.94064 -129.97879  1.612  0.9  0.336  0.585  0.028  30342
 AXCC1  0.786 1.00 P
 AXEC1  0.466 1.00 P
 AXEC2  0.446 1.00 P
 AXEC3  0.456 1.00 P
 AXAS1  0.626 1.00 P
 AXAS2  0.761 1.00 P
 AXID1  0.581 1.00 P
 AXCC1  1.761 0.25 S
 AXEC1  0.936 0.25 S
 AXEC2  0.856 0.25 S
 AXEC3  0.896 0.33 S
 AXAS1  1.251 0.25 S
 AXAS2  1.276 0.25 S
# 2015  2  3  0  7  3.009   45.94213 -129.98036  1.748  1.5  0.274  0.581  0.020  30353
 AXCC1  0.766 1.00 P
 AXEC1  0.481 1.00 P
 AXEC2  0.466 1.00 P
 AXEC3  0.506 1.00 P
 AXAS1  0.606 1.00 P
 AXAS2  0.776 1.00 P
 AXID1  0.616 1.00 P
 AXEC1  1.001 0.25 S
 AXEC2  0.921 0.25 S
 AXEC3  0.951 0.33 S
 AXAS1  1.326 0.33 S
 AXAS2  1.341 0.25 S
# 2015  2  3  0  7 34.046   45.93982 -129.97673  1.635  0.5  0.405  0.600  0.027  30356
 AXCC1  0.839 0.75 P
 AXEC1  0.479 1.00 P
 AXEC2  0.449 1.00 P
 AXEC3  0.464 1.00 P
 AXAS1  0.639 1.00 P
 AXAS2  0.814 0.75 P
 AXID1  0.529 0.75 P
 AXEC1  0.949 0.25 S
 AXEC2  0.859 0.25 S
 AXEC3  0.904 0.33 S
 AXAS1  1.299 0.25 S
 AXAS2  1.284 0.25 S
# 2015  2  3  0  7 58.024   45.93938 -129.97765  1.625  0.2  0.406  0.618  0.021  30359
 AXEC1  0.511 1.00 P
 AXEC2  0.446 1.00 P
 AXEC3  0.426 1.00 P
 AXAS1  0.626 1.00 P
 AXAS2  0.771 1.00 P
 AXID1  0.606 0.50 P
 AXEC1  0.996 0.33 S
 AXEC2  0.861 0.25 S
 AXEC3  0.911 0.33 S
 AXAS1  1.281 0.33 S
 AXID1  0.936 0.25 S
# 2015  2  3  0  8  5.107   45.93802 -129.97621  1.812  1.1  0.340  0.520  0.027  30360
 AXCC1  0.843 1.00 P
 AXEC1  0.548 1.00 P
 AXEC2  0.478 1.00 P
 AXEC3  0.483 1.00 P
 AXAS1  0.653 1.00 P
 AXAS2  0.783 1.00 P
 AXID1  0.573 1.00 P
 AXCC1  1.763 0.33 S
 AXEC2  0.858 0.33 S
 AXEC3  0.948 0.33 S
 AXAS1  1.318 0.33 S
 AXID1  0.973 0.25 S
# 2015  2  3  0  8 27.316   45.93928 -129.97704  1.642  0.7  0.375  0.588  0.034  30364
 AXCC1  0.864 0.75 P
 AXEC1  0.389 0.50 P
 AXEC2  0.449 1.00 P
 AXEC3  0.444 1.00 P
 AXAS1  0.629 1.00 P
 AXAS2  0.754 1.00 P
 AXID1  0.584 1.00 P
 AXCC1  1.789 0.25 S
 AXEC2  0.864 0.25 S
 AXEC3  0.924 0.33 S
 AXAS1  1.284 0.33 S
 AXID1  0.944 0.25 S
# 2015  2  3  0  8 47.007   45.93755 -129.97559  1.775  0.7  0.390  0.618  0.031  30367
 AXEC1  0.543 1.00 P
 AXEC2  0.468 1.00 P
 AXEC3  0.473 1.00 P
 AXAS1  0.653 1.00 P
 AXAS2  0.788 1.00 P
 AXID1  0.568 1.00 P
 AXCC1  1.928 0.25 S
 AXEC2  0.893 0.25 S
 AXEC3  0.933 0.33 S
 AXAS1  1.268 0.25 S
 AXID1  0.913 0.25 S
# 2015  2  3  0  8 53.851   45.94226 -129.97893  1.419  0.5  0.407  0.687  0.030  30368
 AXCC1  0.694 0.50 P
 AXEC1  0.424 1.00 P
 AXEC2  0.414 1.00 P
 AXEC3  0.449 1.00 P
 AXAS1  0.614 1.00 P
 AXAS2  0.814 0.75 P
 AXID1  0.584 0.75 P
 AXCC1  1.709 0.25 S
 AXEC1  0.884 0.25 S
 AXEC2  0.829 0.25 S
 AXEC3  0.874 0.33 S
 AXAS1  1.174 0.25 S
 AXAS2  1.224 0.25 S
 AXID1  1.094 0.25 S
# 2015  2  3  0  9  3.213   45.94244 -129.97504  1.510  0.3  0.516  0.584  0.030  30369
 AXCC1  0.782 1.00 P
 AXEC1  0.467 1.00 P
 AXEC2  0.372 1.00 P
 AXEC3  0.487 1.00 P
 AXAS1  0.657 1.00 P
 AXAS2  0.832 0.75 P
 AXID1  0.652 0.75 P
 AXCC1  1.772 0.25 S
 AXEC1  0.967 0.25 S
 AXEC2  0.862 0.33 S
 AXEC3  0.952 0.33 S
 AXID1  1.092 0.33 S
# 2015  2  3  0  9  3.227   45.94222 -129.97643  1.445  0.3  0.493  0.615  0.034  30370
 AXCC1  0.768 1.00 P
 AXEC1  0.453 1.00 P
 AXEC2  0.358 1.00 P
 AXEC3  0.473 1.00 P
 AXAS1  0.643 1.00 P
 AXAS2  0.818 0.75 P
 AXID1  0.638 0.75 P
 AXCC1  1.758 0.25 S
 AXEC1  0.953 0.25 S
 AXEC2  0.848 0.33 S
 AXEC3  0.938 0.33 S
 AXAS2  1.288 0.25 S
 AXID1  1.078 0.33 S
# 2015  2  3  0  9  6.310   45.94075 -129.97937  1.355  0.6  0.379  0.641  0.026  30371
 AXCC1  0.780 1.00 P
 AXEC1  0.425 1.00 P
 AXEC2  0.405 1.00 P
 AXEC3  0.420 1.00 P
 AXAS1  0.590 1.00 P
 AXAS2  0.770 1.00 P
 AXID1  0.555 0.75 P
 AXEC1  0.895 0.25 S
 AXEC2  0.815 0.25 S
 AXEC3  0.855 0.33 S
 AXAS2  1.235 0.25 S
 AXID1  0.980 0.25 S
# 2015  2  3  0  9 12.117   45.94090 -129.97867  1.481  0.7  0.358  0.570  0.029  30372
 AXCC1  0.798 1.00 P
 AXEC1  0.443 1.00 P
 AXEC2  0.423 1.00 P
 AXEC3  0.418 1.00 P
 AXAS1  0.618 1.00 P
 AXAS2  0.733 1.00 P
 AXID1  0.593 1.00 P
 AXCC1  1.733 0.25 S
 AXEC1  0.883 0.25 S
 AXEC2  0.858 0.33 S
 AXEC3  0.933 0.33 S
 AXAS1  1.223 0.25 S
