# 2015  2 10 11 10 29.537   45.93541 -130.02158  1.893  1.2  0.454  0.476  0.022  37064
 AXCC1  0.718 1.00 P
 AXEC1  0.933 1.00 P
 AXEC2  0.953 1.00 P
 AXEC3  0.903 1.00 P
 AXAS1  0.658 1.00 P
 AXAS2  0.458 1.00 P
 AXID1  0.918 1.00 P
 AXCC1  1.513 0.25 S
 AXEC1  1.708 0.33 S
 AXEC2  1.718 0.33 S
 AXEC3  1.703 0.33 S
 AXAS2  1.103 0.33 S
# 2015  2 10 12 26 47.241   45.94273 -130.01945  1.395  0.4  0.771  0.732  0.038  37078
 AXCC1  0.539 1.00 P
 AXEC1  0.854 0.75 P
 AXEC2  0.844 1.00 P
 AXEC3  0.889 1.00 P
 AXAS1  0.684 0.75 P
 AXAS2  0.454 1.00 P
 AXEC1  1.514 0.25 S
 AXEC2  1.664 0.25 S
 AXEC3  1.694 0.33 S
 AXAS1  1.364 0.25 S
 AXAS2  0.699 0.25 S
 AXID1  1.634 0.25 S
# 2015  2 10 18 54  4.371   45.95313 -129.99312  1.378  0.6  0.589  1.189  0.097  37228
 AXCC1  0.429 1.00 P
 AXEC1  0.439 1.00 P
 AXEC2  0.629 1.00 P
 AXEC3  0.639 1.00 P
 AXAS2  0.774 1.00 P
 AXID1  0.844 0.50 P
 AXCC1  1.174 0.25 S
 AXEC1  0.934 0.33 S
 AXEC2  1.244 0.33 S
 AXEC3  1.314 0.25 S
 AXAS2  1.269 0.33 S
# 2015  2 10 19  0  3.126   45.95843 -129.99141  1.699  1.4  0.540  0.774  0.038  37246
 AXCC1  0.519 1.00 P
 AXEC1  0.549 1.00 P
 AXEC2  0.734 1.00 P
 AXEC3  0.754 1.00 P
 AXAS1  0.864 1.00 P
 AXAS2  0.869 1.00 P
 AXID1  0.929 1.00 P
 AXCC1  1.324 0.25 S
 AXEC1  1.114 0.33 S
 AXEC2  1.394 0.33 S
 AXAS2  1.424 0.33 S
 AXID1  1.664 0.25 S
# 2015  2 10 19  2 26.770   45.95266 -129.99359  1.054  1.0  0.499  1.715  0.032  37254
 AXCC1  0.430 1.00 P
 AXEC1  0.440 1.00 P
 AXEC2  0.625 1.00 P
 AXEC3  0.620 1.00 P
 AXAS1  0.695 1.00 P
 AXAS2  0.730 1.00 P
 AXID1  0.850 0.75 P
 AXCC1  1.190 0.25 S
 AXEC1  0.945 0.33 S
 AXEC2  1.255 0.33 S
 AXEC3  1.320 0.33 S
 AXAS2  1.225 0.33 S
 AXID1  1.620 0.25 S
# 2015  2 10 19  2 49.768   45.95604 -129.99297  1.626  1.7  0.522  0.831  0.036  37257
 AXCC1  0.492 1.00 P
 AXEC1  0.522 1.00 P
 AXEC2  0.707 1.00 P
 AXEC3  0.732 1.00 P
 AXAS1  0.802 1.00 P
 AXAS2  0.812 1.00 P
 AXID1  0.882 1.00 P
 AXCC1  1.287 0.25 S
 AXEC1  1.047 0.33 S
 AXEC2  1.347 0.33 S
 AXEC3  1.402 0.33 S
 AXAS2  1.332 0.33 S
# 2015  2 10 19  4 48.489   45.95579 -129.99269  1.428  1.0  0.578  0.926  0.037  37268
 AXCC1  0.486 1.00 P
 AXEC1  0.486 1.00 P
 AXEC2  0.676 1.00 P
 AXEC3  0.711 1.00 P
 AXAS1  0.796 1.00 P
 AXAS2  0.771 1.00 P
 AXID1  0.891 1.00 P
 AXEC1  0.986 0.33 S
 AXEC2  1.276 0.33 S
 AXEC3  1.346 0.33 S
 AXAS2  1.291 0.33 S
 AXID1  1.646 0.25 S
# 2015  2 10 19  5  4.558   45.95489 -129.99338  1.544  1.3  0.471  0.896  0.035  37270
 AXCC1  0.497 1.00 P
 AXEC1  0.497 1.00 P
 AXEC2  0.687 1.00 P
 AXEC3  0.727 1.00 P
 AXAS1  0.777 1.00 P
 AXAS2  0.757 1.00 P
 AXID1  0.862 1.00 P
 AXEC1  1.012 0.33 S
 AXEC2  1.302 0.33 S
 AXEC3  1.362 0.33 S
 AXAS2  1.332 0.33 S
 AXID1  1.592 0.25 S
# 2015  2 10 19 30 42.486   45.95676 -129.99144  1.411  0.4  0.746  0.964  0.052  37341
 AXCC1  0.484 1.00 P
 AXEC1  0.514 1.00 P
 AXEC2  0.699 1.00 P
 AXEC3  0.669 1.00 P
 AXAS1  0.864 0.50 P
 AXAS2  0.854 1.00 P
 AXCC1  1.244 0.25 S
 AXEC1  1.009 0.33 S
 AXEC2  1.329 0.33 S
 AXEC3  1.414 0.33 S
 AXAS2  1.349 0.25 S
# 2015  2 10 22 17 56.810   45.96685 -129.99226  0.734  0.8  3.485  2.080  0.055  37431
 AXCC1  0.510 1.00 P
 AXEC1  0.645 1.00 P
 AXEC2  0.815 1.00 P
 AXEC3  0.850 1.00 P
 AXAS1  1.010 0.75 P
 AXAS2  0.985 1.00 P
 AXCC1  1.180 0.33 S
 AXEC1  1.265 0.33 S
 AXEC2  1.560 0.33 S
 AXEC3  1.630 0.33 S
 AXAS2  1.585 0.22 S
# 2015  2 11  3 45 32.269   45.96178 -129.99342  1.461  1.2  0.514  0.773  0.027  37511
 AXCC1  0.531 1.00 P
 AXEC1  0.561 1.00 P
 AXEC2  0.801 1.00 P
 AXEC3  0.831 1.00 P
 AXAS1  0.886 1.00 P
 AXAS2  0.876 1.00 P
 AXCC1  1.151 0.25 S
 AXEC1  1.231 0.33 S
 AXEC2  1.501 0.33 S
 AXEC3  1.551 0.33 S
 AXAS2  1.551 0.25 S
 AXID1  1.871 0.25 S
# 2015  2 11  5 33 24.152   45.95527 -129.99333  1.770  1.0  0.432  0.956  0.040  37559
 AXCC1  0.523 1.00 P
 AXEC1  0.538 1.00 P
 AXEC2  0.718 1.00 P
 AXEC3  0.708 1.00 P
 AXAS1  0.823 1.00 P
 AXAS2  0.783 1.00 P
 AXID1  0.868 1.00 P
 AXEC2  1.333 0.33 S
 AXEC3  1.393 0.33 S
 AXAS1  1.633 0.25 S
 AXAS2  1.298 0.33 S
 AXID1  1.638 0.25 S
# 2015  2 11  7 46 59.832   45.94027 -130.01669  0.970  1.0  0.690  0.610  0.031  37627
 AXCC1  0.544 1.00 P
 AXEC1  0.799 1.00 P
 AXEC2  0.859 1.00 P
 AXEC3  0.824 1.00 P
 AXAS1  0.579 1.00 P
 AXAS2  0.369 1.00 P
 AXID1  0.894 1.00 P
 AXCC1  1.224 0.25 S
 AXEC1  1.494 0.33 S
 AXEC2  1.619 0.33 S
 AXAS2  0.594 0.33 S
 AXID1  1.579 0.25 S
# 2015  2 11  7 47 44.645   45.92856 -130.00290  1.512  0.8  0.281  0.479  0.023  37629
 AXCC1  0.795 1.00 P
 AXEC1  0.820 1.00 P
 AXEC2  0.755 1.00 P
 AXEC3  0.655 1.00 P
 AXAS1  0.445 1.00 P
 AXAS2  0.490 1.00 P
 AXID1  0.585 1.00 P
 AXCC1  1.390 0.33 S
 AXEC1  1.555 0.33 S
 AXEC2  1.345 0.33 S
 AXEC3  1.305 0.33 S
 AXAS1  0.900 0.25 S
# 2015  2 11  8 23 17.458   45.95016 -130.02400  1.006  0.4  0.553  1.335  0.038  37664
 AXCC1  0.437 1.00 P
 AXEC1  0.872 1.00 P
 AXEC2  0.962 1.00 P
 AXEC3  0.957 0.50 P
 AXAS1  0.777 0.50 P
 AXAS2  0.577 0.75 P
 AXID1  1.097 0.75 P
 AXEC1  1.612 0.33 S
 AXEC2  1.787 0.33 S
 AXEC3  1.827 0.33 S
 AXAS1  1.612 0.25 S
 AXAS2  0.932 0.33 S
# 2015  2 11  8 26  5.944   45.95744 -129.99321  1.445  0.7  0.633  1.002  0.035  37665
 AXCC1  0.476 1.00 P
 AXEC1  0.516 1.00 P
 AXEC2  0.716 1.00 P
 AXEC3  0.736 1.00 P
 AXAS1  0.826 1.00 P
 AXAS2  0.816 1.00 P
 AXID1  0.916 0.75 P
 AXCC1  1.291 0.25 S
 AXEC2  1.366 0.33 S
 AXEC3  1.476 0.33 S
 AXAS2  1.366 0.33 S
 AXID1  1.731 0.25 S
# 2015  2 11 10 47  5.831   45.94853 -130.02412  1.050  0.4  0.751  0.799  0.038  37701
 AXCC1  0.469 1.00 P
 AXEC1  0.899 0.75 P
 AXEC2  0.984 1.00 P
 AXEC3  0.989 1.00 P
 AXAS1  0.824 0.75 P
 AXAS2  0.559 1.00 P
 AXID1  1.069 0.75 P
 AXEC1  1.649 0.33 S
 AXEC2  1.814 0.25 S
 AXEC3  1.829 0.25 S
 AXAS1  1.629 0.25 S
 AXAS2  0.919 0.33 S
# 2015  2 11 10 53 38.613   45.94080 -130.02599  1.002  0.3  0.642  2.092  0.040  37703
 AXCC1  0.566 1.00 P
 AXEC1  0.881 0.50 P
 AXEC2  0.971 1.00 P
 AXEC3  0.966 0.75 P
 AXAS1  0.626 0.75 P
 AXAS2  0.441 1.00 P
 AXEC1  1.576 0.25 S
 AXEC2  1.686 0.25 S
 AXEC3  1.736 0.33 S
 AXAS1  1.386 0.25 S
 AXAS2  0.671 0.25 S
# 2015  2 11 15 57 38.402   45.93948 -130.01328  0.641  0.2  0.369  0.396  0.032  37759
 AXCC1  0.558 1.00 P
 AXEC1  0.803 0.75 P
 AXEC2  0.833 1.00 P
 AXEC3  0.808 1.00 P
 AXAS1  0.493 0.75 P
 AXAS2  0.328 1.00 P
 AXEC1  1.533 0.33 S
 AXEC2  1.573 0.33 S
 AXEC3  1.578 0.33 S
 AXAS1  1.148 0.25 S
 AXAS2  0.513 0.33 S
# 2015  2 11 17 54 15.566   45.93747 -130.01826  1.179  0.9  0.588  0.394  0.032  37794
 AXCC1  0.614 1.00 P
 AXEC1  0.844 1.00 P
 AXEC2  0.884 1.00 P
 AXEC3  0.814 1.00 P
 AXAS1  0.584 1.00 P
 AXAS2  0.379 1.00 P
 AXID1  0.854 1.00 P
 AXEC1  1.609 0.33 S
 AXEC2  1.639 0.33 S
 AXEC3  1.599 0.33 S
 AXAS1  1.244 0.25 S
 AXAS2  0.619 0.33 S
# 2015  2 11 19 59 45.567   45.93234 -129.98183  1.352  0.2  0.272  0.683  0.035  37861
 AXEC1  0.583 0.75 P
 AXEC2  0.488 1.00 P
 AXEC3  0.418 1.00 P
 AXAS1  0.518 1.00 P
 AXAS2  0.683 0.75 P
 AXID1  0.448 1.00 P
 AXEC1  1.073 0.33 S
 AXEC2  0.878 0.33 S
 AXEC3  0.818 0.33 S
 AXAS1  1.088 0.25 S
 AXID1  0.668 0.33 S
# 2015  2 11 20 56 19.087   45.95449 -129.99203  1.044  0.7  0.507  1.426  0.031  37890
 AXCC1  0.448 1.00 P
 AXEC1  0.438 1.00 P
 AXEC2  0.628 1.00 P
 AXEC3  0.643 1.00 P
 AXAS1  0.713 1.00 P
 AXAS2  0.783 1.00 P
 AXID1  0.913 0.75 P
 AXCC1  0.873 0.25 S
 AXEC2  1.223 0.33 S
 AXEC3  1.268 0.33 S
 AXAS1  1.478 0.25 S
 AXID1  1.438 0.25 S
# 2015  2 11 20 56 36.982   45.95461 -129.99226  1.521  0.9  0.458  0.886  0.036  37891
 AXCC1  0.498 1.00 P
 AXEC1  0.498 1.00 P
 AXEC2  0.683 1.00 P
 AXEC3  0.698 1.00 P
 AXAS1  0.768 1.00 P
 AXAS2  0.798 1.00 P
 AXID1  0.823 1.00 P
 AXEC1  0.973 0.33 S
 AXEC2  1.288 0.33 S
 AXEC3  1.328 0.33 S
 AXAS1  1.563 0.25 S
 AXAS2  1.293 0.33 S
# 2015  2 11 20 57 58.394   45.93864 -130.01929  1.097  0.6  0.661  0.652  0.033  37893
 AXCC1  0.626 1.00 P
 AXEC1  0.856 1.00 P
 AXEC2  0.891 1.00 P
 AXEC3  0.831 1.00 P
 AXAS1  0.591 1.00 P
 AXAS2  0.351 1.00 P
 AXID1  0.791 0.50 P
 AXCC1  0.931 0.25 S
 AXEC1  1.646 0.33 S
 AXEC2  1.641 0.33 S
 AXEC3  1.606 0.33 S
 AXAS1  1.251 0.25 S
# 2015  2 11 20 59 10.394   45.95005 -130.02376  1.185  0.5  0.856  0.646  0.035  37895
 AXCC1  0.466 1.00 P
 AXEC1  0.881 1.00 P
 AXEC2  0.996 1.00 P
 AXEC3  0.946 0.50 P
 AXAS1  0.851 0.50 P
 AXAS2  0.616 1.00 P
 AXEC1  1.681 0.33 S
 AXEC3  1.871 0.33 S
 AXAS1  1.646 0.33 S
 AXAS2  0.991 0.33 S
 AXID1  1.841 0.25 S
# 2015  2 11 21 59 16.777   45.96282 -129.99428  1.428  0.9  0.479  0.753  0.027  37927
 AXCC1  0.518 1.00 P
 AXEC1  0.613 1.00 P
 AXEC2  0.798 1.00 P
 AXEC3  0.833 1.00 P
 AXAS1  0.918 1.00 P
 AXAS2  0.893 0.75 P
 AXID1  1.018 0.50 P
 AXCC1  1.103 0.33 S
 AXEC1  1.213 0.33 S
 AXEC2  1.548 0.33 S
 AXEC3  1.648 0.33 S
 AXAS2  1.548 0.25 S
 AXID1  1.883 0.25 S
# 2015  2 11 23 24 43.460   45.94205 -130.02280  1.230  0.2  0.896  1.608  0.061  37966
 AXCC1  0.475 1.00 P
 AXEC1  0.990 0.50 P
 AXEC2  0.885 0.75 P
 AXEC3  0.860 1.00 P
 AXAS1  0.580 0.75 P
 AXAS2  0.355 1.00 P
 AXCC1  1.130 0.25 S
 AXEC1  1.450 0.33 S
 AXEC2  1.570 0.25 S
 AXAS1  1.245 0.25 S
 AXAS2  0.595 0.23 S
# 2015  2 12  1 27 20.038   45.95668 -129.99402  1.540  1.2  0.487  0.826  0.033  38000
 AXCC1  0.472 1.00 P
 AXEC1  0.522 1.00 P
 AXEC2  0.727 1.00 P
 AXEC3  0.737 1.00 P
 AXAS1  0.797 1.00 P
 AXAS2  0.807 1.00 P
 AXID1  0.912 1.00 P
 AXCC1  1.297 0.25 S
 AXEC1  1.082 0.33 S
 AXEC2  1.367 0.33 S
 AXEC3  1.477 0.33 S
 AXAS2  1.382 0.33 S
 AXID1  1.617 0.25 S
# 2015  2 12  1 50 28.174   45.93767 -130.01877  1.149  0.3  0.609  0.445  0.083  38009
 AXEC1  0.866 0.50 P
 AXEC2  0.886 1.00 P
 AXEC3  0.866 1.00 P
 AXAS1  0.561 1.00 P
 AXAS2  0.351 1.00 P
 AXID1  0.866 0.75 P
 AXCC1  1.391 0.25 S
 AXEC1  1.586 0.33 S
 AXEC2  1.606 0.33 S
 AXEC3  1.576 0.33 S
 AXAS1  1.216 0.25 S
# 2015  2 12  1 57 44.074   45.94843 -129.99609  0.088  0.4  0.127  0.112  0.036  38016
 AXCC1  0.466 1.00 P
 AXEC1  0.556 1.00 P
 AXEC2  0.716 1.00 P
 AXEC3  0.776 1.00 P
 AXAS1  0.581 0.75 P
 AXAS2  0.871 1.00 P
 AXID1  0.961 0.75 P
 AXCC1  1.396 0.25 S
 AXEC1  1.266 0.33 S
 AXEC2  1.591 0.25 S
 AXEC3  1.616 0.33 S
 AXAS2  1.706 0.25 S
# 2015  2 12  5 48 47.407   45.97314 -129.99136  1.087  1.5  0.566  0.667  0.047  38089
 AXCC1  0.703 1.00 P
 AXEC1  0.748 1.00 P
 AXEC2  0.968 1.00 P
 AXEC3  1.018 1.00 P
 AXAS1  1.193 1.00 P
 AXAS2  1.063 1.00 P
 AXID1  1.323 0.50 P
 AXCC1  1.348 0.25 S
 AXEC1  1.553 0.33 S
 AXEC2  1.833 0.33 S
 AXEC3  1.948 0.33 S
 AXAS2  1.993 0.25 S
# 2015  2 12  7 10 56.522   45.92674 -129.98920  1.300  0.1  0.323  0.814  0.034  38137
 AXCC1  0.998 0.50 P
 AXEC1  0.733 0.75 P
 AXEC2  0.583 1.00 P
 AXEC3  0.533 1.00 P
 AXAS1  0.458 0.75 P
 AXAS2  0.628 1.00 P
 AXID1  0.433 1.00 P
 AXEC1  1.448 0.33 S
 AXEC2  0.988 0.33 S
 AXEC3  1.103 0.25 S
 AXAS1  1.023 0.25 S
 AXAS2  1.003 0.25 S
# 2015  2 12  7 28  8.658   45.92609 -129.96657  1.246  1.3  0.666  0.486  0.037  38144
 AXCC1  1.137 1.00 P
 AXEC1  0.722 1.00 P
 AXEC2  0.562 1.00 P
 AXEC3  0.552 1.00 P
 AXAS1  0.782 1.00 P
 AXAS2  0.927 1.00 P
 AXID1  0.387 1.00 P
 AXCC1  1.762 0.25 S
 AXEC1  1.402 0.33 S
 AXEC2  1.092 0.33 S
 AXAS1  1.582 0.25 S
 AXID1  0.907 0.25 S
# 2015  2 12 21 18 32.007   45.98233 -129.99156  0.942  0.6  2.031  3.028  0.100  38328
 AXCC1  0.863 1.00 P
 AXEC1  0.948 1.00 P
 AXEC2  1.128 1.00 P
 AXEC3  1.103 1.00 P
 AXAS1  1.163 0.75 P
 AXAS2  1.203 0.50 P
 AXCC1  1.703 0.25 S
 AXEC1  1.738 0.33 S
 AXEC2  2.053 0.25 S
 AXEC3  2.138 0.33 S
 AXAS2  2.143 0.25 S
# 2015  2 12 21 30 43.263   45.97449 -129.99287  2.419  0.8  0.779  0.853  0.025  38351
 AXCC1  0.792 1.00 P
 AXEC1  0.847 1.00 P
 AXEC2  1.062 1.00 P
 AXEC3  1.087 1.00 P
 AXAS1  1.217 0.75 P
 AXAS2  1.142 1.00 P
 AXID1  1.262 0.50 P
 AXCC1  1.592 0.25 S
 AXEC1  1.657 0.33 S
 AXEC2  1.972 0.25 S
 AXEC3  2.052 0.25 S
 AXAS2  2.067 0.25 S
# 2015  2 13  0  2  3.674   45.93838 -130.01491  0.496  0.4  0.892  0.589  0.046  38464
 AXCC1  0.586 1.00 P
 AXEC1  0.856 1.00 P
 AXEC2  0.856 1.00 P
 AXEC3  0.891 1.00 P
 AXAS1  0.456 0.50 P
 AXAS2  0.271 1.00 P
 AXID1  0.836 0.75 P
 AXCC1  1.271 0.25 S
 AXEC1  1.541 0.33 S
 AXEC3  1.711 0.25 S
 AXAS1  1.171 0.25 S
 AXAS2  0.276 0.32 S
# 2015  2 13  0 28 55.080   45.94622 -130.02737  1.734  0.3  0.598  0.921  0.045  38478
 AXCC1  0.570 1.00 P
 AXEC1  0.985 1.00 P
 AXEC2  0.990 1.00 P
 AXEC3  1.090 0.50 P
 AXAS1  0.800 0.75 P
 AXAS2  0.635 1.00 P
 AXID1  0.935 0.50 P
 AXEC2  1.900 0.25 S
 AXEC3  1.915 0.33 S
 AXAS1  1.705 0.25 S
 AXAS2  0.975 0.33 S
 AXID1  1.975 0.25 S
# 2015  2 13  3 31 18.674   45.93762 -130.01947  0.973  0.5  0.915  0.605  0.030  38526
 AXCC1  0.611 1.00 P
 AXEC1  0.856 0.75 P
 AXEC2  0.876 1.00 P
 AXEC3  0.871 1.00 P
 AXAS1  0.576 1.00 P
 AXAS2  0.346 1.00 P
 AXID1  0.851 0.50 P
 AXCC1  1.341 0.25 S
 AXEC1  1.626 0.25 S
 AXEC3  1.641 0.25 S
 AXAS1  1.196 0.25 S
 AXAS2  0.566 0.33 S
# 2015  2 13  9  3  0.047   45.93911 -130.01631  0.790  0.3  1.183  0.811  0.087  38637
 AXCC1  0.583 0.75 P
 AXEC1  0.763 0.50 P
 AXEC2  0.873 1.00 P
 AXEC3  0.833 1.00 P
 AXAS1  0.533 1.00 P
 AXAS2  0.293 1.00 P
 AXCC1  1.283 0.25 S
 AXEC1  1.398 0.25 S
 AXEC2  1.633 0.33 S
 AXEC3  1.583 0.33 S
 AXAS1  1.143 0.25 S
# 2015  2 13 11 22 56.314   45.94184 -130.02046  1.038  0.4  0.484  0.972  0.031  38667
 AXCC1  0.546 1.00 P
 AXEC2  0.896 1.00 P
 AXEC3  0.856 1.00 P
 AXAS1  0.631 1.00 P
 AXAS2  0.356 0.50 P
 AXID1  0.951 0.75 P
 AXCC1  1.221 0.25 S
 AXEC1  1.536 0.25 S
 AXEC2  1.651 0.25 S
 AXEC3  1.681 0.33 S
 AXAS1  1.301 0.25 S
# 2015  2 13 13  5 57.100   45.94956 -130.02408  1.068  0.4  0.719  0.730  0.036  38695
 AXCC1  0.466 1.00 P
 AXEC1  0.871 1.00 P
 AXEC2  0.991 1.00 P
 AXEC3  1.001 1.00 P
 AXAS1  0.826 0.50 P
 AXAS2  0.591 1.00 P
 AXID1  1.116 0.50 P
 AXEC1  1.616 0.25 S
 AXEC2  1.816 0.25 S
 AXEC3  1.861 0.33 S
 AXAS1  1.681 0.25 S
 AXAS2  0.951 0.33 S
 AXID1  1.896 0.25 S
# 2015  2 13 13 19 29.774   45.93969 -130.01419  0.604  0.1  0.314  0.367  0.033  38702
 AXCC1  0.560 1.00 P
 AXEC1  0.850 0.50 P
 AXEC2  0.845 1.00 P
 AXEC3  0.815 1.00 P
 AXAS1  0.530 1.00 P
 AXAS2  0.295 1.00 P
 AXEC1  1.535 0.33 S
 AXEC2  1.620 0.33 S
 AXEC3  1.555 0.33 S
 AXAS1  1.180 0.25 S
 AXAS2  0.515 0.33 S
# 2015  2 13 17 21 59.105   45.93779 -130.01968  1.232  0.2  0.685  0.777  0.032  38746
 AXCC1  0.600 0.75 P
 AXEC1  0.880 1.00 P
 AXEC2  0.920 0.75 P
 AXEC3  0.865 1.00 P
 AXAS1  0.585 0.75 P
 AXAS2  0.365 1.00 P
 AXCC1  1.270 0.25 S
 AXEC1  1.605 0.25 S
 AXEC2  1.630 0.33 S
 AXEC3  1.565 0.33 S
 AXAS2  0.570 0.33 S
# 2015  2 13 19 19 48.564   45.95164 -130.02313  1.112  1.2  0.596  0.503  0.019  38801
 AXCC1  0.441 0.50 P
 AXEC1  0.881 1.00 P
 AXEC2  0.996 1.00 P
 AXEC3  0.971 1.00 P
 AXAS1  0.791 1.00 P
 AXAS2  0.601 1.00 P
 AXID1  1.116 1.00 P
 AXCC1  0.966 0.25 S
 AXEC1  1.661 0.33 S
 AXEC2  1.841 0.33 S
 AXEC3  1.886 0.33 S
 AXID1  1.961 0.25 S
# 2015  2 13 20 26 29.215   45.94682 -130.01752  0.736  0.7  0.791  0.594  0.072  38891
 AXCC1  0.400 1.00 P
 AXEC1  0.785 1.00 P
 AXEC2  0.895 1.00 P
 AXEC3  0.865 1.00 P
 AXAS2  0.480 1.00 P
 AXID1  0.965 1.00 P
 AXEC1  1.550 0.33 S
 AXEC2  1.690 0.33 S
 AXEC3  1.725 0.33 S
 AXAS2  0.820 0.33 S
 AXID1  1.740 0.25 S
# 2015  2 13 21 15 10.506   45.96111 -129.99350  1.947  1.1  0.618  0.841  0.051  38951
 AXCC1  0.544 1.00 P
 AXEC1  0.639 1.00 P
 AXEC2  0.834 1.00 P
 AXEC3  0.869 1.00 P
 AXAS1  0.934 1.00 P
 AXAS2  0.934 1.00 P
 AXID1  0.884 1.00 P
 AXEC1  1.209 0.33 S
 AXEC2  1.534 0.33 S
 AXEC3  1.614 0.33 S
 AXAS2  1.579 0.25 S
 AXID1  1.859 0.25 S
# 2015  2 13 22 38 13.985   45.93335 -129.97449  1.561  0.3  0.389  0.492  0.026  39012
 AXEC1  0.615 1.00 P
 AXEC2  0.465 1.00 P
 AXEC3  0.445 1.00 P
 AXAS1  0.645 1.00 P
 AXAS2  0.795 1.00 P
 AXID1  0.465 1.00 P
 AXEC1  1.140 0.33 S
 AXEC2  0.855 0.33 S
 AXEC3  0.890 0.33 S
 AXAS1  1.295 0.25 S
 AXID1  0.865 0.33 S
# 2015  2 13 22 44 52.973   45.93262 -129.97502  1.498  0.6  0.393  0.462  0.026  39018
 AXCC1  0.942 1.00 P
 AXEC1  0.597 1.00 P
 AXEC2  0.457 1.00 P
 AXEC3  0.442 1.00 P
 AXAS1  0.637 1.00 P
 AXAS2  0.787 1.00 P
 AXID1  0.447 1.00 P
 AXEC1  1.142 0.33 S
 AXEC2  0.872 0.33 S
 AXEC3  0.892 0.33 S
 AXAS1  1.312 0.25 S
 AXAS2  1.397 0.25 S
 AXID1  0.767 0.25 S
# 2015  2 13 22 49 25.986   45.93199 -129.97491  1.475  0.3  0.436  0.539  0.025  39022
 AXCC1  0.979 0.50 P
 AXEC1  0.619 0.50 P
 AXEC2  0.459 1.00 P
 AXEC3  0.439 1.00 P
 AXAS1  0.639 1.00 P
 AXAS2  0.774 1.00 P
 AXID1  0.444 1.00 P
 AXEC1  1.164 0.33 S
 AXEC2  0.864 0.33 S
 AXEC3  0.874 0.33 S
 AXAS1  1.304 0.25 S
 AXID1  0.754 0.25 S
# 2015  2 13 23 15 30.606   45.93491 -130.01794  1.298  1.9  0.534  0.518  0.029  39045
 AXCC1  0.664 1.00 P
 AXEC1  0.869 1.00 P
 AXEC2  0.894 1.00 P
 AXEC3  0.829 1.00 P
 AXAS1  0.584 1.00 P
 AXAS2  0.364 1.00 P
 AXID1  0.834 1.00 P
 AXCC1  1.379 0.33 S
 AXEC1  1.724 0.25 S
 AXEC2  1.579 0.33 S
 AXEC3  1.599 0.33 S
 AXID1  1.454 0.25 S
# 2015  2 13 23 38 36.628   45.93828 -130.01654  1.104  0.5  0.713  0.742  0.026  39088
 AXCC1  0.592 1.00 P
 AXEC1  0.827 0.75 P
 AXEC2  0.842 1.00 P
 AXEC3  0.822 0.50 P
 AXAS1  0.557 0.50 P
 AXAS2  0.357 1.00 P
 AXEC1  1.582 0.25 S
 AXEC2  1.557 0.33 S
 AXEC3  1.552 0.33 S
 AXAS1  1.207 0.25 S
 AXAS2  0.592 0.33 S
# 2015  2 13 23 38 36.628   45.93828 -130.01654  1.104  0.5  0.713  0.742  0.026  39089
 AXCC1  0.592 1.00 P
 AXEC1  0.827 0.75 P
 AXEC2  0.842 1.00 P
 AXEC3  0.822 0.50 P
 AXAS1  0.557 0.50 P
 AXAS2  0.357 1.00 P
 AXEC1  1.582 0.25 S
 AXEC2  1.557 0.33 S
 AXEC3  1.552 0.33 S
 AXAS1  1.207 0.25 S
 AXAS2  0.592 0.33 S
# 2015  2 13 23 40 19.495   45.93768 -130.01901  1.165  0.5  0.729  0.528  0.028  39103
 AXCC1  0.600 0.75 P
 AXEC1  0.880 1.00 P
 AXEC2  0.900 1.00 P
 AXEC3  0.865 0.75 P
 AXAS1  0.555 1.00 P
 AXAS2  0.390 1.00 P
 AXEC1  1.670 0.25 S
 AXEC2  1.625 0.33 S
 AXEC3  1.600 0.33 S
 AXAS1  1.285 0.25 S
 AXAS2  0.630 0.33 S
# 2015  2 13 23 40 25.665   45.93583 -130.01804  1.344  1.1  0.662  0.645  0.042  39104
 AXCC1  0.570 0.50 P
 AXEC1  0.870 1.00 P
 AXEC2  0.895 1.00 P
 AXEC3  0.835 1.00 P
 AXAS1  0.570 1.00 P
 AXAS2  0.405 1.00 P
 AXID1  0.755 0.50 P
 AXEC1  1.685 0.25 S
 AXEC2  1.640 0.33 S
 AXEC3  1.610 0.33 S
 AXAS1  1.275 0.25 S
 AXAS2  0.635 0.33 S
 AXID1  1.405 0.25 S
# 2015  2 13 23 54  9.794   45.93809 -130.01390  0.715  0.2  0.532  0.458  0.022  39135
 AXCC1  0.596 1.00 P
 AXEC1  0.811 1.00 P
 AXEC2  0.836 1.00 P
 AXEC3  0.821 0.75 P
 AXAS1  0.466 0.50 P
 AXAS2  0.291 1.00 P
 AXID1  0.861 0.50 P
 AXCC1  1.321 0.25 S
 AXEC1  1.571 0.33 S
 AXEC2  1.576 0.33 S
 AXEC3  1.541 0.33 S
 AXAS1  1.191 0.25 S
# 2015  2 14  1 52 37.897   45.94813 -130.02092  0.946  0.6  1.150  0.944  0.036  39225
 AXCC1  0.443 1.00 P
 AXEC1  0.838 1.00 P
 AXEC2  0.948 1.00 P
 AXEC3  0.913 1.00 P
 AXAS1  0.733 1.00 P
 AXAS2  0.533 1.00 P
 AXID1  1.058 1.00 P
 AXEC1  1.603 0.33 S
 AXEC2  1.743 0.25 S
 AXEC3  1.808 0.33 S
 AXAS1  1.593 0.25 S
 AXAS2  0.878 0.33 S
 AXID1  1.813 0.25 S
# 2015  2 14  5 42 41.061   45.94200 -130.01550  0.664  0.4  0.470  0.361  0.028  39277
 AXCC1  0.499 0.75 P
 AXEC2  0.834 1.00 P
 AXEC3  0.844 1.00 P
 AXAS1  0.559 1.00 P
 AXAS2  0.349 1.00 P
 AXID1  0.889 0.75 P
 AXCC1  1.114 0.25 S
 AXEC1  1.454 0.25 S
 AXEC2  1.564 0.25 S
 AXEC3  1.594 0.33 S
 AXAS1  1.139 0.25 S
# 2015  2 14 11 15 55.078   45.96030 -129.99316  1.722  0.4  0.516  0.710  0.032  39375
 AXCC1  0.432 0.50 P
 AXEC1  0.607 1.00 P
 AXEC2  0.777 1.00 P
 AXEC3  0.802 1.00 P
 AXAS1  0.897 0.50 P
 AXAS2  0.932 1.00 P
 AXID1  0.947 1.00 P
 AXCC1  1.117 0.25 S
 AXEC1  1.177 0.33 S
 AXEC2  1.487 0.33 S
 AXEC3  1.612 0.33 S
 AXAS2  1.537 0.25 S
 AXID1  1.822 0.25 S
# 2015  2 14 12 30 10.769   45.96310 -130.03664  2.020  1.4  0.610  0.807  0.038  39390
 AXCC1  0.726 1.00 P
 AXEC1  1.101 1.00 P
 AXEC2  1.246 1.00 P
 AXEC3  1.256 1.00 P
 AXAS1  1.156 1.00 P
 AXAS2  0.916 1.00 P
 AXID1  1.421 1.00 P
 AXCC1  1.606 0.25 S
 AXEC1  2.071 0.25 S
 AXEC2  2.356 0.25 S
 AXEC3  2.421 0.33 S
 AXAS2  1.526 0.25 S
 AXID1  2.521 0.33 S
