# 2015  2  3  0 10 16.114   45.94250 -129.97923  1.247  0.5  0.414  0.655  0.032  30381
 AXCC1  0.766 1.00 P
 AXEC1  0.406 1.00 P
 AXEC2  0.396 1.00 P
 AXEC3  0.416 1.00 P
 AXAS1  0.616 1.00 P
 AXAS2  0.766 1.00 P
 AXID1  0.551 0.75 P
 AXEC1  0.746 0.33 S
 AXEC2  0.801 0.25 S
 AXEC3  0.876 0.33 S
 AXAS1  1.261 0.25 S
 AXAS2  1.176 0.24 S
 AXID1  1.171 0.25 S
# 2015  2  3  0 10 31.456   45.94170 -129.97780  1.617  0.8  0.367  0.582  0.028  30383
 AXCC1  0.769 1.00 P
 AXEC1  0.454 1.00 P
 AXEC2  0.454 1.00 P
 AXEC3  0.464 1.00 P
 AXAS1  0.639 1.00 P
 AXAS2  0.814 1.00 P
 AXID1  0.589 1.00 P
 AXCC1  1.759 0.25 S
 AXEC1  0.949 0.25 S
 AXEC2  0.874 0.25 S
 AXEC3  0.924 0.33 S
 AXAS1  1.219 0.25 S
 AXAS2  1.284 0.25 S
# 2015  2  3  0 10 54.380   45.94036 -129.97612  1.827  0.2  0.463  0.694  0.038  30388
 AXCC1  0.810 1.00 P
 AXEC1  0.510 1.00 P
 AXEC2  0.490 1.00 P
 AXEC3  0.505 1.00 P
 AXAS1  0.690 1.00 P
 AXAS2  0.875 0.75 P
 AXID1  0.520 0.75 P
 AXEC2  0.895 0.25 S
 AXEC3  0.965 0.33 S
 AXAS1  1.285 0.25 S
 AXAS2  1.325 0.25 S
 AXID1  1.075 0.25 S
# 2015  2  3  0 10 58.790   45.94194 -129.98296  1.129  0.1  0.395  1.101  0.037  30389
 AXCC1  0.730 0.75 P
 AXEC1  0.520 0.50 P
 AXEC2  0.360 1.00 P
 AXEC3  0.375 1.00 P
 AXAS1  0.570 1.00 P
 AXAS2  0.640 0.75 P
 AXID1  0.670 0.50 P
 AXCC1  1.200 0.25 S
 AXEC1  0.830 0.33 S
 AXEC2  0.785 0.25 S
 AXEC3  0.825 0.33 S
 AXAS1  1.210 0.25 S
# 2015  2  3  0 12  4.753   45.94131 -129.97801  1.563  0.7  0.365  0.603  0.028  30402
 AXCC1  0.787 1.00 P
 AXEC1  0.462 1.00 P
 AXEC2  0.437 1.00 P
 AXEC3  0.457 1.00 P
 AXAS1  0.632 1.00 P
 AXAS2  0.807 1.00 P
 AXID1  0.542 0.75 P
 AXEC1  0.927 0.25 S
 AXEC2  0.857 0.25 S
 AXEC3  0.887 0.33 S
 AXAS1  1.287 0.33 S
 AXAS2  1.262 0.25 S
# 2015  2  3  0 12 13.327   45.94248 -129.97881  1.495  0.5  0.438  0.718  0.033  30403
 AXCC1  0.723 0.75 P
 AXEC1  0.438 1.00 P
 AXEC2  0.438 1.00 P
 AXEC3  0.458 1.00 P
 AXAS1  0.638 1.00 P
 AXAS2  0.813 1.00 P
 AXID1  0.578 0.75 P
 AXEC1  0.858 0.25 S
 AXEC2  0.848 0.25 S
 AXEC3  0.893 0.33 S
 AXAS2  1.208 0.25 S
 AXID1  0.973 0.25 S
# 2015  2  3  0 12 27.708   45.94284 -129.97968  1.489  0.7  0.432  0.765  0.033  30405
 AXCC1  0.692 1.00 P
 AXEC1  0.467 1.00 P
 AXEC2  0.442 1.00 P
 AXEC3  0.427 1.00 P
 AXAS1  0.632 1.00 P
 AXAS2  0.822 1.00 P
 AXID1  0.582 0.50 P
 AXEC1  0.827 0.25 S
 AXEC2  0.857 0.25 S
 AXEC3  0.897 0.33 S
 AXAS1  1.252 0.33 S
 AXAS2  1.242 0.25 S
 AXID1  1.037 0.25 S
# 2015  2  3  0 13 30.954   45.94088 -129.97934  1.479  0.6  0.394  0.656  0.038  30415
 AXCC1  0.761 1.00 P
 AXEC2  0.421 1.00 P
 AXEC3  0.441 0.50 P
 AXAS1  0.626 0.50 P
 AXAS2  0.776 1.00 P
 AXID1  0.566 0.75 P
 AXEC1  0.861 0.25 S
 AXEC2  0.826 0.25 S
 AXEC3  0.896 0.33 S
 AXAS1  1.266 0.25 S
 AXAS2  1.266 0.25 S
# 2015  2  3  0 14  6.751   45.94210 -129.98126  1.200  0.7  0.404  0.560  0.029  30419
 AXCC1  0.734 1.00 P
 AXEC1  0.409 1.00 P
 AXEC2  0.389 1.00 P
 AXEC3  0.404 1.00 P
 AXAS1  0.589 1.00 P
 AXAS2  0.649 0.50 P
 AXID1  0.569 0.50 P
 AXEC1  0.829 0.33 S
 AXEC2  0.799 0.25 S
 AXEC3  0.859 0.33 S
 AXAS1  1.189 0.25 S
 AXAS2  1.189 0.25 S
# 2015  2  3  0 17 10.722   45.94099 -129.98027  1.780  0.3  0.463  0.890  0.039  30451
 AXCC1  0.698 1.00 P
 AXEC1  0.553 1.00 P
 AXEC2  0.473 1.00 P
 AXEC3  0.473 1.00 P
 AXAS1  0.668 1.00 P
 AXAS2  0.798 0.75 P
 AXEC2  0.833 0.33 S
 AXEC3  0.918 0.33 S
 AXAS1  1.278 0.25 S
 AXAS2  1.263 0.25 S
 AXID1  1.013 0.25 S
# 2015  2  3  0 19 11.405   45.94325 -130.01952  0.917  0.6  0.950  0.873  0.046  30467
 AXCC1  0.480 1.00 P
 AXEC1  0.865 0.75 P
 AXEC2  0.840 1.00 P
 AXEC3  0.930 1.00 P
 AXAS1  0.610 1.00 P
 AXAS2  0.420 1.00 P
 AXID1  0.980 1.00 P
 AXEC1  1.510 0.33 S
 AXEC2  1.635 0.25 S
 AXAS1  1.340 0.25 S
 AXAS2  0.635 0.33 S
 AXID1  1.685 0.25 S
# 2015  2  3  0 20 13.946   45.94186 -129.97975  1.375  0.6  0.325  0.588  0.024  30475
 AXCC1  0.754 1.00 P
 AXEC1  0.414 1.00 P
 AXEC2  0.414 1.00 P
 AXEC3  0.444 1.00 P
 AXAS1  0.559 1.00 P
 AXAS2  0.809 0.50 P
 AXID1  0.579 1.00 P
 AXCC1  1.694 0.25 S
 AXEC1  0.884 0.25 S
 AXEC2  0.834 0.25 S
 AXEC3  0.874 0.33 S
 AXAS1  1.194 0.25 S
# 2015  2  3  0 22  9.309   45.94270 -129.98094  1.019  0.2  0.492  1.119  0.034  30494
 AXCC1  0.721 0.75 P
 AXEC1  0.291 0.50 P
 AXEC2  0.366 1.00 P
 AXEC3  0.401 1.00 P
 AXAS1  0.561 0.75 P
 AXAS2  0.776 0.75 P
 AXID1  0.541 0.50 P
 AXCC1  1.621 0.33 S
 AXEC1  0.831 0.25 S
 AXEC2  0.781 0.25 S
 AXEC3  0.856 0.33 S
 AXAS1  1.081 0.25 S
 AXAS2  1.156 0.25 S
# 2015  2  3  0 22 19.826   45.94348 -129.98004  1.244  0.3  0.473  0.793  0.022  30495
 AXCC1  0.694 1.00 P
 AXEC1  0.404 1.00 P
 AXEC2  0.394 1.00 P
 AXEC3  0.439 0.50 P
 AXAS1  0.594 1.00 P
 AXAS2  0.764 0.50 P
 AXID1  0.669 0.50 P
 AXCC1  1.684 0.25 S
 AXEC1  0.869 0.25 S
 AXEC2  0.814 0.25 S
 AXEC3  0.834 0.33 S
 AXAS1  1.219 0.25 S
# 2015  2  3  0 23 10.211   45.94271 -129.98004  1.256  0.5  0.396  0.663  0.023  30504
 AXCC1  0.744 1.00 P
 AXEC1  0.399 1.00 P
 AXEC2  0.349 0.50 P
 AXEC3  0.434 1.00 P
 AXAS1  0.599 1.00 P
 AXAS2  0.764 1.00 P
 AXID1  0.579 0.75 P
 AXEC1  0.864 0.25 S
 AXEC2  0.824 0.25 S
 AXEC3  0.864 0.33 S
 AXAS1  1.194 0.25 S
 AXAS2  1.239 0.25 S
# 2015  2  3  0 23 52.943   45.94165 -129.97810  1.596  0.7  0.384  0.636  0.029  30509
 AXCC1  0.777 1.00 P
 AXEC1  0.447 1.00 P
 AXEC2  0.447 1.00 P
 AXEC3  0.472 1.00 P
 AXAS1  0.642 1.00 P
 AXAS2  0.787 1.00 P
 AXID1  0.577 0.75 P
 AXCC1  1.742 0.25 S
 AXEC1  0.917 0.25 S
 AXEC2  0.862 0.25 S
 AXEC3  0.902 0.33 S
 AXAS1  1.232 0.25 S
 AXAS2  1.282 0.25 S
# 2015  2  3  0 24 19.111   45.94286 -129.97212  1.296  0.3  0.612  0.565  0.081  30514
 AXCC1  0.819 0.75 P
 AXEC1  0.454 1.00 P
 AXEC2  0.289 0.75 P
 AXEC3  0.484 1.00 P
 AXAS1  0.669 0.75 P
 AXID1  0.634 0.50 P
 AXCC1  1.744 0.25 S
 AXEC1  0.924 0.25 S
 AXEC2  0.874 0.25 S
 AXEC3  0.944 0.33 S
 AXAS1  1.269 0.25 S
# 2015  2  3  0 27 33.342   45.94007 -129.97643  1.430  0.0  0.420  0.558  0.032  30537
 AXEC1  0.463 1.00 P
 AXEC2  0.403 1.00 P
 AXEC3  0.423 1.00 P
 AXAS1  0.568 0.50 P
 AXAS2  0.878 0.75 P
 AXID1  0.523 0.75 P
 AXEC1  0.983 0.33 S
 AXEC2  0.808 0.33 S
 AXEC3  0.868 0.33 S
 AXAS1  1.278 0.33 S
 AXAS2  1.213 0.24 S
# 2015  2  3  0 27 34.897   45.94567 -130.02359  0.911  0.2  1.270  1.122  0.048  30538
 AXCC1  0.453 1.00 P
 AXEC1  0.968 0.50 P
 AXEC2  0.933 0.75 P
 AXAS1  0.748 0.50 P
 AXAS2  0.478 1.00 P
 AXID1  1.168 0.50 P
 AXCC1  1.228 0.25 S
 AXEC1  1.543 0.25 S
 AXEC2  1.753 0.25 S
 AXAS1  1.473 0.25 S
 AXAS2  0.723 0.24 S
# 2015  2  3  0 30 31.869   45.93308 -129.95293  4.373  0.8  0.617  0.608  0.024  30562
 AXEC1  1.061 1.00 P
 AXEC2  0.971 1.00 P
 AXEC3  0.951 1.00 P
 AXAS1  1.116 1.00 P
 AXAS2  1.336 0.75 P
 AXID1  1.011 1.00 P
 AXCC1  2.501 0.25 S
 AXEC1  2.006 0.33 S
 AXEC2  1.796 0.33 S
 AXEC3  1.851 0.33 S
 AXAS1  2.191 0.33 S
 AXAS2  2.186 0.25 S
 AXID1  1.956 0.25 S
# 2015  2  3  0 49 45.969   45.94405 -129.97939  1.493  0.9  0.368  0.680  0.059  30685
 AXEC1  0.416 1.00 P
 AXEC2  0.446 1.00 P
 AXEC3  0.476 1.00 P
 AXAS1  0.671 1.00 P
 AXAS2  0.786 1.00 P
 AXID1  0.621 1.00 P
 AXEC2  0.851 0.33 S
 AXEC3  0.941 0.33 S
 AXAS1  1.331 0.33 S
 AXAS2  1.276 0.33 S
 AXID1  1.116 0.25 S
# 2015  2  3  0 50  0.597   45.94274 -129.97955  1.351  0.5  0.458  0.841  0.042  30687
 AXCC1  0.768 1.00 P
 AXEC1  0.393 1.00 P
 AXEC2  0.423 1.00 P
 AXEC3  0.453 1.00 P
 AXAS1  0.658 1.00 P
 AXAS2  0.658 0.50 P
 AXID1  0.453 0.50 P
 AXEC1  0.798 0.33 S
 AXEC3  0.908 0.33 S
 AXAS1  1.083 0.33 S
 AXAS2  1.253 0.25 S
 AXID1  1.138 0.25 S
# 2015  2  3  0 55 22.374   45.94368 -129.97795  1.436  0.5  0.403  0.571  0.035  30715
 AXCC1  0.781 1.00 P
 AXEC1  0.411 1.00 P
 AXEC2  0.436 1.00 P
 AXEC3  0.476 1.00 P
 AXAS1  0.661 1.00 P
 AXID1  0.576 1.00 P
 AXCC1  1.216 0.25 S
 AXEC1  0.816 0.33 S
 AXEC2  0.831 0.33 S
 AXEC3  0.911 0.33 S
 AXAS1  1.301 0.33 S
 AXAS2  1.281 0.25 S
# 2015  2  3  0 56 37.307   45.94165 -129.97595  1.556  0.8  0.381  0.518  0.032  30725
 AXCC1  0.799 1.00 P
 AXEC1  0.454 1.00 P
 AXEC2  0.454 1.00 P
 AXEC3  0.454 1.00 P
 AXAS1  0.689 1.00 P
 AXAS2  0.804 0.50 P
 AXID1  0.559 1.00 P
 AXEC1  0.879 0.33 S
 AXEC2  0.844 0.33 S
 AXEC3  0.914 0.33 S
 AXAS1  1.239 0.33 S
 AXAS2  1.334 0.25 S
# 2015  2  3  0 56 56.173   45.94278 -129.97905  1.334  0.6  0.365  0.595  0.034  30727
 AXCC1  0.737 1.00 P
 AXEC1  0.437 0.75 P
 AXEC2  0.407 1.00 P
 AXEC3  0.427 1.00 P
 AXAS1  0.642 1.00 P
 AXAS2  0.822 0.75 P
 AXID1  0.567 1.00 P
 AXEC1  0.822 0.33 S
 AXEC2  0.792 0.33 S
 AXEC3  0.882 0.33 S
 AXAS1  1.272 0.25 S
 AXAS2  1.292 0.33 S
# 2015  2  3  0 58 20.448   45.94340 -129.97798  1.636  1.0  0.384  0.566  0.027  30738
 AXCC1  0.767 1.00 P
 AXEC1  0.457 1.00 P
 AXEC2  0.467 1.00 P
 AXEC3  0.492 1.00 P
 AXAS1  0.687 1.00 P
 AXAS2  0.797 1.00 P
 AXID1  0.597 1.00 P
 AXEC1  0.862 0.33 S
 AXEC2  0.877 0.33 S
 AXEC3  0.952 0.33 S
 AXAS1  1.337 0.25 S
 AXAS2  1.357 0.25 S
# 2015  2  3  0 59 25.284   45.94381 -129.97804  1.356  0.1  0.501  0.695  0.033  30746
 AXCC1  0.751 1.00 P
 AXEC1  0.421 1.00 P
 AXEC2  0.361 0.50 P
 AXEC3  0.461 1.00 P
 AXAS1  0.666 1.00 P
 AXAS2  0.756 0.75 P
 AXID1  0.626 0.50 P
 AXEC1  0.821 0.33 S
 AXEC2  0.826 0.33 S
 AXEC3  0.901 0.33 S
 AXAS1  1.301 0.33 S
 AXID1  0.991 0.25 S
# 2015  2  3  0 59 40.260   45.94463 -129.97830  1.515  0.7  0.394  0.560  0.027  30747
 AXCC1  0.710 1.00 P
 AXEC1  0.445 1.00 P
 AXEC2  0.450 1.00 P
 AXEC3  0.475 1.00 P
 AXAS1  0.670 1.00 P
 AXAS2  0.845 1.00 P
 AXID1  0.620 1.00 P
 AXEC1  0.845 0.33 S
 AXEC2  0.865 0.33 S
 AXEC3  0.935 0.33 S
 AXAS1  1.320 0.25 S
 AXAS2  1.335 0.25 S
# 2015  2  3  1  1  8.336   45.95648 -129.99147  1.449  0.9  0.539  0.827  0.033  30761
 AXCC1  0.534 1.00 P
 AXEC1  0.499 1.00 P
 AXEC2  0.689 1.00 P
 AXEC3  0.709 1.00 P
 AXAS1  0.784 1.00 P
 AXAS2  0.804 1.00 P
 AXID1  0.889 1.00 P
 AXCC1  0.954 0.33 S
 AXEC1  0.984 0.25 S
 AXEC2  1.284 0.33 S
 AXEC3  1.354 0.33 S
 AXAS1  1.714 0.25 S
 AXAS2  1.349 0.25 S
# 2015  2  3  1 19 41.201   45.97612 -129.99529  2.502  1.1  0.600  0.705  0.020  30840
 AXCC1  0.799 1.00 P
 AXEC1  0.914 1.00 P
 AXEC2  1.089 1.00 P
 AXEC3  1.124 1.00 P
 AXAS1  1.234 0.50 P
 AXAS2  1.189 1.00 P
 AXID1  1.344 1.00 P
 AXCC1  1.639 0.33 S
 AXEC1  1.724 0.33 S
 AXEC2  2.064 0.33 S
 AXEC3  2.089 0.25 S
 AXAS2  2.134 0.25 S
# 2015  2  3  1 47 22.480   45.96555 -129.98477  1.116  0.4  0.758  0.690  0.038  30918
 AXCC1  0.646 1.00 P
 AXEC1  0.526 0.50 P
 AXEC2  0.831 1.00 P
 AXEC3  0.861 1.00 P
 AXAS1  1.001 0.50 P
 AXAS2  1.001 0.75 P
 AXCC1  1.446 0.25 S
 AXEC1  1.236 0.25 S
 AXEC2  1.476 0.33 S
 AXEC3  1.586 0.33 S
 AXAS1  1.996 0.25 S
# 2015  2  3  1 49 16.741   45.93713 -129.97887  1.501  0.3  0.316  0.523  0.017  30923
 AXCC1  0.819 0.50 P
 AXEC1  0.529 1.00 P
 AXEC2  0.434 1.00 P
 AXEC3  0.414 1.00 P
 AXAS1  0.539 0.50 P
 AXAS2  0.774 1.00 P
 AXID1  0.504 1.00 P
 AXEC1  1.009 0.33 S
 AXEC2  0.804 0.25 S
 AXEC3  0.859 0.33 S
 AXAS1  1.244 0.25 S
 AXID1  0.979 0.25 S
# 2015  2  3  1 50 14.307   45.94689 -130.02188  0.807  0.3  1.067  1.329  0.036  30928
 AXCC1  0.442 1.00 P
 AXEC1  0.837 1.00 P
 AXEC2  0.937 1.00 P
 AXEC3  0.927 1.00 P
 AXAS2  0.527 0.75 P
 AXID1  1.027 1.00 P
 AXCC1  1.217 0.25 S
 AXEC1  1.567 0.25 S
 AXEC2  1.737 0.25 S
 AXEC3  1.787 0.25 S
 AXAS2  0.812 0.25 S
# 2015  2  3  2 37 52.066   45.93298 -129.97649  1.436  0.2  0.353  0.502  0.028  31059
 AXEC1  0.589 1.00 P
 AXEC2  0.454 1.00 P
 AXEC3  0.419 1.00 P
 AXAS1  0.599 1.00 P
 AXAS2  0.749 0.50 P
 AXID1  0.454 1.00 P
 AXEC1  1.124 0.25 S
 AXEC2  0.864 0.33 S
 AXEC3  0.844 0.33 S
 AXAS1  1.244 0.25 S
 AXID1  0.759 0.33 S
# 2015  2  3  2 39  6.970   45.94874 -130.02078  0.641  0.3  1.547  0.723  0.036  31067
 AXCC1  0.410 1.00 P
 AXEC1  0.840 1.00 P
 AXEC2  0.950 0.75 P
 AXEC3  0.925 0.75 P
 AXAS1  0.770 0.50 P
 AXAS2  0.525 1.00 P
 AXID1  1.070 1.00 P
 AXEC1  1.575 0.33 S
 AXEC2  1.750 0.25 S
 AXEC3  1.780 0.33 S
 AXAS1  1.565 0.25 S
 AXAS2  0.895 0.25 S
# 2015  2  3  2 55  0.502   45.95484 -129.99260  1.176  1.0  0.589  0.663  0.028  31113
 AXCC1  0.464 1.00 P
 AXEC1  0.464 1.00 P
 AXEC2  0.654 1.00 P
 AXEC3  0.679 1.00 P
 AXAS1  0.764 1.00 P
 AXAS2  0.759 1.00 P
 AXID1  0.859 0.50 P
 AXEC1  0.969 0.33 S
 AXEC2  1.269 0.33 S
 AXEC3  1.329 0.33 S
 AXAS2  1.289 0.25 S
 AXID1  1.589 0.25 S
# 2015  2  3  3  2 20.576   45.93704 -129.97772  1.465  0.6  0.337  0.507  0.028  31130
 AXCC1  0.859 1.00 P
 AXEC1  0.509 1.00 P
 AXEC2  0.414 1.00 P
 AXEC3  0.409 1.00 P
 AXAS1  0.614 1.00 P
 AXAS2  0.759 1.00 P
 AXID1  0.499 1.00 P
 AXCC1  1.569 0.25 S
 AXEC2  0.794 0.25 S
 AXEC3  0.849 0.33 S
 AXAS1  1.229 0.25 S
 AXAS2  1.194 0.25 S
# 2015  2  3  5 56 45.583   45.94062 -130.01665  1.059  0.2  0.781  1.466  0.031  31314
 AXCC1  0.538 1.00 P
 AXEC1  0.823 0.75 P
 AXEC2  0.833 1.00 P
 AXEC3  0.843 1.00 P
 AXAS1  0.553 1.00 P
 AXAS2  0.358 1.00 P
 AXID1  0.883 0.50 P
 AXCC1  1.218 0.25 S
 AXEC1  1.408 0.25 S
 AXEC2  1.498 0.33 S
 AXEC3  1.543 0.25 S
 AXAS1  1.193 0.25 S
# 2015  2  3  6 15 57.476   45.94847 -130.02298  0.838  0.7  0.909  0.834  0.039  31320
 AXCC1  0.459 1.00 P
 AXEC1  0.849 1.00 P
 AXEC2  0.964 1.00 P
 AXEC3  1.004 1.00 P
 AXAS1  0.774 1.00 P
 AXAS2  0.539 1.00 P
 AXID1  1.094 1.00 P
 AXEC1  1.674 0.25 S
 AXEC2  1.849 0.25 S
 AXEC3  1.789 0.33 S
 AXAS1  1.584 0.25 S
 AXAS2  0.899 0.33 S
# 2015  2  3  8 41 18.686   45.96096 -129.99272  1.669  0.7  0.477  0.668  0.023  31359
 AXCC1  0.539 1.00 P
 AXEC1  0.579 1.00 P
 AXEC2  0.784 1.00 P
 AXEC3  0.814 1.00 P
 AXAS1  0.894 0.75 P
 AXAS2  0.899 1.00 P
 AXID1  0.969 0.75 P
 AXCC1  1.189 0.25 S
 AXEC1  1.204 0.33 S
 AXEC2  1.514 0.33 S
 AXEC3  1.514 0.33 S
 AXAS2  1.619 0.33 S
# 2015  2  3  9  2 53.482   45.95076 -130.02525  1.144  0.4  0.906  0.614  0.057  31369
 AXCC1  0.418 1.00 P
 AXEC1  0.838 1.00 P
 AXEC2  0.958 1.00 P
 AXEC3  0.963 1.00 P
 AXAS1  0.813 1.00 P
 AXAS2  0.538 1.00 P
 AXID1  1.053 1.00 P
 AXEC1  1.623 0.33 S
 AXEC2  1.788 0.33 S
 AXEC3  1.803 0.33 S
 AXAS1  1.583 0.25 S
 AXAS2  0.893 0.23 S
# 2015  2  3 10 58  5.871   45.94061 -130.01741  1.103  0.4  0.577  0.661  0.028  31426
 AXCC1  0.559 1.00 P
 AXEC1  0.699 0.50 P
 AXEC2  0.864 1.00 P
 AXEC3  0.824 1.00 P
 AXAS1  0.574 1.00 P
 AXAS2  0.379 1.00 P
 AXID1  0.904 0.75 P
 AXCC1  1.234 0.25 S
 AXEC1  1.529 0.25 S
 AXEC2  1.669 0.33 S
 AXEC3  1.569 0.33 S
 AXAS1  1.244 0.25 S
 AXID1  1.554 0.25 S
# 2015  2  3 11 11  2.647   45.94058 -130.01881  1.272  0.6  0.537  0.860  0.035  31435
 AXCC1  0.578 1.00 P
 AXEC1  0.818 1.00 P
 AXEC2  0.873 1.00 P
 AXEC3  0.833 1.00 P
 AXAS1  0.598 1.00 P
 AXAS2  0.393 1.00 P
 AXID1  0.918 1.00 P
 AXCC1  1.268 0.25 S
 AXEC1  1.418 0.25 S
 AXEC2  1.688 0.33 S
 AXEC3  1.588 0.33 S
 AXAS1  1.253 0.25 S
# 2015  2  3 12 16 47.381   45.93634 -130.01775  1.228  0.4  0.622  0.632  0.029  31484
 AXCC1  0.644 1.00 P
 AXEC1  0.854 1.00 P
 AXEC2  0.869 1.00 P
 AXEC3  0.824 0.75 P
 AXAS1  0.564 1.00 P
 AXAS2  0.369 1.00 P
 AXID1  0.809 0.50 P
 AXCC1  1.344 0.25 S
 AXEC1  1.654 0.25 S
 AXEC2  1.569 0.33 S
 AXEC3  1.549 0.33 S
 AXAS1  1.239 0.25 S
 AXAS2  0.619 0.33 S
# 2015  2  3 12 20 35.843   45.93497 -130.01987  1.224  0.4  0.608  0.440  0.027  31492
 AXCC1  0.672 1.00 P
 AXEC1  0.897 1.00 P
 AXEC2  0.907 1.00 P
 AXEC3  0.852 1.00 P
 AXAS1  0.587 1.00 P
 AXAS2  0.387 1.00 P
 AXID1  0.832 0.75 P
 AXEC1  1.732 0.25 S
 AXEC2  1.647 0.25 S
 AXEC3  1.637 0.33 S
 AXAS1  1.287 0.25 S
 AXAS2  0.652 0.33 S
# 2015  2  3 12 27 17.825   45.95218 -130.02206  0.804  0.7  0.902  0.829  0.036  31504
 AXCC1  0.400 1.00 P
 AXEC1  0.865 1.00 P
 AXEC2  0.985 1.00 P
 AXEC3  0.990 1.00 P
 AXAS1  0.835 1.00 P
 AXAS2  0.605 1.00 P
 AXID1  1.125 1.00 P
 AXEC2  1.860 0.33 S
 AXEC3  1.895 0.25 S
 AXAS1  1.660 0.25 S
 AXAS2  1.055 0.33 S
 AXID1  2.025 0.25 S
# 2015  2  3 13  8 26.615   45.93558 -130.02046  1.578  0.9  0.523  0.518  0.029  31535
 AXCC1  0.685 1.00 P
 AXEC1  0.905 1.00 P
 AXEC2  0.935 1.00 P
 AXEC3  0.880 1.00 P
 AXAS1  0.630 1.00 P
 AXAS2  0.435 1.00 P
 AXID1  0.850 1.00 P
 AXEC1  1.720 0.25 S
 AXEC2  1.685 0.33 S
 AXEC3  1.645 0.33 S
 AXAS1  1.345 0.25 S
 AXAS2  0.695 0.25 S
# 2015  2  3 14 56  5.500   45.93456 -129.97612  1.330  0.0  0.328  0.477  0.046  31578
 AXEC1  0.565 0.75 P
 AXEC2  0.415 1.00 P
 AXEC3  0.390 1.00 P
 AXAS1  0.585 1.00 P
 AXAS2  0.775 0.50 P
 AXID1  0.455 1.00 P
 AXEC1  1.050 0.25 S
 AXEC2  0.790 0.33 S
 AXEC3  0.795 0.33 S
 AXAS1  1.280 0.25 S
 AXID1  0.800 0.25 S
# 2015  2  4  0 26 16.314   45.96370 -130.04291  2.122  0.8  0.772  0.979  0.032  31854
 AXCC1  0.816 1.00 P
 AXEC1  1.186 1.00 P
 AXEC2  1.346 1.00 P
 AXEC3  1.341 1.00 P
 AXAS1  1.211 1.00 P
 AXAS2  0.991 1.00 P
 AXID1  1.476 0.75 P
 AXCC1  1.641 0.33 S
 AXEC1  2.216 0.25 S
 AXEC2  2.511 0.25 S
 AXEC3  2.636 0.25 S
 AXAS2  1.616 0.25 S
# 2015  2  4  0 29  1.599   45.97773 -129.99500  2.179  0.8  0.745  1.084  0.025  31865
 AXCC1  0.821 1.00 P
 AXEC1  0.906 1.00 P
 AXEC2  1.086 1.00 P
 AXEC3  1.146 1.00 P
 AXAS1  1.201 0.75 P
 AXAS2  1.221 1.00 P
 AXCC1  1.401 0.25 S
 AXEC1  1.831 0.25 S
 AXEC2  2.151 0.25 S
 AXEC3  2.271 0.25 S
 AXAS2  2.181 0.33 S
# 2015  2  4  1 55  1.830   45.95022 -130.02229  1.101  0.8  0.725  0.573  0.035  32052
 AXCC1  0.450 1.00 P
 AXEC1  0.835 1.00 P
 AXEC2  0.960 1.00 P
 AXEC3  0.920 1.00 P
 AXAS2  0.520 0.50 P
 AXID1  1.115 1.00 P
 AXEC1  1.605 0.25 S
 AXEC2  1.820 0.33 S
 AXEC3  1.810 0.33 S
 AXAS1  1.630 0.25 S
 AXAS2  0.950 0.25 S
 AXID1  1.820 0.25 S
# 2015  2  4  1 55 49.511   45.94913 -130.01950  0.976  0.5  1.222  1.002  0.047  32057
 AXCC1  0.389 1.00 P
 AXEC1  0.769 1.00 P
 AXEC2  0.884 1.00 P
 AXEC3  0.904 1.00 P
 AXAS2  0.534 0.75 P
 AXID1  1.044 0.75 P
 AXEC1  1.554 0.33 S
 AXEC2  1.724 0.33 S
 AXEC3  1.749 0.33 S
 AXAS2  0.884 0.33 S
 AXID1  1.764 0.25 S
# 2015  2  4  2  4 18.753   45.94210 -130.02234  1.724  1.3  0.487  0.665  0.030  32079
 AXCC1  0.602 1.00 P
 AXEC1  0.872 1.00 P
 AXEC2  0.957 1.00 P
 AXEC3  0.912 1.00 P
 AXAS1  0.702 1.00 P
 AXAS2  0.497 1.00 P
 AXID1  0.972 1.00 P
 AXCC1  1.262 0.33 S
 AXEC2  1.732 0.33 S
 AXEC3  1.767 0.25 S
 AXAS1  1.422 0.33 S
 AXID1  1.627 0.25 S
# 2015  2  4  2  6 33.607   45.95571 -130.03560  1.389  0.5  0.602  0.792  0.033  32083
 AXCC1  0.633 1.00 P
 AXEC1  1.053 1.00 P
 AXEC2  1.193 1.00 P
 AXEC3  1.178 0.75 P
 AXAS1  1.038 0.75 P
 AXAS2  0.768 1.00 P
 AXID1  1.268 0.50 P
 AXEC1  1.998 0.25 S
 AXEC2  2.158 0.25 S
 AXEC3  2.153 0.25 S
 AXAS1  2.003 0.33 S
 AXAS2  1.303 0.25 S
 AXID1  2.303 0.25 S
# 2015  2  4  2 32 16.735   45.96421 -129.99348  1.748  0.9  0.505  0.843  0.038  32129
 AXCC1  0.565 1.00 P
 AXEC1  0.665 1.00 P
 AXEC2  0.840 1.00 P
 AXEC3  0.875 1.00 P
 AXAS1  0.985 1.00 P
 AXAS2  0.915 1.00 P
 AXID1  0.955 0.50 P
 AXEC1  1.250 0.33 S
 AXEC2  1.555 0.33 S
 AXEC3  1.635 0.33 S
 AXAS1  1.935 0.25 S
 AXID1  1.885 0.25 S
# 2015  2  4  3 49  3.585   45.94881 -130.02446  0.940  0.3  1.148  0.811  0.036  32279
 AXCC1  0.470 1.00 P
 AXEC1  0.865 1.00 P
 AXEC2  0.975 1.00 P
 AXEC3  0.970 1.00 P
 AXAS1  0.775 1.00 P
 AXAS2  0.545 1.00 P
 AXID1  1.090 0.50 P
 AXEC1  1.570 0.25 S
 AXEC2  1.820 0.25 S
 AXEC3  1.815 0.33 S
 AXAS1  1.615 0.25 S
 AXAS2  0.900 0.25 S
# 2015  2  4  4 32 16.118   45.94714 -130.02046  1.725  0.1  0.614  1.035  0.054  32322
 AXCC1  0.492 1.00 P
 AXEC1  0.887 0.75 P
 AXEC2  1.027 1.00 P
 AXEC3  0.852 1.00 P
 AXAS2  0.667 0.75 P
 AXID1  0.917 0.75 P
 AXEC1  1.657 0.25 S
 AXEC2  1.762 0.33 S
 AXEC3  1.862 0.33 S
 AXAS2  1.007 0.25 S
 AXID1  1.672 0.25 S
# 2015  2  4  5 15  9.625   45.95270 -130.03247  0.905  0.4  0.892  0.780  0.035  32390
 AXCC1  0.565 1.00 P
 AXEC1  0.980 1.00 P
 AXEC2  1.110 1.00 P
 AXEC3  1.085 1.00 P
 AXAS2  0.705 1.00 P
 AXID1  1.240 1.00 P
 AXEC2  2.090 0.25 S
 AXEC3  2.070 0.25 S
 AXAS1  1.890 0.25 S
 AXAS2  1.175 0.33 S
 AXID1  2.265 0.25 S
# 2015  2  4  6 34 44.693   45.95832 -130.03322  2.713  1.4  0.870  1.063  0.046  32444
 AXCC1  0.682 0.50 P
 AXEC1  1.082 1.00 P
 AXEC2  1.227 1.00 P
 AXEC3  1.217 1.00 P
 AXAS1  1.117 1.00 P
 AXAS2  0.877 1.00 P
 AXID1  1.252 1.00 P
 AXEC1  1.982 0.25 S
 AXEC2  2.247 0.25 S
 AXEC3  2.157 0.33 S
 AXAS1  2.222 0.25 S
 AXAS2  1.432 0.25 S
