# 2015  2  4  8 17 44.578   45.94117 -130.02013  1.225  1.0  0.629  0.945  0.033  32490
 AXCC1  0.562 1.00 P
 AXEC1  0.837 1.00 P
 AXEC2  0.907 1.00 P
 AXEC3  0.867 1.00 P
 AXAS1  0.637 1.00 P
 AXAS2  0.432 1.00 P
 AXID1  0.922 1.00 P
 AXEC2  1.662 0.33 S
 AXEC3  1.692 0.33 S
 AXAS1  1.347 0.25 S
 AXAS2  0.682 0.33 S
 AXID1  1.612 0.25 S
# 2015  2  4  9  4 46.207   45.94375 -130.01830  1.051  1.3  0.403  0.829  0.037  32508
 AXCC1  0.503 1.00 P
 AXEC1  0.803 1.00 P
 AXEC2  0.893 1.00 P
 AXEC3  0.828 1.00 P
 AXAS1  0.643 1.00 P
 AXAS2  0.453 1.00 P
 AXID1  0.943 1.00 P
 AXEC1  1.538 0.33 S
 AXEC2  1.653 0.33 S
 AXEC3  1.708 0.25 S
 AXAS1  1.383 0.25 S
 AXAS2  0.663 0.33 S
# 2015  2  4 11 21 51.086   45.94743 -130.01974  0.648  1.0  1.556  0.796  0.048  32576
 AXCC1  0.374 1.00 P
 AXEC1  0.794 1.00 P
 AXEC2  0.904 0.50 P
 AXEC3  0.879 1.00 P
 AXAS1  0.699 1.00 P
 AXAS2  0.484 1.00 P
 AXID1  0.989 1.00 P
 AXEC1  1.569 0.25 S
 AXEC2  1.774 0.25 S
 AXEC3  1.769 0.33 S
 AXAS2  0.844 0.33 S
 AXID1  1.819 0.25 S
# 2015  2  4 14 26 56.011   45.94870 -130.02277  0.941  1.8  1.090  0.881  0.042  32636
 AXCC1  0.454 1.00 P
 AXEC1  0.839 1.00 P
 AXEC2  0.964 1.00 P
 AXEC3  0.939 1.00 P
 AXAS1  0.759 1.00 P
 AXAS2  0.539 1.00 P
 AXID1  1.019 1.00 P
 AXEC1  1.629 0.33 S
 AXEC2  1.779 0.33 S
 AXEC3  1.809 0.33 S
 AXAS1  1.584 0.33 S
 AXAS2  0.894 0.33 S
 AXID1  1.819 0.25 S
# 2015  2  4 14 39 19.051   45.94056 -130.01964  0.964  0.4  1.110  0.881  0.031  32641
 AXCC1  0.534 1.00 P
 AXEC1  0.834 0.50 P
 AXEC2  0.884 1.00 P
 AXEC3  0.869 1.00 P
 AXAS1  0.584 0.50 P
 AXAS2  0.344 0.50 P
 AXEC1  1.524 0.25 S
 AXEC2  1.629 0.33 S
 AXEC3  1.674 0.33 S
 AXAS1  1.264 0.25 S
 AXAS2  0.639 0.33 S
# 2015  2  5  1 39 14.355   45.95731 -129.99567  0.866  0.6  1.001  0.981  0.092  32881
 AXCC1  0.400 1.00 P
 AXEC1  0.530 1.00 P
 AXEC2  0.710 1.00 P
 AXEC3  0.720 1.00 P
 AXAS2  0.845 1.00 P
 AXID1  1.015 0.50 P
 AXEC1  1.110 0.33 S
 AXEC2  1.430 0.33 S
 AXEC3  1.460 0.33 S
 AXAS2  1.415 0.25 S
 AXID1  1.650 0.25 S
# 2015  2  5  1 40 11.853   45.95638 -129.99490  0.559  0.7  0.621  0.371  0.035  32884
 AXCC1  0.422 1.00 P
 AXEC1  0.542 1.00 P
 AXEC2  0.737 1.00 P
 AXEC3  0.742 1.00 P
 AXAS1  0.827 0.50 P
 AXAS2  0.832 1.00 P
 AXID1  0.917 0.75 P
 AXEC1  1.172 0.33 S
 AXEC2  1.467 0.33 S
 AXEC3  1.547 0.33 S
 AXAS1  1.867 0.25 S
 AXAS2  1.472 0.25 S
# 2015  2  5  1 57 46.402   45.96451 -129.99586  1.697  1.5  0.562  0.639  0.053  32900
 AXCC1  0.538 1.00 P
 AXEC1  0.668 1.00 P
 AXEC2  0.868 1.00 P
 AXEC3  0.883 1.00 P
 AXAS1  0.963 1.00 P
 AXAS2  0.933 1.00 P
 AXID1  1.068 1.00 P
 AXCC1  1.313 0.25 S
 AXEC1  1.318 0.33 S
 AXEC2  1.588 0.33 S
 AXEC3  1.713 0.33 S
 AXAS2  1.618 0.25 S
# 2015  2  5  2 30 30.754   45.94329 -129.97952  0.740  0.0  0.478  0.462  0.042  32924
 AXCC1  0.666 0.50 P
 AXEC1  0.326 0.75 P
 AXEC2  0.346 1.00 P
 AXEC3  0.321 1.00 P
 AXAS1  0.606 0.50 P
 AXAS2  0.891 0.75 P
 AXEC1  0.796 0.33 S
 AXEC2  0.726 0.33 S
 AXEC3  0.816 0.33 S
 AXAS1  1.201 0.25 S
 AXID1  1.256 0.25 S
# 2015  2  5  3 44 29.501   45.92488 -129.99612  0.891  0.5  0.368  0.640  0.042  32988
 AXCC1  0.999 0.75 P
 AXEC1  0.819 0.75 P
 AXEC2  0.629 1.00 P
 AXEC3  0.579 1.00 P
 AXAS1  0.389 0.50 P
 AXAS2  0.504 1.00 P
 AXID1  0.489 1.00 P
 AXCC1  1.849 0.25 S
 AXEC1  1.464 0.33 S
 AXEC2  1.224 0.33 S
 AXEC3  1.159 0.33 S
 AXAS1  0.994 0.25 S
 AXAS2  0.839 0.25 S
# 2015  2  5  3 55 23.131   45.94947 -130.02089  1.176  0.6  0.798  0.614  0.033  32999
 AXCC1  0.444 1.00 P
 AXEC1  0.839 1.00 P
 AXEC2  0.974 1.00 P
 AXEC3  0.889 1.00 P
 AXAS1  0.769 0.75 P
 AXAS2  0.579 1.00 P
 AXEC1  1.594 0.25 S
 AXEC2  1.774 0.33 S
 AXEC3  1.779 0.33 S
 AXAS1  1.559 0.25 S
 AXAS2  0.914 0.25 S
# 2015  2  5  3 59 20.039   45.94510 -130.02071  0.924  1.9  0.830  0.746  0.038  33001
 AXCC1  0.476 1.00 P
 AXEC1  0.811 1.00 P
 AXEC2  0.921 1.00 P
 AXEC3  0.881 1.00 P
 AXAS1  0.676 1.00 P
 AXAS2  0.471 1.00 P
 AXID1  0.951 1.00 P
 AXEC1  1.586 0.33 S
 AXEC2  1.686 0.33 S
 AXEC3  1.676 0.33 S
 AXAS1  1.431 0.33 S
 AXAS2  0.766 0.33 S
# 2015  2  5  4 17 50.730   45.94333 -129.98544  1.625  0.9  0.256  0.755  0.027  33026
 AXCC1  0.685 1.00 P
 AXEC1  0.465 1.00 P
 AXEC2  0.510 1.00 P
 AXEC3  0.500 1.00 P
 AXAS1  0.590 1.00 P
 AXAS2  0.685 1.00 P
 AXID1  0.630 0.75 P
 AXEC1  0.900 0.33 S
 AXEC2  0.930 0.33 S
 AXEC3  0.955 0.33 S
 AXAS1  1.285 0.25 S
 AXAS2  1.225 0.25 S
# 2015  2  5 10  5  8.436   45.94174 -130.02097  1.543  0.4  0.600  0.822  0.038  33162
 AXCC1  0.529 1.00 P
 AXEC1  0.839 0.75 P
 AXEC2  0.924 1.00 P
 AXEC3  0.884 1.00 P
 AXAS2  0.469 1.00 P
 AXID1  0.909 0.75 P
 AXEC1  1.559 0.25 S
 AXEC2  1.689 0.33 S
 AXEC3  1.699 0.25 S
 AXAS1  1.404 0.25 S
 AXAS2  0.689 0.33 S
# 2015  2  5 11  7 40.355   45.94533 -130.01866  1.403  0.6  0.730  0.994  0.039  33171
 AXCC1  0.530 1.00 P
 AXEC1  0.730 1.00 P
 AXEC2  0.900 1.00 P
 AXEC3  0.895 1.00 P
 AXAS1  0.670 1.00 P
 AXAS2  0.465 1.00 P
 AXID1  0.985 1.00 P
 AXEC1  1.535 0.25 S
 AXEC2  1.660 0.25 S
 AXEC3  1.690 0.25 S
 AXAS1  1.375 0.25 S
 AXID1  1.645 0.25 S
# 2015  2  5 11  7 46.256   45.94529 -130.01740  1.627  0.8  0.455  0.789  0.023  33172
 AXCC1  0.514 1.00 P
 AXEC1  0.809 1.00 P
 AXEC2  0.884 1.00 P
 AXEC3  0.854 1.00 P
 AXAS1  0.654 1.00 P
 AXAS2  0.449 0.50 P
 AXID1  0.959 1.00 P
 AXEC1  1.519 0.25 S
 AXEC2  1.644 0.33 S
 AXEC3  1.659 0.33 S
 AXAS1  1.364 0.25 S
 AXID1  1.609 0.25 S
# 2015  2  5 11  8 18.590   45.94376 -130.01561  0.759  0.4  0.573  0.497  0.034  33173
 AXCC1  0.460 1.00 P
 AXEC2  0.835 1.00 P
 AXEC3  0.795 1.00 P
 AXAS1  0.605 1.00 P
 AXAS2  0.395 1.00 P
 AXID1  0.900 0.75 P
 AXEC1  1.450 0.25 S
 AXEC2  1.580 0.25 S
 AXEC3  1.610 0.25 S
 AXAS1  1.305 0.25 S
 AXID1  1.570 0.25 S
# 2015  2  5 11 51 39.374   45.94010 -130.02399  1.941  0.8  0.633  0.713  0.051  33176
 AXCC1  0.636 1.00 P
 AXEC1  0.931 1.00 P
 AXEC2  1.011 1.00 P
 AXEC3  0.976 1.00 P
 AXAS1  0.756 1.00 P
 AXAS2  0.561 1.00 P
 AXID1  0.876 1.00 P
 AXEC1  1.696 0.25 S
 AXEC2  1.776 0.25 S
 AXEC3  1.811 0.25 S
 AXAS1  1.476 0.33 S
 AXAS2  0.816 0.33 S
 AXID1  1.746 0.25 S
# 2015  2  5 15 30 51.317   45.94011 -130.01967  1.412  1.3  0.537  0.644  0.025  33219
 AXCC1  0.589 1.00 P
 AXEC1  0.844 1.00 P
 AXEC2  0.909 1.00 P
 AXEC3  0.864 1.00 P
 AXAS1  0.624 1.00 P
 AXAS2  0.424 1.00 P
 AXID1  0.914 1.00 P
 AXCC1  1.279 0.33 S
 AXEC1  1.589 0.33 S
 AXEC2  1.674 0.33 S
 AXAS1  1.329 0.25 S
 AXID1  1.639 0.25 S
# 2015  2  5 15 34 52.702   45.94239 -130.01581  0.720  0.4  0.879  0.633  0.032  33220
 AXCC1  0.508 1.00 P
 AXEC1  0.808 0.75 P
 AXEC2  0.848 1.00 P
 AXEC3  0.878 1.00 P
 AXAS1  0.558 1.00 P
 AXAS2  0.358 1.00 P
 AXCC1  1.238 0.25 S
 AXEC1  1.393 0.33 S
 AXEC2  1.658 0.33 S
 AXEC3  1.593 0.33 S
 AXAS1  1.223 0.25 S
# 2015  2  5 16 44 56.756   45.94722 -130.02319  1.209  0.6  0.609  1.566  0.049  33229
 AXCC1  0.454 1.00 P
 AXEC1  0.824 1.00 P
 AXEC2  0.994 1.00 P
 AXEC3  0.939 1.00 P
 AXAS1  0.769 1.00 P
 AXAS2  0.524 1.00 P
 AXID1  1.039 0.75 P
 AXCC1  1.369 0.25 S
 AXEC1  1.579 0.25 S
 AXEC2  1.749 0.33 S
 AXEC3  1.749 0.33 S
 AXAS1  1.489 0.25 S
 AXAS2  0.864 0.33 S
 AXID1  1.739 0.25 S
# 2015  2  5 18  8 57.311   45.94222 -130.01947  1.074  0.5  0.710  0.765  0.038  33243
 AXCC1  0.514 1.00 P
 AXEC2  0.884 1.00 P
 AXEC3  0.764 0.50 P
 AXAS1  0.619 1.00 P
 AXAS2  0.419 1.00 P
 AXID1  0.929 1.00 P
 AXEC1  1.564 0.25 S
 AXEC2  1.624 0.25 S
 AXEC3  1.674 0.33 S
 AXAS1  1.324 0.25 S
 AXAS2  0.639 0.33 S
 AXID1  1.594 0.25 S
# 2015  2  5 23 17 40.422   45.93574 -129.97729  1.457  1.9  0.370  0.543  0.028  33291
 AXCC1  0.858 1.00 P
 AXEC2  0.423 1.00 P
 AXEC3  0.333 0.50 P
 AXAS1  0.613 1.00 P
 AXAS2  0.758 1.00 P
 AXID1  0.488 1.00 P
 AXEC1  1.073 0.33 S
 AXEC2  0.833 0.33 S
 AXEC3  0.868 0.33 S
 AXAS1  1.343 0.25 S
 AXAS2  1.263 0.25 S
# 2015  2  6  2 24 49.967   45.93534 -129.97775  1.486  0.5  0.314  0.510  0.029  33378
 AXCC1  0.953 0.50 P
 AXEC1  0.553 1.00 P
 AXEC2  0.428 1.00 P
 AXEC3  0.418 1.00 P
 AXAS1  0.573 1.00 P
 AXAS2  0.763 1.00 P
 AXID1  0.478 1.00 P
 AXEC1  1.033 0.25 S
 AXEC2  0.808 0.33 S
 AXEC3  0.853 0.33 S
 AXAS1  1.288 0.33 S
 AXAS2  1.238 0.25 S
# 2015  2  6  3 12  4.437   45.93456 -129.97646  1.378  0.4  0.334  0.579  0.048  33399
 AXEC1  0.568 0.75 P
 AXEC2  0.413 1.00 P
 AXEC3  0.418 1.00 P
 AXAS1  0.608 1.00 P
 AXAS2  0.798 0.50 P
 AXID1  0.458 1.00 P
 AXEC1  1.003 0.33 S
 AXEC2  0.798 0.33 S
 AXEC3  0.838 0.33 S
 AXAS1  1.248 0.33 S
 AXAS2  1.193 0.24 S
 AXID1  0.738 0.33 S
# 2015  2  6  3 17 17.064   45.93768 -129.97731  1.310  0.3  0.342  0.486  0.025  33402
 AXEC1  0.501 1.00 P
 AXEC2  0.391 1.00 P
 AXEC3  0.386 1.00 P
 AXAS1  0.606 1.00 P
 AXAS2  0.766 0.75 P
 AXID1  0.491 0.75 P
 AXEC1  0.956 0.33 S
 AXEC2  0.736 0.33 S
 AXEC3  0.796 0.33 S
 AXAS1  1.156 0.33 S
 AXID1  0.856 0.25 S
# 2015  2  6  4 44 12.657   45.96173 -129.99184  1.636  0.6  0.520  0.772  0.029  33424
 AXCC1  0.543 1.00 P
 AXEC1  0.598 1.00 P
 AXEC2  0.778 1.00 P
 AXEC3  0.808 1.00 P
 AXAS1  0.918 0.75 P
 AXAS2  0.918 1.00 P
 AXEC1  1.168 0.33 S
 AXEC2  1.493 0.33 S
 AXEC3  1.588 0.33 S
 AXAS2  1.553 0.25 S
 AXID1  1.803 0.25 S
# 2015  2  6  5 16 43.028   45.95442 -129.99329  0.735  0.4  0.621  0.361  0.037  33439
 AXCC1  0.417 1.00 P
 AXEC1  0.442 1.00 P
 AXEC2  0.652 1.00 P
 AXEC3  0.672 1.00 P
 AXAS1  0.767 0.75 P
 AXAS2  0.797 0.75 P
 AXCC1  1.087 0.25 S
 AXEC1  0.932 0.33 S
 AXEC2  1.242 0.33 S
 AXEC3  1.307 0.33 S
 AXAS2  1.257 0.33 S
# 2015  2  6  5 33 11.418   45.95998 -129.99170  1.625  0.5  0.516  0.709  0.025  33443
 AXCC1  0.537 1.00 P
 AXEC1  0.552 1.00 P
 AXEC2  0.757 1.00 P
 AXEC3  0.792 1.00 P
 AXAS1  0.897 0.50 P
 AXAS2  0.932 0.75 P
 AXID1  0.937 0.75 P
 AXCC1  1.197 0.25 S
 AXEC1  1.162 0.33 S
 AXEC2  1.487 0.25 S
 AXEC3  1.547 0.33 S
 AXAS2  1.552 0.33 S
# 2015  2  6  8 34 46.315   45.94139 -130.01984  0.953  0.4  0.820  0.663  0.031  33496
 AXCC1  0.556 1.00 P
 AXEC1  0.816 0.75 P
 AXEC2  0.896 0.75 P
 AXEC3  0.876 0.50 P
 AXAS1  0.626 1.00 P
 AXAS2  0.411 1.00 P
 AXID1  0.946 1.00 P
 AXEC1  1.561 0.25 S
 AXEC2  1.686 0.25 S
 AXEC3  1.741 0.33 S
 AXAS1  1.316 0.25 S
 AXAS2  0.636 0.33 S
# 2015  2  6  9 21 12.901   45.94350 -130.02003  1.524  0.5  0.575  0.892  0.031  33507
 AXCC1  0.549 1.00 P
 AXEC1  0.814 0.75 P
 AXEC2  0.939 1.00 P
 AXEC3  0.894 0.50 P
 AXAS1  0.689 1.00 P
 AXAS2  0.479 1.00 P
 AXID1  0.934 1.00 P
 AXEC1  1.489 0.25 S
 AXEC2  1.699 0.25 S
 AXEC3  1.729 0.25 S
 AXAS1  1.359 0.25 S
 AXID1  1.669 0.25 S
# 2015  2  6 14 35  8.766   45.94858 -130.02350  1.128  1.3  0.685  0.531  0.037  33541
 AXCC1  0.474 1.00 P
 AXEC1  0.859 1.00 P
 AXEC2  0.964 1.00 P
 AXEC3  0.934 1.00 P
 AXAS1  0.769 1.00 P
 AXAS2  0.554 1.00 P
 AXID1  1.044 1.00 P
 AXEC1  1.629 0.25 S
 AXEC2  1.834 0.33 S
 AXEC3  1.809 0.33 S
 AXAS1  1.634 0.25 S
 AXAS2  0.914 0.33 S
 AXID1  1.839 0.25 S
# 2015  2  6 14 37 41.852   45.94352 -130.01578  0.761  0.6  0.590  0.500  0.036  33543
 AXCC1  0.443 1.00 P
 AXEC1  0.773 0.75 P
 AXEC2  0.838 1.00 P
 AXEC3  0.798 0.50 P
 AXAS1  0.578 1.00 P
 AXAS2  0.373 1.00 P
 AXID1  0.903 1.00 P
 AXEC1  1.468 0.33 S
 AXEC2  1.598 0.25 S
 AXEC3  1.608 0.25 S
 AXAS1  1.303 0.25 S
 AXID1  1.588 0.25 S
# 2015  2  6 16  7 24.513   45.93263 -129.97551  1.345  0.7  0.383  0.472  0.029  33585
 AXCC1  0.957 0.75 P
 AXEC1  0.592 1.00 P
 AXEC2  0.432 1.00 P
 AXEC3  0.417 1.00 P
 AXAS1  0.617 1.00 P
 AXAS2  0.772 1.00 P
 AXID1  0.432 1.00 P
 AXEC1  1.097 0.33 S
 AXEC2  0.852 0.33 S
 AXEC3  0.842 0.33 S
 AXAS1  1.327 0.25 S
 AXID1  0.747 0.33 S
# 2015  2  6 17  5 59.247   45.95440 -129.99147  1.510  0.9  0.552  0.935  0.031  33611
 AXCC1  0.523 1.00 P
 AXEC1  0.483 1.00 P
 AXEC2  0.673 1.00 P
 AXEC3  0.688 1.00 P
 AXAS1  0.763 1.00 P
 AXAS2  0.778 1.00 P
 AXID1  0.783 0.75 P
 AXCC1  0.998 0.25 S
 AXEC1  0.953 0.33 S
 AXEC2  1.258 0.33 S
 AXEC3  1.328 0.25 S
 AXAS2  1.328 0.25 S
# 2015  2  6 17 36  8.165   45.95565 -129.98891  1.686  0.1  0.461  0.774  0.028  33615
 AXCC1  0.560 0.75 P
 AXEC1  0.555 0.50 P
 AXEC2  0.640 1.00 P
 AXEC3  0.700 0.75 P
 AXAS1  0.850 0.50 P
 AXAS2  0.905 0.50 P
 AXID1  0.875 0.75 P
 AXCC1  1.095 0.25 S
 AXEC1  1.025 0.33 S
 AXEC2  1.330 0.33 S
 AXAS1  1.550 0.25 S
 AXAS2  1.350 0.25 S
# 2015  2  6 18 24 32.605   45.95429 -129.99318  1.068  0.7  0.541  1.681  0.037  33622
 AXCC1  0.455 1.00 P
 AXEC1  0.450 1.00 P
 AXEC2  0.635 1.00 P
 AXEC3  0.650 1.00 P
 AXAS1  0.740 1.00 P
 AXAS2  0.740 1.00 P
 AXCC1  0.985 0.25 S
 AXEC2  1.240 0.33 S
 AXEC3  1.295 0.33 S
 AXAS1  1.535 0.25 S
 AXAS2  1.245 0.33 S
# 2015  2  6 22 40  3.612   45.95168 -129.98657  1.359  0.4  0.460  0.809  0.037  33664
 AXCC1  0.588 1.00 P
 AXEC1  0.413 1.00 P
 AXEC2  0.568 1.00 P
 AXEC3  0.588 1.00 P
 AXAS1  0.708 1.00 P
 AXAS2  0.758 1.00 P
 AXCC1  1.123 0.33 S
 AXEC1  0.828 0.33 S
 AXEC2  1.078 0.33 S
 AXEC3  1.158 0.33 S
 AXAS1  1.518 0.25 S
# 2015  2  6 22 40 14.067   45.94977 -129.98833  1.445  1.1  0.485  1.080  0.033  33665
 AXCC1  0.583 1.00 P
 AXEC1  0.413 1.00 P
 AXEC2  0.573 1.00 P
 AXEC3  0.598 1.00 P
 AXAS1  0.623 0.50 P
 AXAS2  0.728 1.00 P
 AXID1  0.783 0.50 P
 AXCC1  1.123 0.33 S
 AXEC2  1.083 0.33 S
 AXEC3  1.153 0.33 S
 AXAS1  1.548 0.25 S
 AXID1  1.173 0.25 S
# 2015  2  7  0 53  1.009   45.94186 -130.01715  0.727  0.3  0.898  0.716  0.038  33751
 AXCC1  0.516 1.00 P
 AXEC1  0.796 0.75 P
 AXEC2  0.856 1.00 P
 AXEC3  0.846 1.00 P
 AXAS1  0.586 1.00 P
 AXAS2  0.371 1.00 P
 AXID1  0.906 0.50 P
 AXEC1  1.471 0.25 S
 AXEC2  1.601 0.33 S
 AXEC3  1.621 0.33 S
 AXAS1  1.271 0.25 S
 AXAS2  0.601 0.33 S
# 2015  2  7  1 32 42.281   45.92781 -130.01199  1.208  0.3  0.495  0.597  0.037  33775
 AXCC1  0.824 0.50 P
 AXEC1  0.899 0.75 P
 AXEC2  0.879 0.75 P
 AXEC3  0.804 0.50 P
 AXAS1  0.514 1.00 P
 AXAS2  0.369 1.00 P
 AXID1  0.669 0.50 P
 AXCC1  1.559 0.25 S
 AXEC1  1.654 0.33 S
 AXEC2  1.459 0.33 S
 AXEC3  1.424 0.33 S
 AXAS1  1.094 0.33 S
# 2015  2  7  2  4 53.228   45.94397 -130.01894  1.002  0.4  0.524  2.899  0.040  33804
 AXCC1  0.477 1.00 P
 AXEC1  0.787 0.75 P
 AXEC2  0.867 1.00 P
 AXEC3  0.882 1.00 P
 AXAS1  0.627 1.00 P
 AXAS2  0.432 1.00 P
 AXEC2  1.642 0.25 S
 AXEC3  1.672 0.25 S
 AXAS1  1.372 0.25 S
 AXAS2  0.727 0.33 S
 AXID1  1.567 0.25 S
# 2015  2  7  3  5 55.309   45.95016 -129.98032  2.171  1.2  0.440  0.634  0.035  33895
 AXCC1  0.726 1.00 P
 AXEC1  0.511 1.00 P
 AXEC2  0.646 1.00 P
 AXEC3  0.676 1.00 P
 AXAS1  0.796 1.00 P
 AXAS2  0.846 1.00 P
 AXID1  0.731 1.00 P
 AXCC1  1.506 0.25 S
 AXEC1  0.926 0.33 S
 AXEC2  1.146 0.33 S
 AXEC3  1.196 0.33 S
 AXAS1  1.566 0.25 S
# 2015  2  7  3 29 31.370   45.94315 -129.98042  1.513  1.0  0.415  0.771  0.056  33931
 AXCC1  0.806 1.00 P
 AXEC1  0.321 0.50 P
 AXEC2  0.451 1.00 P
 AXEC3  0.456 1.00 P
 AXAS1  0.686 1.00 P
 AXAS2  0.631 1.00 P
 AXID1  0.631 1.00 P
 AXEC1  0.836 0.33 S
 AXEC2  0.866 0.33 S
 AXEC3  0.926 0.33 S
 AXAS1  1.356 0.33 S
 AXAS2  1.366 0.25 S
# 2015  2  7  3 29 44.711   45.94233 -129.97163  1.786  0.8  0.512  0.546  0.045  33933
 AXCC1  0.859 1.00 P
 AXEC1  0.394 0.50 P
 AXEC2  0.514 1.00 P
 AXEC3  0.544 1.00 P
 AXAS1  0.739 1.00 P
 AXAS2  0.934 1.00 P
 AXID1  0.549 1.00 P
 AXEC1  0.889 0.33 S
 AXEC2  0.924 0.25 S
 AXEC3  1.019 0.33 S
 AXAS1  1.404 0.33 S
 AXAS2  1.419 0.25 S
# 2015  2  7  3 32 11.043   45.94577 -130.01897  0.950  0.1  0.940  0.946  0.032  33942
 AXCC1  0.457 1.00 P
 AXEC1  0.797 0.50 P
 AXEC2  0.912 0.75 P
 AXAS1  0.697 0.75 P
 AXAS2  0.477 1.00 P
 AXID1  1.007 0.75 P
 AXEC1  1.507 0.25 S
 AXEC2  1.657 0.33 S
 AXEC3  1.677 0.33 S
 AXAS1  1.457 0.25 S
 AXAS2  0.822 0.33 S
# 2015  2  7  3 47 22.872   45.94954 -130.02409  1.183  1.3  0.838  0.584  0.033  33965
 AXCC1  0.478 1.00 P
 AXEC1  0.883 1.00 P
 AXEC2  0.998 1.00 P
 AXEC3  0.968 1.00 P
 AXAS1  0.793 1.00 P
 AXAS2  0.588 1.00 P
 AXID1  1.068 1.00 P
 AXEC1  1.693 0.25 S
 AXEC2  1.868 0.25 S
 AXEC3  1.868 0.33 S
 AXAS1  1.673 0.25 S
 AXAS2  0.968 0.33 S
 AXID1  1.918 0.25 S
# 2015  2  7  3 53  9.009   45.93612 -130.01831  1.472  0.9  0.504  0.543  0.028  33971
 AXCC1  0.676 1.00 P
 AXEC1  0.816 1.00 P
 AXEC2  0.906 1.00 P
 AXEC3  0.846 1.00 P
 AXAS1  0.596 1.00 P
 AXAS2  0.391 1.00 P
 AXID1  0.856 1.00 P
 AXCC1  1.366 0.33 S
 AXEC1  1.666 0.25 S
 AXEC2  1.641 0.33 S
 AXEC3  1.611 0.33 S
 AXAS1  1.201 0.25 S
# 2015  2  7  4  5 34.906   45.93986 -130.01286  0.555  0.5  0.531  0.416  0.037  33985
 AXCC1  0.554 1.00 P
 AXEC1  0.794 1.00 P
 AXEC2  0.834 1.00 P
 AXEC3  0.774 1.00 P
 AXAS1  0.539 1.00 P
 AXAS2  0.339 1.00 P
 AXID1  0.839 0.75 P
 AXCC1  1.474 0.25 S
 AXEC1  1.569 0.25 S
 AXEC2  1.594 0.33 S
 AXEC3  1.599 0.33 S
 AXAS1  1.209 0.25 S
 AXAS2  0.569 0.33 S
# 2015  2  7  6 49  5.675   45.92505 -129.98970  1.326  0.2  0.503  0.959  0.034  34188
 AXEC1  0.810 0.75 P
 AXEC2  0.565 0.50 P
 AXEC3  0.565 1.00 P
 AXAS1  0.515 0.75 P
 AXAS2  0.645 1.00 P
 AXID1  0.370 0.50 P
 AXEC1  1.420 0.33 S
 AXEC2  1.170 0.33 S
 AXEC3  1.085 0.25 S
 AXAS1  1.045 0.25 S
 AXAS2  0.945 0.24 S
# 2015  2  7  7  3  0.171   45.97862 -129.99522  1.207  0.8  0.704  6.065  0.053  34191
 AXCC1  0.779 1.00 P
 AXEC1  0.954 1.00 P
 AXEC2  1.114 1.00 P
 AXEC3  1.104 1.00 P
 AXAS2  1.214 1.00 P
 AXID1  1.299 0.50 P
 AXCC1  1.614 0.33 S
 AXEC1  1.744 0.33 S
 AXEC2  2.044 0.25 S
 AXEC3  2.119 0.33 S
 AXAS2  2.124 0.25 S
# 2015  2  7  7 23  3.824   45.95558 -129.99268  1.191  1.0  0.789  0.696  0.035  34202
 AXCC1  0.446 1.00 P
 AXEC1  0.476 1.00 P
 AXEC2  0.661 1.00 P
 AXEC3  0.686 1.00 P
 AXAS1  0.781 1.00 P
 AXAS2  0.786 1.00 P
 AXID1  0.891 0.75 P
 AXCC1  1.206 0.25 S
 AXEC2  1.301 0.33 S
 AXEC3  1.376 0.33 S
 AXAS2  1.336 0.33 S
 AXID1  1.521 0.25 S
# 2015  2  7  9 34 22.498   45.94330 -129.98462  1.503  1.3  0.241  0.660  0.020  34312
 AXCC1  0.683 1.00 P
 AXEC1  0.448 1.00 P
 AXEC2  0.488 1.00 P
 AXEC3  0.473 1.00 P
 AXAS1  0.578 1.00 P
 AXAS2  0.673 0.50 P
 AXID1  0.618 1.00 P
 AXEC1  0.893 0.33 S
 AXEC2  0.898 0.33 S
 AXEC3  0.923 0.33 S
 AXAS1  1.243 0.25 S
 AXAS2  1.253 0.25 S
# 2015  2  7 11 39 53.363   45.93972 -130.02203  1.453  0.4  0.673  0.826  0.030  34341
 AXCC1  0.612 1.00 P
 AXEC1  0.897 0.75 P
 AXEC2  0.907 1.00 P
 AXEC3  0.892 1.00 P
 AXAS1  0.647 1.00 P
 AXAS2  0.437 1.00 P
 AXCC1  1.302 0.25 S
 AXEC1  1.557 0.25 S
 AXEC3  1.722 0.33 S
 AXAS1  1.327 0.25 S
 AXID1  1.632 0.25 S
# 2015  2  7 13  1 11.049   45.95449 -129.99258  1.368  0.6  0.479  1.018  0.027  34364
 AXCC1  0.486 1.00 P
 AXEC1  0.481 1.00 P
 AXEC2  0.646 1.00 P
 AXEC3  0.686 1.00 P
 AXAS1  0.731 0.75 P
 AXAS2  0.776 1.00 P
 AXEC1  0.971 0.33 S
 AXEC2  1.271 0.33 S
 AXEC3  1.336 0.33 S
 AXAS2  1.296 0.33 S
 AXID1  1.636 0.25 S
# 2015  2  7 13 39 17.835   45.94786 -130.01901  0.696  0.3  1.453  0.753  0.046  34433
 AXCC1  0.395 1.00 P
 AXEC1  0.710 0.50 P
 AXEC2  0.925 1.00 P
 AXEC3  0.925 1.00 P
 AXAS1  0.740 0.75 P
 AXAS2  0.490 1.00 P
 AXID1  1.025 1.00 P
 AXEC1  1.575 0.25 S
 AXEC2  1.750 0.33 S
 AXEC3  1.710 0.33 S
 AXAS1  1.495 0.25 S
 AXAS2  0.820 0.33 S
# 2015  2  7 14 43 36.967   45.97314 -129.98836  2.830  0.7  0.801  0.836  0.030  34488
 AXCC1  0.834 1.00 P
 AXEC1  0.879 1.00 P
 AXEC2  1.054 1.00 P
 AXEC3  1.029 1.00 P
 AXAS2  1.219 1.00 P
 AXID1  1.304 0.50 P
 AXCC1  1.629 0.25 S
 AXEC1  1.679 0.33 S
 AXEC2  2.009 0.25 S
 AXEC3  2.044 0.25 S
 AXAS2  2.084 0.25 S
# 2015  2  7 16 58 35.576   45.95345 -129.99458  0.727  1.1  0.450  0.339  0.036  34554
 AXCC1  0.414 1.00 P
 AXEC1  0.459 1.00 P
 AXEC2  0.664 1.00 P
 AXEC3  0.689 1.00 P
 AXAS1  0.734 1.00 P
 AXAS2  0.744 1.00 P
 AXID1  0.854 1.00 P
 AXCC1  1.184 0.25 S
 AXEC1  0.989 0.33 S
 AXEC2  1.354 0.33 S
 AXEC3  1.429 0.33 S
 AXAS2  1.279 0.33 S
# 2015  2  7 17 34 37.437   45.93847 -130.01852  1.169  0.6  0.619  0.457  0.047  34573
 AXCC1  0.608 1.00 P
 AXEC1  0.848 1.00 P
 AXEC2  0.878 1.00 P
 AXEC3  0.853 1.00 P
 AXAS1  0.583 1.00 P
 AXAS2  0.378 1.00 P
 AXID1  0.878 1.00 P
 AXEC1  1.593 0.33 S
 AXEC2  1.623 0.33 S
 AXEC3  1.593 0.33 S
 AXAS1  1.243 0.25 S
 AXAS2  0.353 0.22 S
