# 2015  2  8  5 58 14.653   45.95025 -130.02087  0.937  0.5  1.031  0.745  0.068  34865
 AXCC1  0.402 1.00 P
 AXEC1  0.827 1.00 P
 AXEC2  0.967 1.00 P
 AXEC3  0.952 1.00 P
 AXAS2  0.592 1.00 P
 AXID1  1.097 1.00 P
 AXCC1  0.997 0.25 S
 AXEC1  1.607 0.33 S
 AXEC2  1.817 0.33 S
 AXEC3  1.862 0.25 S
 AXAS2  0.927 0.25 S
 AXID1  1.912 0.25 S
# 2015  2  8 15 48 38.533   45.94204 -130.02060  1.173  0.6  0.688  0.519  0.032  35076
 AXCC1  0.547 1.00 P
 AXEC1  0.842 0.75 P
 AXEC2  0.917 1.00 P
 AXEC3  0.872 1.00 P
 AXAS1  0.647 1.00 P
 AXAS2  0.447 1.00 P
 AXID1  0.942 1.00 P
 AXEC1  1.557 0.25 S
 AXEC2  1.707 0.25 S
 AXEC3  1.717 0.33 S
 AXAS1  1.342 0.25 S
 AXAS2  0.677 0.33 S
# 2015  2  8 16 18 31.246   45.93472 -129.97475  1.414  0.7  0.403  0.455  0.028  35111
 AXCC1  0.949 0.50 P
 AXEC1  0.569 1.00 P
 AXEC2  0.379 0.50 P
 AXEC3  0.384 1.00 P
 AXAS1  0.634 1.00 P
 AXAS2  0.774 1.00 P
 AXID1  0.489 1.00 P
 AXCC1  1.984 0.25 S
 AXEC1  1.099 0.25 S
 AXEC2  0.844 0.25 S
 AXEC3  0.884 0.33 S
 AXAS1  1.149 0.25 S
# 2015  2  8 16 25  8.231   45.93395 -129.97104  1.774  0.7  0.480  0.531  0.030  35164
 AXEC1  0.629 1.00 P
 AXEC2  0.399 0.50 P
 AXEC3  0.499 1.00 P
 AXAS1  0.694 1.00 P
 AXAS2  0.834 1.00 P
 AXID1  0.549 1.00 P
 AXCC1  2.084 0.25 S
 AXEC2  0.924 0.25 S
 AXEC3  0.959 0.33 S
 AXAS1  1.399 0.25 S
 AXID1  0.904 0.25 S
# 2015  2  8 16 25 18.980   45.93543 -129.97310  1.792  0.5  0.465  0.540  0.023  35165
 AXEC1  0.605 1.00 P
 AXEC2  0.460 1.00 P
 AXEC3  0.485 1.00 P
 AXAS1  0.685 1.00 P
 AXAS2  0.820 1.00 P
 AXID1  0.550 0.75 P
 AXEC1  1.125 0.25 S
 AXEC2  0.895 0.25 S
 AXEC3  0.980 0.33 S
 AXAS1  1.360 0.25 S
 AXID1  0.890 0.25 S
# 2015  2  8 16 26 34.175   45.93531 -129.97552  1.593  0.7  0.371  0.515  0.026  35176
 AXCC1  0.895 0.75 P
 AXEC1  0.560 1.00 P
 AXEC2  0.440 1.00 P
 AXEC3  0.435 1.00 P
 AXAS1  0.625 1.00 P
 AXAS2  0.780 1.00 P
 AXID1  0.515 1.00 P
 AXCC1  1.920 0.25 S
 AXEC1  1.070 0.25 S
 AXEC2  0.850 0.25 S
 AXEC3  0.880 0.33 S
 AXAS1  1.290 0.25 S
 AXID1  0.865 0.25 S
# 2015  2  8 16 26 43.882   45.93402 -129.97433  1.665  0.7  0.403  0.534  0.026  35178
 AXEC1  0.593 1.00 P
 AXEC2  0.468 1.00 P
 AXEC3  0.458 1.00 P
 AXAS1  0.658 1.00 P
 AXAS2  0.798 1.00 P
 AXID1  0.498 1.00 P
 AXEC1  1.123 0.25 S
 AXEC2  0.883 0.25 S
 AXEC3  0.893 0.33 S
 AXAS1  1.358 0.25 S
 AXID1  0.863 0.25 S
# 2015  2  8 16 26 52.802   45.93547 -129.97353  1.770  0.7  0.372  0.493  0.023  35179
 AXEC1  0.593 1.00 P
 AXEC2  0.478 1.00 P
 AXEC3  0.473 1.00 P
 AXAS1  0.673 1.00 P
 AXAS2  0.818 1.00 P
 AXID1  0.533 1.00 P
 AXEC1  1.123 0.25 S
 AXEC2  0.888 0.33 S
 AXEC3  0.953 0.33 S
 AXAS1  1.378 0.33 S
 AXID1  0.888 0.25 S
# 2015  2  8 16 27 20.431   45.93436 -129.97285  1.739  0.8  0.430  0.512  0.027  35184
 AXCC1  0.944 0.75 P
 AXEC1  0.589 1.00 P
 AXEC2  0.484 1.00 P
 AXEC3  0.474 1.00 P
 AXAS1  0.669 1.00 P
 AXAS2  0.814 1.00 P
 AXID1  0.529 1.00 P
 AXCC1  1.999 0.25 S
 AXEC1  1.139 0.25 S
 AXEC2  0.894 0.25 S
 AXEC3  0.909 0.33 S
 AXAS1  1.389 0.25 S
 AXID1  0.874 0.25 S
# 2015  2  8 16 27 28.016   45.93612 -129.97668  1.465  0.7  0.344  0.490  0.022  35185
 AXCC1  0.909 0.50 P
 AXEC1  0.534 1.00 P
 AXEC2  0.419 1.00 P
 AXEC3  0.414 1.00 P
 AXAS1  0.614 1.00 P
 AXAS2  0.759 0.75 P
 AXID1  0.489 1.00 P
 AXEC1  1.049 0.25 S
 AXEC2  0.804 0.25 S
 AXEC3  0.834 0.33 S
 AXAS1  1.154 0.25 S
 AXID1  0.849 0.25 S
# 2015  2  8 16 28  0.274   45.93519 -129.97424  1.646  0.9  0.394  0.493  0.032  35189
 AXCC1  0.901 1.00 P
 AXEC1  0.571 1.00 P
 AXEC2  0.456 1.00 P
 AXEC3  0.451 1.00 P
 AXAS1  0.651 1.00 P
 AXAS2  0.796 1.00 P
 AXID1  0.521 1.00 P
 AXCC1  2.026 0.25 S
 AXEC1  1.096 0.33 S
 AXEC2  0.866 0.25 S
 AXEC3  0.881 0.33 S
 AXAS1  1.316 0.33 S
 AXID1  0.881 0.25 S
# 2015  2  8 16 30 22.933   45.93902 -129.97067  1.907  0.4  0.554  0.621  0.040  35208
 AXEC1  0.457 0.75 P
 AXEC2  0.537 1.00 P
 AXEC3  0.532 1.00 P
 AXAS1  0.742 1.00 P
 AXAS2  0.892 0.75 P
 AXID1  0.577 1.00 P
 AXEC1  1.167 0.25 S
 AXEC2  0.942 0.25 S
 AXEC3  0.982 0.33 S
 AXAS1  1.297 0.25 S
 AXID1  0.952 0.25 S
# 2015  2  8 16 31 36.362   45.93613 -129.97310  1.641  0.8  0.440  0.470  0.028  35219
 AXCC1  0.908 1.00 P
 AXEC1  0.578 1.00 P
 AXEC2  0.338 0.50 P
 AXEC3  0.468 1.00 P
 AXAS1  0.668 1.00 P
 AXAS2  0.808 1.00 P
 AXID1  0.538 1.00 P
 AXEC1  1.098 0.33 S
 AXEC2  0.888 0.25 S
 AXEC3  0.923 0.33 S
 AXAS1  1.343 0.25 S
 AXID1  0.908 0.25 S
# 2015  2  8 16 32 17.550   45.93647 -129.97656  1.633  0.4  0.394  0.633  0.019  35223
 AXEC1  0.555 1.00 P
 AXEC2  0.445 1.00 P
 AXEC3  0.445 1.00 P
 AXAS1  0.595 1.00 P
 AXAS2  0.815 0.50 P
 AXID1  0.525 0.75 P
 AXEC1  1.065 0.25 S
 AXEC2  0.835 0.25 S
 AXEC3  0.930 0.25 S
 AXAS1  1.300 0.25 S
 AXID1  0.875 0.25 S
# 2015  2  8 16 34 25.025   45.93508 -129.97482  1.789  0.6  0.430  0.587  0.032  35241
 AXCC1  0.885 0.75 P
 AXEC1  0.595 1.00 P
 AXEC2  0.475 1.00 P
 AXEC3  0.470 1.00 P
 AXAS1  0.670 1.00 P
 AXAS2  0.780 1.00 P
 AXID1  0.545 1.00 P
 AXCC1  2.045 0.25 S
 AXEC1  1.110 0.25 S
 AXEC2  0.885 0.25 S
 AXEC3  0.915 0.33 S
 AXID1  0.890 0.25 S
# 2015  2  8 16 34 36.981   45.93611 -129.97453  1.650  0.5  0.391  0.491  0.047  35242
 AXEC1  0.569 1.00 P
 AXEC2  0.449 1.00 P
 AXEC3  0.449 1.00 P
 AXAS1  0.649 1.00 P
 AXAS2  0.804 1.00 P
 AXID1  0.524 1.00 P
 AXEC1  1.084 0.25 S
 AXEC2  0.859 0.33 S
 AXEC3  0.904 0.33 S
 AXAS1  1.364 0.25 S
 AXID1  0.869 0.25 S
# 2015  2  8 16 34 42.767   45.93527 -129.97382  1.728  1.2  0.379  0.486  0.027  35244
 AXCC1  0.908 1.00 P
 AXEC1  0.588 1.00 P
 AXEC2  0.468 1.00 P
 AXEC3  0.463 1.00 P
 AXAS1  0.663 1.00 P
 AXAS2  0.803 1.00 P
 AXID1  0.528 1.00 P
 AXCC1  1.993 0.25 S
 AXEC1  1.088 0.33 S
 AXEC2  0.883 0.25 S
 AXEC3  0.918 0.33 S
 AXAS1  1.328 0.33 S
# 2015  2  8 16 35  8.559   45.93673 -129.97466  1.633  0.5  0.430  0.515  0.023  35247
 AXEC1  0.556 1.00 P
 AXEC2  0.441 1.00 P
 AXEC3  0.441 1.00 P
 AXAS1  0.651 1.00 P
 AXAS2  0.791 0.75 P
 AXID1  0.541 0.75 P
 AXEC1  1.066 0.25 S
 AXEC2  0.846 0.33 S
 AXEC3  0.941 0.33 S
 AXAS1  1.316 0.25 S
 AXID1  0.846 0.25 S
# 2015  2  8 16 35 11.996   45.93586 -129.97554  1.676  0.7  0.352  0.491  0.026  35248
 AXCC1  0.839 0.75 P
 AXEC1  0.579 1.00 P
 AXEC2  0.454 1.00 P
 AXEC3  0.454 1.00 P
 AXAS1  0.659 1.00 P
 AXAS2  0.794 1.00 P
 AXID1  0.519 1.00 P
 AXEC1  1.094 0.25 S
 AXEC2  0.869 0.33 S
 AXEC3  0.879 0.33 S
 AXAS1  1.284 0.33 S
 AXID1  0.854 0.25 S
# 2015  2  8 16 35 15.101   45.93551 -129.97620  1.548  0.8  0.345  0.484  0.029  35249
 AXEC1  0.564 1.00 P
 AXEC2  0.414 1.00 P
 AXEC3  0.449 1.00 P
 AXAS1  0.569 0.50 P
 AXAS2  0.794 0.75 P
 AXID1  0.499 1.00 P
 AXEC1  1.089 0.25 S
 AXEC2  0.859 0.33 S
 AXEC3  0.869 0.33 S
 AXAS1  1.269 0.33 S
 AXID1  0.874 0.25 S
# 2015  2  8 16 35 47.354   45.93472 -129.97380  1.618  0.6  0.458  0.495  0.021  35254
 AXEC1  0.581 1.00 P
 AXEC2  0.456 1.00 P
 AXEC3  0.451 1.00 P
 AXAS1  0.656 1.00 P
 AXAS2  0.816 1.00 P
 AXID1  0.511 0.75 P
 AXEC1  1.101 0.25 S
 AXEC2  0.866 0.25 S
 AXEC3  0.906 0.33 S
 AXAS1  1.321 0.25 S
 AXID1  0.866 0.33 S
# 2015  2  8 16 36  4.402   45.93559 -129.97545  1.560  1.0  0.354  0.466  0.026  35257
 AXCC1  0.883 1.00 P
 AXEC1  0.553 1.00 P
 AXEC2  0.438 1.00 P
 AXEC3  0.438 1.00 P
 AXAS1  0.638 1.00 P
 AXAS2  0.723 0.50 P
 AXID1  0.498 1.00 P
 AXEC1  1.073 0.25 S
 AXEC2  0.848 0.33 S
 AXEC3  0.863 0.33 S
 AXAS1  1.258 0.33 S
 AXID1  0.863 0.25 S
# 2015  2  8 16 38 50.234   45.93646 -129.97668  1.562  0.7  0.395  0.550  0.027  35282
 AXCC1  0.851 0.50 P
 AXEC1  0.546 1.00 P
 AXEC2  0.431 1.00 P
 AXEC3  0.431 1.00 P
 AXAS1  0.616 1.00 P
 AXAS2  0.776 1.00 P
 AXID1  0.516 0.75 P
 AXEC1  1.011 0.33 S
 AXEC2  0.841 0.25 S
 AXEC3  0.891 0.33 S
 AXAS1  1.126 0.25 S
 AXID1  0.866 0.25 S
# 2015  2  8 16 39 47.280   45.93786 -129.97783  1.694  1.2  0.330  0.539  0.031  35290
 AXCC1  0.780 1.00 P
 AXEC1  0.575 1.00 P
 AXEC2  0.460 1.00 P
 AXEC3  0.430 1.00 P
 AXAS1  0.660 1.00 P
 AXAS2  0.785 1.00 P
 AXID1  0.535 1.00 P
 AXEC1  1.050 0.33 S
 AXEC2  0.835 0.33 S
 AXEC3  0.895 0.33 S
 AXAS1  1.285 0.33 S
 AXAS2  1.305 0.25 S
 AXID1  0.975 0.25 S
# 2015  2  8 16 46  7.706   45.93606 -129.97623  1.410  0.7  0.362  0.437  0.024  35344
 AXCC1  0.909 0.75 P
 AXEC1  0.534 1.00 P
 AXEC2  0.404 1.00 P
 AXEC3  0.399 1.00 P
 AXAS1  0.609 1.00 P
 AXAS2  0.764 1.00 P
 AXID1  0.489 1.00 P
 AXEC1  1.029 0.25 S
 AXEC2  0.784 0.33 S
 AXEC3  0.839 0.33 S
 AXAS1  1.284 0.25 S
 AXID1  0.924 0.25 S
# 2015  2  8 16 46  9.659   45.93803 -129.97572  1.568  1.7  0.342  0.455  0.022  35345
 AXCC1  0.841 1.00 P
 AXEC1  0.521 1.00 P
 AXEC2  0.431 1.00 P
 AXEC3  0.436 1.00 P
 AXAS1  0.646 1.00 P
 AXAS2  0.801 1.00 P
 AXID1  0.531 1.00 P
 AXEC1  1.031 0.33 S
 AXEC2  0.821 0.33 S
 AXEC3  0.886 0.33 S
 AXAS1  1.271 0.33 S
 AXID1  0.916 0.25 S
# 2015  2  8 17 21 48.932   45.96160 -129.99144  0.810  0.6  0.968  0.855  0.060  35453
 AXCC1  0.498 1.00 P
 AXEC1  0.538 1.00 P
 AXEC2  0.773 1.00 P
 AXEC3  0.813 1.00 P
 AXAS2  0.968 1.00 P
 AXID1  0.963 0.50 P
 AXCC1  1.173 0.25 S
 AXEC1  1.213 0.33 S
 AXEC2  1.523 0.33 S
 AXEC3  1.598 0.33 S
 AXAS2  1.618 0.25 S
# 2015  2  8 17 32 31.627   45.94253 -130.01689  0.962  0.6  0.838  0.854  0.037  35494
 AXCC1  0.493 1.00 P
 AXEC1  0.778 1.00 P
 AXEC2  0.838 1.00 P
 AXEC3  0.793 1.00 P
 AXAS1  0.598 1.00 P
 AXAS2  0.398 1.00 P
 AXID1  0.828 0.50 P
 AXEC1  1.478 0.25 S
 AXEC2  1.593 0.33 S
 AXEC3  1.513 0.33 S
 AXAS1  1.268 0.25 S
 AXAS2  0.653 0.33 S
# 2015  2  8 17 51  6.532   45.94351 -130.01833  0.736  0.3  1.212  0.687  0.038  35542
 AXCC1  0.533 1.00 P
 AXEC1  0.808 0.75 P
 AXEC2  0.873 1.00 P
 AXEC3  0.868 1.00 P
 AXAS1  0.598 1.00 P
 AXAS2  0.388 1.00 P
 AXID1  0.923 0.75 P
 AXCC1  1.043 0.25 S
 AXEC1  1.373 0.25 S
 AXEC2  1.613 0.25 S
 AXEC3  1.688 0.33 S
 AXAS1  1.303 0.25 S
# 2015  2  8 20 25  9.758   45.94089 -130.01970  1.300  0.3  0.613  1.023  0.038  35643
 AXCC1  0.547 1.00 P
 AXEC1  0.832 0.50 P
 AXEC2  0.877 1.00 P
 AXEC3  0.852 1.00 P
 AXAS1  0.597 0.75 P
 AXAS2  0.387 1.00 P
 AXCC1  1.192 0.33 S
 AXEC1  1.387 0.33 S
 AXEC2  1.617 0.33 S
 AXEC3  1.612 0.33 S
 AXAS2  0.617 0.25 S
# 2015  2  8 23  8 12.186   45.94247 -130.01508  0.700  0.1  0.682  0.493  0.027  35693
 AXCC1  0.474 1.00 P
 AXEC1  0.744 0.50 P
 AXEC2  0.844 0.75 P
 AXEC3  0.809 1.00 P
 AXAS1  0.569 0.50 P
 AXAS2  0.354 0.75 P
 AXCC1  1.149 0.25 S
 AXEC1  1.464 0.25 S
 AXEC2  1.584 0.33 S
 AXEC3  1.604 0.33 S
 AXAS1  1.244 0.25 S
# 2015  2  9  0  2 59.556   45.94830 -130.02136  0.646  0.4  1.577  0.718  0.040  35705
 AXCC1  0.414 1.00 P
 AXEC1  0.869 1.00 P
 AXEC2  0.934 1.00 P
 AXEC3  0.959 1.00 P
 AXAS2  0.519 1.00 P
 AXID1  1.124 0.50 P
 AXEC1  1.629 0.33 S
 AXEC2  1.799 0.25 S
 AXEC3  1.844 0.33 S
 AXAS1  1.534 0.25 S
 AXAS2  0.924 0.33 S
# 2015  2  9  3  3 42.253   45.94612 -130.02043  0.701  0.2  1.474  0.696  0.042  35792
 AXCC1  0.432 1.00 P
 AXEC1  0.862 0.75 P
 AXEC2  0.967 0.75 P
 AXEC3  0.957 0.75 P
 AXAS1  0.752 0.50 P
 AXAS2  0.512 1.00 P
 AXCC1  1.362 0.25 S
 AXEC1  1.552 0.25 S
 AXEC2  1.737 0.33 S
 AXEC3  1.737 0.33 S
 AXAS1  1.582 0.25 S
 AXAS2  0.847 0.33 S
# 2015  2  9  3 55  4.670   45.94062 -129.97720  1.484  0.3  0.404  0.605  0.038  35916
 AXCC1  0.705 0.75 P
 AXEC1  0.495 1.00 P
 AXEC2  0.420 1.00 P
 AXEC3  0.435 0.50 P
 AXAS1  0.625 1.00 P
 AXAS2  0.910 0.75 P
 AXID1  0.540 1.00 P
 AXEC1  0.960 0.33 S
 AXEC2  0.795 0.33 S
 AXEC3  0.860 0.33 S
 AXAS1  1.240 0.25 S
 AXAS2  1.270 0.25 S
# 2015  2  9  3 56 34.372   45.93945 -129.97771  1.418  0.7  0.332  0.471  0.025  35922
 AXCC1  0.823 1.00 P
 AXEC1  0.473 1.00 P
 AXEC2  0.403 1.00 P
 AXEC3  0.413 1.00 P
 AXAS1  0.618 1.00 P
 AXAS2  0.768 1.00 P
 AXID1  0.528 1.00 P
 AXEC1  0.928 0.33 S
 AXEC2  0.783 0.33 S
 AXEC3  0.848 0.33 S
 AXAS1  1.233 0.33 S
 AXAS2  1.258 0.25 S
# 2015  2  9  3 56 44.521   45.93921 -129.97856  1.337  0.5  0.315  0.525  0.035  35923
 AXCC1  0.819 1.00 P
 AXEC1  0.454 1.00 P
 AXEC2  0.394 1.00 P
 AXEC3  0.399 1.00 P
 AXAS1  0.604 1.00 P
 AXAS2  0.779 1.00 P
 AXID1  0.509 1.00 P
 AXEC1  0.944 0.33 S
 AXEC2  0.779 0.33 S
 AXEC3  0.839 0.33 S
 AXAS1  1.214 0.33 S
 AXAS2  1.199 0.33 S
# 2015  2  9  4 20 21.121   45.92814 -130.00249  1.224  0.3  0.389  0.515  0.026  35983
 AXEC1  0.819 0.50 P
 AXEC2  0.729 1.00 P
 AXEC3  0.634 1.00 P
 AXAS1  0.404 1.00 P
 AXAS2  0.444 1.00 P
 AXID1  0.609 1.00 P
 AXCC1  1.724 0.25 S
 AXEC1  1.459 0.25 S
 AXEC2  1.269 0.33 S
 AXEC3  1.274 0.33 S
 AXAS1  0.859 0.33 S
# 2015  2  9  4 23 15.606   45.93801 -130.01913  1.225  0.3  0.711  0.827  0.030  35989
 AXCC1  0.604 1.00 P
 AXEC1  0.859 0.75 P
 AXEC2  0.874 1.00 P
 AXEC3  0.854 1.00 P
 AXAS1  0.549 1.00 P
 AXAS2  0.364 1.00 P
 AXCC1  1.294 0.25 S
 AXEC1  1.609 0.25 S
 AXEC2  1.674 0.33 S
 AXEC3  1.644 0.33 S
 AXAS2  0.564 0.33 S
# 2015  2  9  5 21 25.418   45.94231 -130.01357  0.658  0.5  0.393  0.352  0.034  36096
 AXCC1  0.502 1.00 P
 AXEC1  0.757 1.00 P
 AXEC2  0.827 1.00 P
 AXEC3  0.812 1.00 P
 AXAS1  0.552 1.00 P
 AXAS2  0.347 1.00 P
 AXID1  0.872 1.00 P
 AXCC1  1.192 0.25 S
 AXEC1  1.482 0.25 S
 AXEC2  1.577 0.33 S
 AXAS1  1.247 0.25 S
 AXID1  1.552 0.33 S
# 2015  2  9  5 21 28.119   45.94168 -130.01775  0.814  1.0  0.418  0.702  0.036  36097
 AXCC1  0.521 1.00 P
 AXEC1  0.806 0.75 P
 AXEC2  0.881 1.00 P
 AXEC3  0.861 1.00 P
 AXAS1  0.586 1.00 P
 AXAS2  0.396 0.75 P
 AXID1  0.896 1.00 P
 AXCC1  1.121 0.33 S
 AXEC1  1.486 0.33 S
 AXEC2  1.591 0.33 S
 AXEC3  1.636 0.33 S
 AXAS1  1.266 0.25 S
 AXAS2  0.606 0.33 S
# 2015  2  9  5 24 40.334   45.94856 -130.02480  1.462  1.4  0.580  0.796  0.031  36109
 AXCC1  0.516 1.00 P
 AXEC1  0.891 1.00 P
 AXEC2  0.996 1.00 P
 AXEC3  0.971 1.00 P
 AXAS1  0.791 1.00 P
 AXAS2  0.601 1.00 P
 AXID1  1.046 1.00 P
 AXEC1  1.646 0.25 S
 AXEC2  1.871 0.25 S
 AXEC3  1.841 0.33 S
 AXAS1  1.601 0.25 S
 AXAS2  0.996 0.33 S
# 2015  2  9  5 37 24.713   45.94245 -129.97745  1.408  0.4  0.383  0.489  0.017  36163
 AXCC1  0.782 1.00 P
 AXEC1  0.427 1.00 P
 AXEC2  0.417 1.00 P
 AXEC3  0.457 0.75 P
 AXAS1  0.622 1.00 P
 AXAS2  0.757 0.50 P
 AXID1  0.587 1.00 P
 AXCC1  1.572 0.25 S
 AXEC1  0.852 0.33 S
 AXEC2  0.802 0.33 S
 AXEC3  0.902 0.33 S
 AXAS1  1.272 0.25 S
# 2015  2  9  5 38  8.022   45.94303 -129.97461  1.353  0.2  0.469  0.494  0.029  36170
 AXCC1  0.814 0.75 P
 AXEC1  0.404 1.00 P
 AXEC2  0.439 1.00 P
 AXEC3  0.314 0.50 P
 AXAS1  0.664 1.00 P
 AXID1  0.609 1.00 P
 AXEC1  0.869 0.33 S
 AXEC2  0.839 0.33 S
 AXEC3  0.924 0.33 S
 AXAS1  1.324 0.25 S
 AXID1  1.064 0.25 S
# 2015  2  9  5 53 14.265   45.94674 -130.02138  1.464  0.4  0.589  1.019  0.042  36237
 AXCC1  0.490 1.00 P
 AXEC1  0.855 0.50 P
 AXEC2  0.880 1.00 P
 AXAS1  0.735 1.00 P
 AXAS2  0.530 1.00 P
 AXID1  1.115 0.50 P
 AXCC1  1.195 0.25 S
 AXEC1  1.580 0.25 S
 AXEC2  1.715 0.33 S
 AXEC3  1.675 0.33 S
 AXAS1  1.435 0.25 S
 AXAS2  0.880 0.33 S
# 2015  2  9  6  3 59.823   45.94755 -130.02179  1.407  0.2  0.698  1.054  0.052  36267
 AXCC1  0.482 1.00 P
 AXEC1  0.827 0.50 P
 AXEC2  1.022 1.00 P
 AXEC3  0.832 1.00 P
 AXAS1  0.807 0.75 P
 AXAS2  0.552 1.00 P
 AXCC1  1.207 0.25 S
 AXEC1  1.607 0.25 S
 AXEC2  1.752 0.33 S
 AXEC3  1.777 0.33 S
 AXAS1  1.562 0.25 S
 AXAS2  0.887 0.25 S
 AXID1  1.752 0.25 S
# 2015  2  9  7  5  2.969   45.94349 -130.01982  0.897  0.1  1.261  1.309  0.034  36338
 AXCC1  0.486 1.00 P
 AXEC1  0.776 0.50 P
 AXEC2  0.916 0.75 P
 AXEC3  0.926 1.00 P
 AXAS1  0.656 0.50 P
 AXAS2  0.426 1.00 P
 AXEC1  1.496 0.25 S
 AXEC2  1.641 0.25 S
 AXEC3  1.681 0.25 S
 AXAS1  1.271 0.25 S
 AXAS2  0.686 0.25 S
# 2015  2  9  8 16  7.339   45.96075 -129.99196  1.150  0.5  0.752  0.499  0.035  36399
 AXCC1  0.461 1.00 P
 AXEC1  0.521 1.00 P
 AXEC2  0.711 1.00 P
 AXEC3  0.761 1.00 P
 AXAS1  0.886 0.75 P
 AXAS2  0.891 1.00 P
 AXEC1  1.066 0.33 S
 AXEC2  1.406 0.33 S
 AXEC3  1.526 0.33 S
 AXAS1  1.661 0.25 S
 AXAS2  1.456 0.25 S
# 2015  2  9 17 21 55.444   45.96764 -129.99152  1.826  0.8  0.579  0.813  0.034  36557
 AXCC1  0.626 1.00 P
 AXEC1  0.716 1.00 P
 AXEC2  0.901 1.00 P
 AXEC3  0.936 1.00 P
 AXAS2  1.056 1.00 P
 AXID1  1.091 0.75 P
 AXEC1  1.366 0.33 S
 AXEC2  1.661 0.33 S
 AXEC3  1.706 0.33 S
 AXAS1  2.261 0.21 S
 AXAS2  1.846 0.25 S
# 2015  2  9 19 56 18.418   45.95451 -129.99284  1.425  0.7  0.552  0.962  0.036  36606
 AXCC1  0.417 0.50 P
 AXEC1  0.482 1.00 P
 AXEC2  0.687 1.00 P
 AXEC3  0.737 0.50 P
 AXAS1  0.727 0.75 P
 AXAS2  0.802 1.00 P
 AXID1  0.812 0.75 P
 AXCC1  1.177 0.25 S
 AXEC1  0.957 0.33 S
 AXEC2  1.287 0.33 S
 AXEC3  1.347 0.33 S
 AXAS1  1.572 0.25 S
 AXAS2  1.267 0.33 S
# 2015  2  9 20 52 22.044   45.95623 -129.99011  1.214  0.7  0.526  0.837  0.021  36637
 AXCC1  0.496 1.00 P
 AXEC1  0.471 1.00 P
 AXEC2  0.666 1.00 P
 AXEC3  0.681 1.00 P
 AXAS1  0.756 1.00 P
 AXAS2  0.821 1.00 P
 AXID1  0.946 0.50 P
 AXCC1  1.181 0.25 S
 AXEC1  0.921 0.33 S
 AXEC2  1.241 0.33 S
 AXEC3  1.296 0.33 S
 AXAS1  1.516 0.25 S
# 2015  2  9 21  8 30.409   45.95405 -130.03610  1.619  1.0  0.615  0.916  0.033  36643
 AXCC1  0.661 1.00 P
 AXEC1  1.056 1.00 P
 AXEC2  1.201 1.00 P
 AXEC3  1.121 1.00 P
 AXAS1  0.986 1.00 P
 AXAS2  0.751 1.00 P
 AXID1  1.306 0.75 P
 AXEC1  1.921 0.25 S
 AXEC2  2.146 0.25 S
 AXEC3  2.121 0.25 S
 AXAS1  1.956 0.33 S
 AXAS2  1.296 0.25 S
# 2015  2 10  0 42 38.942   45.93978 -130.01640  0.702  0.5  0.518  0.400  0.028  36716
 AXCC1  0.578 0.75 P
 AXEC1  0.818 0.75 P
 AXEC2  0.848 1.00 P
 AXEC3  0.843 1.00 P
 AXAS1  0.548 1.00 P
 AXAS2  0.323 1.00 P
 AXID1  0.958 0.50 P
 AXCC1  1.313 0.25 S
 AXEC1  1.588 0.25 S
 AXEC2  1.653 0.33 S
 AXEC3  1.583 0.33 S
 AXAS1  1.173 0.25 S
# 2015  2 10  2 24 16.093   45.95402 -129.99251  1.277  0.5  0.526  1.063  0.027  36741
 AXCC1  0.492 1.00 P
 AXEC1  0.467 1.00 P
 AXEC2  0.647 1.00 P
 AXEC3  0.677 1.00 P
 AXAS1  0.712 0.75 P
 AXAS2  0.742 1.00 P
 AXID1  0.917 0.50 P
 AXEC1  0.932 0.33 S
 AXEC2  1.212 0.33 S
 AXEC3  1.272 0.33 S
 AXAS1  1.617 0.25 S
 AXAS2  1.322 0.25 S
# 2015  2 10  5 12 14.100   45.93835 -130.02068  0.466  0.8  1.067  0.291  0.055  36847
 AXCC1  0.625 1.00 P
 AXEC1  0.865 1.00 P
 AXEC2  0.915 1.00 P
 AXEC3  0.860 1.00 P
 AXAS1  0.620 1.00 P
 AXAS2  0.275 0.50 P
 AXID1  0.900 1.00 P
 AXEC1  1.625 0.25 S
 AXEC2  1.725 0.33 S
 AXEC3  1.695 0.33 S
 AXAS1  1.290 0.25 S
 AXAS2  0.650 0.33 S
# 2015  2 10  5 21 37.108   45.94398 -129.98616  1.286  0.5  0.284  0.908  0.021  36875
 AXCC1  0.657 1.00 P
 AXEC1  0.402 1.00 P
 AXEC2  0.482 1.00 P
 AXEC3  0.462 1.00 P
 AXAS1  0.532 1.00 P
 AXAS2  0.712 0.75 P
 AXID1  0.587 0.50 P
 AXCC1  1.132 0.25 S
 AXEC1  0.942 0.33 S
 AXEC2  0.897 0.33 S
 AXEC3  0.927 0.33 S
 AXAS1  1.207 0.25 S
# 2015  2 10  5 22 10.121   45.94318 -129.98483  1.540  0.5  0.321  0.894  0.038  36879
 AXCC1  0.679 0.75 P
 AXEC1  0.439 1.00 P
 AXEC2  0.499 1.00 P
 AXEC3  0.479 1.00 P
 AXAS1  0.554 1.00 P
 AXAS2  0.714 1.00 P
 AXCC1  1.384 0.25 S
 AXEC1  0.989 0.33 S
 AXEC2  0.889 0.33 S
 AXEC3  0.949 0.33 S
 AXAS1  1.239 0.25 S
# 2015  2 10  5 38 33.118   45.94249 -129.98700  0.661  0.2  0.165  0.397  0.032  36902
 AXCC1  0.662 0.50 P
 AXEC1  0.397 1.00 P
 AXEC2  0.397 1.00 P
 AXEC3  0.387 1.00 P
 AXAS1  0.477 1.00 P
 AXAS2  0.672 1.00 P
 AXID1  0.712 0.50 P
 AXEC1  0.807 0.33 S
 AXEC2  0.807 0.33 S
 AXEC3  0.812 0.33 S
 AXAS1  1.172 0.25 S
 AXAS2  1.067 0.24 S
# 2015  2 10  5 56 39.728   45.93778 -130.01993  1.572  0.5  0.453  0.745  0.015  36931
 AXCC1  0.642 1.00 P
 AXEC1  0.892 0.75 P
 AXEC2  0.907 1.00 P
 AXEC3  0.862 1.00 P
 AXAS1  0.602 1.00 P
 AXAS2  0.397 0.50 P
 AXID1  0.877 0.50 P
 AXCC1  1.347 0.25 S
 AXEC1  1.657 0.25 S
 AXEC2  1.702 0.33 S
 AXEC3  1.617 0.33 S
 AXAS1  1.217 0.25 S
# 2015  2 10  6 15  4.953   45.92385 -129.97662  0.773  0.8  0.914  0.255  0.065  36953
 AXEC1  0.792 0.75 P
 AXEC2  0.572 1.00 P
 AXEC3  0.527 0.75 P
 AXAS1  0.717 0.50 P
 AXAS2  0.822 0.50 P
 AXID1  0.187 0.50 P
 AXEC2  1.067 0.33 S
 AXEC3  1.032 0.33 S
 AXAS1  1.397 0.25 S
 AXAS2  1.372 0.25 S
 AXID1  0.662 0.25 S
