# 2015  1 30 21 22 47.429   45.94576 -130.01405  0.482  0.4  0.846  0.438  0.042  25677
 AXCC1  0.391 1.00 P
 AXEC1  0.746 1.00 P
 AXEC2  0.871 1.00 P
 AXEC3  0.866 1.00 P
 AXAS1  0.551 0.50 P
 AXAS2  0.451 1.00 P
 AXID1  0.961 1.00 P
 AXEC1  1.496 0.25 S
 AXEC2  1.671 0.33 S
 AXEC3  1.666 0.33 S
 AXAS1  1.431 0.25 S
 AXAS2  0.811 0.33 S
 AXID1  1.721 0.25 S
# 2015  1 30 21 24 14.709   45.94676 -130.02007  1.174  0.4  0.774  0.643  0.037  25678
 AXCC1  0.446 1.00 P
 AXEC1  0.826 1.00 P
 AXEC2  0.931 1.00 P
 AXEC3  0.886 1.00 P
 AXAS1  0.706 1.00 P
 AXAS2  0.506 1.00 P
 AXID1  1.011 1.00 P
 AXEC1  1.546 0.25 S
 AXEC2  1.726 0.33 S
 AXEC3  1.711 0.33 S
 AXAS2  0.841 0.25 S
 AXID1  1.611 0.25 S
# 2015  1 30 22 38 50.949   45.93617 -129.97578  1.327  0.3  0.347  0.505  0.029  25816
 AXEC1  0.506 0.75 P
 AXEC2  0.396 1.00 P
 AXEC3  0.391 1.00 P
 AXAS1  0.581 1.00 P
 AXAS2  0.861 0.50 P
 AXID1  0.476 1.00 P
 AXCC1  1.936 0.25 S
 AXEC1  0.966 0.25 S
 AXEC2  0.776 0.25 S
 AXEC3  0.831 0.33 S
 AXAS1  1.096 0.25 S
# 2015  1 30 22 38 51.420   45.97060 -129.97685  1.970  0.9  0.931  1.348  0.050  25817
 AXCC1  0.775 1.00 P
 AXEC1  0.805 1.00 P
 AXEC2  0.870 0.50 P
 AXEC3  0.895 1.00 P
 AXAS1  1.170 0.50 P
 AXAS2  1.315 0.75 P
 AXCC1  1.465 0.25 S
 AXEC1  1.430 0.33 S
 AXEC2  1.720 0.33 S
 AXAS2  2.340 0.25 S
 AXID1  2.010 0.25 S
# 2015  1 31  0  7 42.485   45.94163 -129.97464  1.458  0.3  0.501  0.544  0.032  26116
 AXCC1  0.855 1.00 P
 AXEC1  0.405 1.00 P
 AXEC2  0.435 1.00 P
 AXEC3  0.460 1.00 P
 AXAS1  0.660 1.00 P
 AXAS2  0.805 0.50 P
 AXID1  0.555 0.75 P
 AXEC1  0.955 0.25 S
 AXEC2  0.825 0.33 S
 AXEC3  0.895 0.33 S
 AXAS1  1.275 0.25 S
 AXID1  0.995 0.25 S
# 2015  1 31  0 11 53.091   45.95062 -129.98802  1.209  0.6  0.492  0.924  0.033  26139
 AXCC1  0.544 1.00 P
 AXEC1  0.384 1.00 P
 AXEC2  0.559 1.00 P
 AXEC3  0.579 1.00 P
 AXAS1  0.709 1.00 P
 AXAS2  0.739 1.00 P
 AXID1  0.724 0.50 P
 AXEC1  0.844 0.25 S
 AXEC2  1.089 0.33 S
 AXEC3  1.139 0.33 S
 AXAS2  1.319 0.33 S
 AXID1  1.279 0.25 S
# 2015  1 31  0 25 33.925   45.94442 -130.02023  1.166  0.5  0.739  0.653  0.035  26176
 AXCC1  0.475 1.00 P
 AXEC1  0.895 0.50 P
 AXEC2  0.940 1.00 P
 AXEC3  0.830 1.00 P
 AXAS1  0.665 1.00 P
 AXAS2  0.485 1.00 P
 AXID1  1.005 0.75 P
 AXCC1  1.225 0.25 S
 AXEC1  1.555 0.25 S
 AXEC2  1.700 0.33 S
 AXEC3  1.705 0.33 S
 AXAS2  0.800 0.33 S
 AXID1  1.660 0.25 S
# 2015  1 31  0 37 29.653   45.94624 -129.98427  1.145  0.3  0.387  0.879  0.017  26232
 AXCC1  0.632 1.00 P
 AXEC1  0.362 1.00 P
 AXEC2  0.462 1.00 P
 AXEC3  0.477 1.00 P
 AXAS1  0.557 1.00 P
 AXAS2  0.762 0.75 P
 AXCC1  1.372 0.25 S
 AXEC1  0.782 0.33 S
 AXEC2  0.927 0.33 S
 AXEC3  0.967 0.33 S
 AXAS1  1.332 0.25 S
# 2015  1 31  0 40 32.014   45.94666 -129.98322  1.345  0.9  0.352  0.643  0.018  26254
 AXCC1  0.661 1.00 P
 AXEC1  0.381 1.00 P
 AXEC2  0.476 1.00 P
 AXEC3  0.491 1.00 P
 AXAS1  0.626 1.00 P
 AXAS2  0.731 1.00 P
 AXID1  0.691 1.00 P
 AXCC1  1.396 0.25 S
 AXEC1  0.826 0.33 S
 AXEC2  0.941 0.25 S
 AXEC3  0.971 0.33 S
 AXAS1  1.351 0.25 S
# 2015  1 31  0 42 38.717   45.95084 -129.98909  2.123  1.4  0.412  0.944  0.053  26269
 AXCC1  0.658 1.00 P
 AXEC1  0.508 1.00 P
 AXEC2  0.673 1.00 P
 AXEC3  0.698 1.00 P
 AXAS1  0.813 1.00 P
 AXAS2  0.673 1.00 P
 AXID1  0.813 1.00 P
 AXEC1  0.973 0.33 S
 AXEC2  1.208 0.33 S
 AXEC3  1.278 0.33 S
 AXAS2  1.473 0.25 S
 AXID1  1.468 0.25 S
# 2015  1 31  0 44 46.378   45.95416 -129.98592  1.633  1.3  0.503  0.690  0.035  26287
 AXCC1  0.567 1.00 P
 AXEC1  0.472 1.00 P
 AXEC2  0.642 1.00 P
 AXEC3  0.672 1.00 P
 AXAS1  0.787 1.00 P
 AXAS2  0.832 1.00 P
 AXID1  0.822 1.00 P
 AXEC1  0.887 0.33 S
 AXEC2  1.177 0.33 S
 AXEC3  1.232 0.33 S
 AXAS1  1.547 0.25 S
 AXID1  1.367 0.25 S
# 2015  1 31  0 45 32.528   45.95224 -129.98335  1.137  0.5  0.624  0.575  0.044  26294
 AXCC1  0.572 1.00 P
 AXEC1  0.357 1.00 P
 AXEC2  0.502 1.00 P
 AXAS1  0.742 0.75 P
 AXAS2  0.957 0.75 P
 AXID1  0.872 0.50 P
 AXEC1  0.807 0.33 S
 AXEC2  1.002 0.33 S
 AXEC3  1.112 0.25 S
 AXAS1  1.327 0.25 S
 AXAS2  1.342 0.33 S
# 2015  1 31  0 46 11.360   45.94569 -129.97928  1.547  0.7  0.366  0.548  0.020  26300
 AXCC1  0.725 1.00 P
 AXEC1  0.435 1.00 P
 AXEC2  0.460 0.50 P
 AXEC3  0.470 0.50 P
 AXAS1  0.650 1.00 P
 AXAS2  0.785 1.00 P
 AXID1  0.680 1.00 P
 AXCC1  1.525 0.25 S
 AXEC1  0.800 0.33 S
 AXEC2  0.975 0.25 S
 AXEC3  1.010 0.33 S
 AXAS1  1.395 0.33 S
# 2015  1 31  0 51  0.470   45.94400 -129.98250  1.125  0.7  0.338  0.824  0.024  26343
 AXCC1  0.705 1.00 P
 AXEC1  0.375 1.00 P
 AXEC2  0.410 1.00 P
 AXEC3  0.420 1.00 P
 AXAS1  0.600 1.00 P
 AXAS2  0.715 1.00 P
 AXID1  0.630 0.75 P
 AXEC1  0.785 0.25 S
 AXEC2  0.835 0.25 S
 AXEC3  0.900 0.33 S
 AXAS1  1.200 0.33 S
 AXID1  1.115 0.25 S
# 2015  1 31  0 56 27.139   45.94431 -129.97977  1.559  1.1  0.340  0.575  0.023  26384
 AXCC1  0.726 1.00 P
 AXEC1  0.431 1.00 P
 AXEC2  0.466 1.00 P
 AXEC3  0.481 1.00 P
 AXAS1  0.646 1.00 P
 AXAS2  0.771 1.00 P
 AXID1  0.641 1.00 P
 AXEC1  0.846 0.33 S
 AXEC2  0.901 0.25 S
 AXEC3  0.966 0.33 S
 AXAS1  1.271 0.33 S
 AXID1  1.166 0.25 S
# 2015  1 31  1  0 18.341   45.94305 -129.98192  1.617  2.1  0.274  0.617  0.028  26414
 AXCC1  0.734 1.00 P
 AXEC1  0.459 1.00 P
 AXEC2  0.474 1.00 P
 AXEC3  0.484 1.00 P
 AXAS1  0.639 1.00 P
 AXAS2  0.734 1.00 P
 AXID1  0.604 1.00 P
 AXEC1  0.849 0.33 S
 AXEC2  0.909 0.25 S
 AXEC3  0.934 0.33 S
 AXAS1  1.269 0.33 S
 AXAS2  1.299 0.33 S
# 2015  1 31  1  1 54.279   45.94252 -129.98073  1.359  0.7  0.293  0.581  0.023  26426
 AXCC1  0.741 1.00 P
 AXEC1  0.416 1.00 P
 AXEC2  0.426 1.00 P
 AXEC3  0.436 1.00 P
 AXAS1  0.596 1.00 P
 AXAS2  0.761 1.00 P
 AXID1  0.581 1.00 P
 AXEC1  0.836 0.33 S
 AXEC2  0.846 0.25 S
 AXEC3  0.886 0.33 S
 AXAS1  1.211 0.33 S
 AXAS2  1.231 0.25 S
# 2015  1 31  1  4 17.700   45.93939 -129.97389  2.285  0.8  0.484  0.736  0.057  26449
 AXCC1  0.835 1.00 P
 AXEC1  0.605 1.00 P
 AXEC2  0.615 1.00 P
 AXEC3  0.615 1.00 P
 AXAS1  0.780 1.00 P
 AXAS2  0.930 1.00 P
 AXID1  0.520 1.00 P
 AXEC1  0.975 0.33 S
 AXEC2  1.035 0.25 S
 AXEC3  1.080 0.33 S
 AXAS1  1.385 0.33 S
 AXAS2  1.435 0.25 S
# 2015  1 31  1  5  9.895   45.94186 -129.98317  1.516  0.4  0.370  0.867  0.036  26459
 AXCC1  0.755 1.00 P
 AXEC1  0.450 1.00 P
 AXEC2  0.455 1.00 P
 AXEC3  0.460 1.00 P
 AXAS1  0.610 1.00 P
 AXAS2  0.655 1.00 P
 AXEC1  0.870 0.33 S
 AXEC2  0.855 0.33 S
 AXEC3  0.925 0.33 S
 AXAS1  1.210 0.33 S
 AXAS2  1.185 0.25 S
# 2015  1 31  1  5 23.694   45.94151 -129.97903  1.374  0.5  0.381  0.639  0.028  26461
 AXCC1  0.761 1.00 P
 AXEC1  0.436 1.00 P
 AXEC2  0.406 1.00 P
 AXEC3  0.421 1.00 P
 AXAS1  0.616 1.00 P
 AXAS2  0.776 1.00 P
 AXID1  0.561 0.75 P
 AXEC2  0.801 0.33 S
 AXEC3  0.876 0.33 S
 AXAS1  1.256 0.25 S
 AXAS2  1.186 0.25 S
 AXID1  1.086 0.25 S
# 2015  1 31  1  7 33.052   45.94251 -129.98053  1.682  1.7  0.283  0.591  0.023  26479
 AXCC1  0.748 1.00 P
 AXEC1  0.468 1.00 P
 AXEC2  0.478 1.00 P
 AXEC3  0.483 1.00 P
 AXAS1  0.643 1.00 P
 AXAS2  0.768 1.00 P
 AXID1  0.598 1.00 P
 AXEC1  0.888 0.25 S
 AXEC2  0.903 0.25 S
 AXEC3  0.953 0.33 S
 AXAS1  1.233 0.33 S
 AXAS2  1.313 0.25 S
# 2015  1 31  1 18 25.770   45.94127 -129.98311  1.343  1.1  0.285  0.658  0.022  26565
 AXCC1  0.740 1.00 P
 AXEC1  0.440 1.00 P
 AXEC2  0.430 1.00 P
 AXEC3  0.430 1.00 P
 AXAS1  0.525 0.50 P
 AXAS2  0.710 1.00 P
 AXID1  0.570 1.00 P
 AXEC1  0.820 0.33 S
 AXEC2  0.875 0.25 S
 AXEC3  0.900 0.33 S
 AXAS1  1.215 0.25 S
 AXAS2  1.225 0.25 S
# 2015  1 31  1 21 48.241   45.94523 -129.97589  1.573  0.3  0.437  0.562  0.022  26591
 AXCC1  0.754 0.75 P
 AXEC1  0.434 1.00 P
 AXEC2  0.489 1.00 P
 AXEC3  0.404 0.50 P
 AXAS1  0.694 1.00 P
 AXID1  0.644 1.00 P
 AXCC1  1.509 0.25 S
 AXEC1  0.854 0.25 S
 AXEC2  0.909 0.25 S
 AXEC3  0.959 0.33 S
 AXAS1  1.289 0.25 S
# 2015  1 31  1 22 25.957   45.94348 -129.98549  0.476  0.2  0.381  0.631  0.046  26595
 AXCC1  0.663 1.00 P
 AXEC1  0.243 0.50 P
 AXEC2  0.358 1.00 P
 AXEC3  0.363 1.00 P
 AXAS1  0.518 1.00 P
 AXAS2  0.683 1.00 P
 AXEC1  0.728 0.33 S
 AXEC2  0.788 0.25 S
 AXEC3  0.838 0.33 S
 AXAS1  1.128 0.33 S
 AXAS2  1.138 0.21 S
# 2015  1 31  1 22 42.496   45.94181 -129.98224  1.254  0.2  0.446  0.930  0.023  26598
 AXCC1  0.724 1.00 P
 AXEC1  0.419 1.00 P
 AXEC2  0.409 1.00 P
 AXEC3  0.414 1.00 P
 AXAS1  0.569 1.00 P
 AXAS2  0.724 1.00 P
 AXEC1  0.879 0.33 S
 AXEC2  0.789 0.25 S
 AXEC3  0.834 0.33 S
 AXAS1  1.184 0.25 S
 AXAS2  1.174 0.25 S
# 2015  1 31  1 28 42.190   45.94353 -129.98625  0.402 -0.1  0.143  0.307  0.036  26628
 AXCC1  0.680 0.75 P
 AXEC1  0.365 1.00 P
 AXEC2  0.410 1.00 P
 AXEC3  0.415 1.00 P
 AXAS1  0.595 0.50 P
 AXAS2  0.740 0.75 P
 AXEC1  0.785 0.25 S
 AXEC2  0.835 0.25 S
 AXEC3  0.890 0.33 S
 AXAS1  1.160 0.33 S
 AXID1  1.640 0.25 S
# 2015  1 31  1 35  7.085   45.93701 -129.97696  1.370  0.5  0.348  0.499  0.035  26665
 AXCC1  0.985 0.50 P
 AXEC1  0.500 1.00 P
 AXEC2  0.400 1.00 P
 AXEC3  0.400 1.00 P
 AXAS1  0.520 0.50 P
 AXAS2  0.805 0.75 P
 AXID1  0.485 1.00 P
 AXEC1  1.010 0.33 S
 AXEC2  0.775 0.33 S
 AXEC3  0.850 0.33 S
 AXAS1  1.265 0.33 S
 AXAS2  1.205 0.25 S
# 2015  1 31  1 43 58.113   45.94119 -129.98056  1.199  0.3  0.420  0.527  0.032  26698
 AXCC1  0.782 0.75 P
 AXEC1  0.432 1.00 P
 AXEC2  0.272 0.50 P
 AXEC3  0.422 0.75 P
 AXAS1  0.572 1.00 P
 AXAS2  0.737 1.00 P
 AXID1  0.562 0.75 P
 AXEC1  0.857 0.33 S
 AXEC2  0.807 0.25 S
 AXEC3  0.867 0.33 S
 AXAS1  1.177 0.33 S
 AXAS2  1.112 0.23 S
# 2015  1 31  1 44  1.471   45.94161 -129.98235  1.061  0.2  0.438  1.107  0.025  26699
 AXCC1  0.739 1.00 P
 AXEC1  0.399 1.00 P
 AXEC2  0.374 1.00 P
 AXEC3  0.384 1.00 P
 AXAS1  0.539 1.00 P
 AXAS2  0.729 0.75 P
 AXEC1  0.819 0.33 S
 AXEC2  0.774 0.25 S
 AXEC3  0.834 0.33 S
 AXAS1  1.144 0.25 S
 AXAS2  1.159 0.25 S
# 2015  1 31  1 45 25.983   45.94204 -129.98318  1.098  0.3  0.379  1.084  0.023  26704
 AXCC1  0.712 1.00 P
 AXEC1  0.412 1.00 P
 AXEC2  0.392 1.00 P
 AXEC3  0.392 1.00 P
 AXAS1  0.552 1.00 P
 AXAS2  0.667 0.50 P
 AXEC1  0.837 0.33 S
 AXEC2  0.792 0.25 S
 AXEC3  0.837 0.33 S
 AXAS1  1.157 0.33 S
 AXAS2  1.177 0.25 S
# 2015  1 31  2  3 22.224   45.96431 -129.99011  1.439  0.4  0.588  0.916  0.055  26773
 AXCC1  0.566 1.00 P
 AXEC1  0.611 1.00 P
 AXEC2  0.796 1.00 P
 AXEC3  0.851 0.75 P
 AXAS1  0.981 0.50 P
 AXAS2  0.996 0.75 P
 AXCC1  1.291 0.33 S
 AXEC1  1.216 0.33 S
 AXEC2  1.526 0.33 S
 AXEC3  1.616 0.25 S
 AXAS2  1.626 0.25 S
# 2015  1 31  2 17 48.306   45.94204 -129.98224  1.071 -0.0  0.442  1.149  0.025  26810
 AXCC1  0.714 0.75 P
 AXEC1  0.394 1.00 P
 AXEC2  0.364 1.00 P
 AXEC3  0.364 1.00 P
 AXAS1  0.534 1.00 P
 AXAS2  0.759 0.75 P
 AXEC1  0.819 0.33 S
 AXEC2  0.769 0.33 S
 AXEC3  0.814 0.33 S
 AXAS1  1.134 0.33 S
 AXAS2  1.154 0.25 S
# 2015  1 31  2 45 41.012   45.94039 -129.97635  1.421  0.2  0.383  0.486  0.023  26869
 AXCC1  0.783 0.50 P
 AXEC1  0.463 1.00 P
 AXEC2  0.408 1.00 P
 AXEC3  0.418 1.00 P
 AXAS1  0.633 1.00 P
 AXAS2  0.813 0.75 P
 AXID1  0.563 1.00 P
 AXEC1  0.938 0.25 S
 AXEC2  0.778 0.33 S
 AXEC3  0.858 0.33 S
 AXAS1  1.288 0.25 S
 AXID1  0.918 0.25 S
# 2015  1 31  3  3  6.024   45.94067 -129.98335  0.797  0.1  0.270  0.275  0.030  26910
 AXCC1  0.746 0.50 P
 AXEC1  0.416 1.00 P
 AXEC2  0.356 1.00 P
 AXEC3  0.311 1.00 P
 AXAS1  0.526 1.00 P
 AXID1  0.586 0.50 P
 AXEC1  0.826 0.33 S
 AXEC2  0.736 0.25 S
 AXEC3  0.706 0.33 S
 AXAS1  1.116 0.33 S
 AXAS2  1.121 0.25 S
# 2015  1 31  3  9 26.367   45.96453 -129.99487  1.914  0.6  0.544  0.774  0.050  26926
 AXCC1  0.588 1.00 P
 AXEC1  0.678 1.00 P
 AXEC2  0.863 1.00 P
 AXEC3  0.893 1.00 P
 AXAS1  1.008 0.75 P
 AXAS2  0.888 0.75 P
 AXCC1  1.283 0.25 S
 AXEC1  1.283 0.33 S
 AXEC2  1.618 0.33 S
 AXEC3  1.718 0.33 S
 AXID1  1.958 0.25 S
# 2015  1 31  3 33 23.266   45.95212 -129.98273  1.325  0.2  0.577  0.694  0.030  26965
 AXCC1  0.589 1.00 P
 AXEC1  0.389 1.00 P
 AXEC2  0.564 1.00 P
 AXAS1  0.759 0.75 P
 AXAS2  0.884 0.75 P
 AXID1  0.774 0.50 P
 AXEC1  0.819 0.25 S
 AXEC2  1.024 0.33 S
 AXEC3  1.149 0.33 S
 AXAS1  1.324 0.25 S
 AXID1  1.284 0.25 S
# 2015  1 31  3 50  0.358   45.94345 -130.02242  1.181  0.1  0.894  0.710  0.035  26987
 AXCC1  0.537 1.00 P
 AXEC1  0.872 0.50 P
 AXEC2  0.927 1.00 P
 AXEC3  0.937 1.00 P
 AXAS1  0.702 1.00 P
 AXAS2  0.452 1.00 P
 AXEC1  1.557 0.25 S
 AXEC2  1.612 0.25 S
 AXEC3  1.727 0.33 S
 AXAS1  1.392 0.25 S
 AXAS2  0.747 0.25 S
# 2015  1 31  4  8 19.708   45.94328 -130.01701  0.921  0.4  0.776  0.861  0.027  27003
 AXCC1  0.482 1.00 P
 AXEC1  0.782 0.75 P
 AXEC2  0.887 1.00 P
 AXEC3  0.862 0.50 P
 AXAS1  0.602 1.00 P
 AXAS2  0.407 1.00 P
 AXID1  0.932 0.75 P
 AXEC1  1.467 0.25 S
 AXEC2  1.632 0.25 S
 AXEC3  1.662 0.33 S
 AXAS1  1.327 0.25 S
 AXID1  1.637 0.25 S
# 2015  1 31  4 29 10.393   45.94215 -129.98633  0.806  0.1  0.168  4.431  0.025  27019
 AXCC1  0.672 0.75 P
 AXEC1  0.417 1.00 P
 AXEC2  0.407 1.00 P
 AXEC3  0.392 1.00 P
 AXAS1  0.492 1.00 P
 AXAS2  0.692 0.75 P
 AXEC1  0.712 0.25 S
 AXEC2  0.847 0.33 S
 AXEC3  0.872 0.33 S
 AXAS1  1.112 0.25 S
 AXAS2  1.102 0.25 S
# 2015  1 31  4 29 36.171   45.94176 -129.98581  1.287  0.2  0.364  1.115  0.039  27022
 AXCC1  0.694 0.75 P
 AXEC1  0.454 0.75 P
 AXEC2  0.444 1.00 P
 AXEC3  0.429 1.00 P
 AXAS1  0.519 1.00 P
 AXAS2  0.679 1.00 P
 AXEC1  0.889 0.33 S
 AXEC2  0.834 0.25 S
 AXEC3  0.909 0.33 S
 AXAS1  1.159 0.25 S
 AXAS2  1.144 0.25 S
# 2015  1 31  4 30 16.398   45.94063 -129.98441  1.688  0.4  0.269  0.718  0.026  27027
 AXCC1  0.742 1.00 P
 AXEC1  0.512 1.00 P
 AXEC2  0.417 0.50 P
 AXEC3  0.487 1.00 P
 AXAS1  0.587 1.00 P
 AXAS2  0.677 1.00 P
 AXID1  0.602 0.75 P
 AXEC1  0.957 0.33 S
 AXEC2  0.917 0.25 S
 AXEC3  0.952 0.33 S
 AXAS1  1.212 0.25 S
 AXAS2  1.192 0.25 S
# 2015  1 31  4 32 29.118   45.94096 -129.98430  1.335  0.3  0.362  0.953  0.025  27033
 AXCC1  0.722 1.00 P
 AXEC1  0.447 1.00 P
 AXEC2  0.442 1.00 P
 AXEC3  0.422 1.00 P
 AXAS1  0.527 1.00 P
 AXAS2  0.677 0.75 P
 AXEC1  0.897 0.33 S
 AXEC2  0.827 0.33 S
 AXEC3  0.902 0.33 S
 AXAS1  1.157 0.33 S
 AXAS2  1.097 0.25 S
# 2015  1 31  6 31 59.946   45.94311 -130.02074  1.457  0.3  0.613  0.971  0.079  27131
 AXCC1  0.564 1.00 P
 AXEC1  0.824 1.00 P
 AXEC2  0.929 1.00 P
 AXEC3  0.899 0.50 P
 AXAS1  0.669 1.00 P
 AXAS2  0.469 1.00 P
 AXCC1  1.219 0.25 S
 AXEC1  1.564 0.25 S
 AXEC2  1.689 0.25 S
 AXEC3  1.714 0.33 S
 AXAS1  1.329 0.25 S
# 2015  1 31  6 54  4.227   45.94784 -130.02431  1.620  0.2  0.682  0.921  0.043  27147
 AXCC1  0.538 1.00 P
 AXEC1  0.938 1.00 P
 AXEC2  0.913 1.00 P
 AXEC3  0.958 1.00 P
 AXAS1  0.858 0.50 P
 AXAS2  0.613 1.00 P
 AXEC1  1.688 0.25 S
 AXEC2  1.903 0.25 S
 AXEC3  1.873 0.33 S
 AXAS1  1.658 0.25 S
 AXAS2  0.968 0.33 S
# 2015  1 31  7 18 30.306   45.93886 -129.98172  1.509  0.2  0.306  0.763  0.046  27163
 AXEC1  0.509 1.00 P
 AXEC2  0.439 1.00 P
 AXEC3  0.419 1.00 P
 AXAS1  0.569 1.00 P
 AXAS2  0.719 0.50 P
 AXID1  0.529 0.50 P
 AXEC1  0.944 0.33 S
 AXEC2  0.834 0.25 S
 AXEC3  0.899 0.33 S
 AXAS1  1.149 0.33 S
 AXAS2  1.159 0.25 S
# 2015  1 31  7 36  0.052   45.97145 -129.99136  1.878  0.9  0.735  1.041  0.061  27174
 AXCC1  0.688 1.00 P
 AXEC1  0.783 1.00 P
 AXEC2  0.963 1.00 P
 AXEC3  0.993 1.00 P
 AXAS1  1.123 0.75 P
 AXAS2  1.078 1.00 P
 AXCC1  1.508 0.25 S
 AXEC1  1.433 0.33 S
 AXEC2  1.733 0.33 S
 AXEC3  1.828 0.25 S
 AXAS1  2.328 0.24 S
 AXAS2  1.883 0.25 S
# 2015  1 31  8 10  7.287   45.94187 -130.01955  1.318  0.3  0.659  0.999  0.033  27206
 AXCC1  0.543 1.00 P
 AXEC2  0.893 1.00 P
 AXEC3  0.873 1.00 P
 AXAS1  0.658 0.75 P
 AXAS2  0.453 1.00 P
 AXID1  0.903 0.75 P
 AXEC2  1.658 0.25 S
 AXEC3  1.708 0.33 S
 AXAS1  1.308 0.25 S
 AXAS2  0.698 0.33 S
 AXID1  1.613 0.25 S
# 2015  1 31  9 30 25.893   45.96054 -129.99155  1.215  0.8  0.572  1.272  0.036  27258
 AXCC1  0.502 1.00 P
 AXEC1  0.547 1.00 P
 AXEC2  0.742 1.00 P
 AXEC3  0.767 1.00 P
 AXAS1  0.927 0.75 P
 AXAS2  0.887 1.00 P
 AXID1  0.902 0.50 P
 AXEC1  1.102 0.33 S
 AXEC2  1.417 0.33 S
 AXEC3  1.507 0.33 S
 AXAS2  1.497 0.25 S
 AXID1  1.742 0.25 S
# 2015  1 31 10 25 37.178   45.93951 -130.01434  0.646  0.1  0.559  0.505  0.066  27294
 AXCC1  0.547 0.75 P
 AXEC1  0.772 0.50 P
 AXEC2  0.847 1.00 P
 AXEC3  0.792 1.00 P
 AXAS1  0.507 0.75 P
 AXAS2  0.282 1.00 P
 AXEC1  1.527 0.25 S
 AXEC2  1.602 0.33 S
 AXEC3  1.517 0.25 S
 AXAS1  1.112 0.25 S
 AXAS2  0.482 0.33 S
# 2015  1 31 11 11 25.783   45.97834 -129.99258  1.198  1.1  1.587  5.429  0.044  27332
 AXCC1  0.802 1.00 P
 AXEC1  0.912 1.00 P
 AXEC2  1.092 1.00 P
 AXEC3  1.132 1.00 P
 AXAS1  1.227 1.00 P
 AXAS2  1.187 1.00 P
 AXID1  1.252 0.75 P
 AXCC1  1.612 0.33 S
 AXEC1  1.722 0.33 S
 AXEC2  2.057 0.25 S
 AXEC3  2.127 0.25 S
 AXAS2  2.127 0.25 S
# 2015  1 31 13 59  0.064   45.94223 -130.01701  0.725  0.5  0.795  0.628  0.037  27426
 AXCC1  0.506 1.00 P
 AXEC1  0.796 0.75 P
 AXEC2  0.901 1.00 P
 AXEC3  0.866 1.00 P
 AXAS1  0.621 1.00 P
 AXAS2  0.406 1.00 P
 AXID1  0.901 1.00 P
 AXEC1  1.496 0.25 S
 AXEC2  1.626 0.25 S
 AXEC3  1.671 0.33 S
 AXAS1  1.326 0.25 S
 AXAS2  0.661 0.33 S
 AXID1  1.616 0.25 S
# 2015  1 31 14 44 31.943   45.94416 -130.02104  1.105  0.3  0.860  0.840  0.048  27445
 AXCC1  0.483 1.00 P
 AXEC1  0.828 0.75 P
 AXEC2  0.888 1.00 P
 AXAS1  0.668 1.00 P
 AXAS2  0.423 1.00 P
 AXID1  0.968 0.75 P
 AXEC1  1.308 0.24 S
 AXEC2  1.683 0.25 S
 AXEC3  1.718 0.33 S
 AXAS1  1.368 0.25 S
 AXAS2  0.733 0.33 S
# 2015  1 31 16 26 30.089   45.96170 -129.98894  2.438  1.3  0.534  0.795  0.055  27503
 AXCC1  0.646 1.00 P
 AXEC1  0.681 1.00 P
 AXEC2  0.871 1.00 P
 AXEC3  0.896 1.00 P
 AXAS1  1.001 1.00 P
 AXAS2  0.986 1.00 P
 AXID1  0.906 1.00 P
 AXEC1  1.211 0.33 S
 AXEC2  1.556 0.33 S
 AXEC3  1.621 0.33 S
 AXAS1  1.931 0.25 S
 AXAS2  1.636 0.25 S
 AXID1  1.921 0.25 S
# 2015  1 31 17 34 21.011   45.94581 -130.01851  0.962  0.4  1.039  0.976  0.035  27544
 AXCC1  0.434 1.00 P
 AXEC1  0.814 0.75 P
 AXEC2  0.844 0.50 P
 AXAS1  0.674 1.00 P
 AXAS2  0.474 1.00 P
 AXID1  1.004 1.00 P
 AXEC1  1.514 0.25 S
 AXEC2  1.669 0.33 S
 AXEC3  1.684 0.33 S
 AXAS2  0.824 0.33 S
 AXID1  1.654 0.25 S
# 2015  1 31 18 37 41.509   45.94325 -130.01685  0.924  0.7  0.772  0.830  0.033  27570
 AXCC1  0.491 1.00 P
 AXEC1  0.781 1.00 P
 AXEC2  0.856 1.00 P
 AXEC3  0.821 1.00 P
 AXAS1  0.601 1.00 P
 AXAS2  0.396 1.00 P
 AXID1  0.911 1.00 P
 AXEC1  1.356 0.25 S
 AXEC2  1.616 0.25 S
 AXEC3  1.656 0.33 S
 AXAS1  1.311 0.25 S
 AXID1  1.571 0.25 S
# 2015  1 31 20  2  1.363   45.96150 -129.99159  2.071  1.4  0.483  0.668  0.027  27625
 AXCC1  0.597 1.00 P
 AXEC1  0.632 1.00 P
 AXEC2  0.817 1.00 P
 AXEC3  0.852 1.00 P
 AXAS1  0.912 1.00 P
 AXAS2  0.932 1.00 P
 AXID1  0.987 1.00 P
 AXEC1  1.257 0.33 S
 AXEC2  1.497 0.33 S
 AXAS1  1.857 0.25 S
 AXAS2  1.617 0.25 S
 AXID1  1.802 0.25 S
# 2015  1 31 21  4 16.444   45.96506 -129.98915  2.095  0.9  0.538  0.702  0.038  27759
 AXCC1  0.636 1.00 P
 AXEC1  0.686 1.00 P
 AXEC2  0.856 1.00 P
 AXEC3  0.896 1.00 P
 AXAS1  1.021 1.00 P
 AXAS2  0.976 1.00 P
 AXID1  1.041 0.75 P
 AXCC1  1.416 0.25 S
 AXEC1  1.276 0.33 S
 AXEC3  1.651 0.33 S
 AXAS1  2.001 0.25 S
 AXID1  1.791 0.25 S
# 2015  1 31 21 13  8.757   45.97273 -129.99417  2.150  1.4  0.715  0.834  0.030  27783
 AXCC1  0.708 1.00 P
 AXEC1  0.833 1.00 P
 AXEC2  1.003 1.00 P
 AXEC3  1.048 1.00 P
 AXAS1  1.163 1.00 P
 AXAS2  1.103 1.00 P
 AXID1  1.218 1.00 P
 AXCC1  1.498 0.25 S
 AXEC1  1.573 0.33 S
 AXEC2  1.903 0.33 S
 AXEC3  2.013 0.33 S
 AXAS2  1.963 0.25 S
# 2015  1 31 21 49 16.717   45.94284 -130.02167  1.338  0.4  0.561  1.030  0.027  27846
 AXCC1  0.548 1.00 P
 AXEC1  0.878 0.50 P
 AXEC2  0.928 1.00 P
 AXEC3  0.873 0.50 P
 AXAS1  0.668 1.00 P
 AXAS2  0.463 1.00 P
 AXID1  0.948 0.75 P
 AXEC1  1.553 0.25 S
 AXEC2  1.678 0.25 S
 AXEC3  1.708 0.33 S
 AXAS1  1.368 0.25 S
 AXID1  1.653 0.25 S
# 2015  1 31 22  2 25.188   45.95389 -129.99275  1.081  0.6  0.508  1.336  0.030  27892
 AXCC1  0.457 1.00 P
 AXEC1  0.452 1.00 P
 AXEC2  0.637 1.00 P
 AXEC3  0.662 1.00 P
 AXAS1  0.742 0.75 P
 AXAS2  0.782 1.00 P
 AXID1  0.862 0.75 P
 AXEC1  0.947 0.33 S
 AXEC2  1.242 0.33 S
 AXEC3  1.307 0.33 S
 AXAS2  1.267 0.33 S
 AXID1  1.612 0.25 S
