# 2015  1 22 10 34 31.020   45.94185 -130.02161  1.384  0.8  0.721  0.628  0.046  20890
 AXCC1  0.555 1.00 P
 AXEC1  0.835 1.00 P
 AXEC2  0.870 1.00 P
 AXEC3  0.870 1.00 P
 AXAS1  0.645 1.00 P
 AXAS2  0.440 1.00 P
 AXID1  0.935 1.00 P
 AXEC2  1.665 0.25 S
 AXEC3  1.735 0.33 S
 AXAS1  1.355 0.25 S
 AXAS2  0.650 0.33 S
 AXID1  1.635 0.25 S
# 2015  1 24  0  5 19.806   45.94385 -130.01503  0.612  0.4  0.631  0.576  0.043  21047
 AXCC1  0.439 1.00 P
 AXEC1  0.734 0.75 P
 AXEC2  0.824 1.00 P
 AXEC3  0.819 1.00 P
 AXAS1  0.589 0.75 P
 AXAS2  0.379 1.00 P
 AXID1  0.884 1.00 P
 AXEC1  1.439 0.25 S
 AXEC2  1.564 0.25 S
 AXEC3  1.574 0.25 S
 AXAS1  1.229 0.25 S
 AXID1  1.549 0.25 S
# 2015  1 24  4 30 53.076   45.93566 -129.97804  1.456  0.5  0.364  0.551  0.049  21133
 AXCC1  0.819 0.75 P
 AXEC1  0.559 1.00 P
 AXEC3  0.404 1.00 P
 AXAS1  0.624 1.00 P
 AXAS2  0.779 1.00 P
 AXID1  0.464 1.00 P
 AXEC1  1.094 0.25 S
 AXEC2  0.804 0.33 S
 AXEC3  0.819 0.33 S
 AXAS1  1.274 0.25 S
 AXAS2  1.124 0.30 S
# 2015  1 24 17  5 48.312   45.94206 -130.02007  1.420  1.0  0.656  0.927  0.029  21246
 AXCC1  0.558 1.00 P
 AXEC1  0.848 1.00 P
 AXEC2  0.918 1.00 P
 AXEC3  0.888 0.50 P
 AXAS1  0.653 1.00 P
 AXAS2  0.448 1.00 P
 AXID1  0.873 0.50 P
 AXCC1  1.238 0.25 S
 AXEC1  1.518 0.33 S
 AXEC2  1.688 0.25 S
 AXAS1  1.378 0.25 S
 AXID1  1.688 0.25 S
# 2015  1 25 21 57  8.171   45.93938 -130.01584  0.812  0.4  0.546  0.838  0.032  21400
 AXCC1  0.589 0.75 P
 AXEC1  0.744 0.75 P
 AXEC2  0.854 1.00 P
 AXEC3  0.794 1.00 P
 AXAS1  0.529 1.00 P
 AXAS2  0.314 1.00 P
 AXEC1  1.549 0.33 S
 AXEC2  1.569 0.33 S
 AXEC3  1.539 0.33 S
 AXAS1  1.179 0.25 S
 AXAS2  0.549 0.33 S
# 2015  1 25 22 53 45.494   45.93846 -130.01726  0.782  0.2  1.197  0.720  0.020  21404
 AXCC1  0.586 0.75 P
 AXEC1  0.821 0.50 P
 AXEC2  0.876 1.00 P
 AXEC3  0.836 1.00 P
 AXAS1  0.531 1.00 P
 AXAS2  0.301 1.00 P
 AXCC1  1.291 0.25 S
 AXEC1  1.576 0.25 S
 AXEC2  1.641 0.33 S
 AXEC3  1.591 0.33 S
 AXAS1  1.146 0.25 S
# 2015  1 25 23 57 41.911   45.94279 -130.01859  1.454  0.4  0.604  0.883  0.031  21413
 AXCC1  0.554 1.00 P
 AXEC1  0.799 1.00 P
 AXEC2  0.899 1.00 P
 AXEC3  0.859 1.00 P
 AXAS1  0.629 1.00 P
 AXAS2  0.439 1.00 P
 AXID1  0.949 1.00 P
 AXEC1  1.399 0.25 S
 AXEC2  1.644 0.25 S
 AXEC3  1.719 0.25 S
 AXAS1  1.344 0.25 S
 AXID1  1.589 0.25 S
# 2015  1 26  4 12 23.830   45.94036 -130.01331  0.611  0.7  0.272  0.320  0.057  21446
 AXCC1  0.550 1.00 P
 AXEC1  0.780 1.00 P
 AXEC2  0.820 1.00 P
 AXEC3  0.780 1.00 P
 AXAS1  0.525 1.00 P
 AXAS2  0.310 1.00 P
 AXCC1  1.260 0.25 S
 AXEC1  1.525 0.33 S
 AXEC2  1.635 0.33 S
 AXEC3  1.570 0.33 S
 AXAS1  1.155 0.25 S
# 2015  1 26  5 43 34.323   45.94135 -129.98398  1.240  0.8  0.315  0.825  0.022  21484
 AXCC1  0.707 1.00 P
 AXEC1  0.442 1.00 P
 AXEC2  0.422 1.00 P
 AXEC3  0.407 1.00 P
 AXAS1  0.537 1.00 P
 AXAS2  0.652 0.50 P
 AXID1  0.572 0.50 P
 AXEC1  0.882 0.33 S
 AXEC2  0.812 0.33 S
 AXEC3  0.847 0.33 S
 AXAS1  1.182 0.25 S
 AXAS2  1.157 0.25 S
# 2015  1 26  5 55 26.441   45.93623 -130.02040  1.436  0.4  0.596  0.631  0.021  21492
 AXCC1  0.669 1.00 P
 AXEC1  0.844 0.50 P
 AXEC2  0.924 1.00 P
 AXEC3  0.874 0.75 P
 AXAS1  0.599 1.00 P
 AXAS2  0.389 1.00 P
 AXCC1  1.399 0.33 S
 AXEC1  1.664 0.25 S
 AXEC2  1.634 0.33 S
 AXEC3  1.649 0.33 S
 AXAS1  1.199 0.25 S
# 2015  1 26  5 58 56.513   45.94048 -129.98367  1.027  0.2  0.313  0.949  0.024  21495
 AXCC1  0.732 0.75 P
 AXEC1  0.432 1.00 P
 AXEC2  0.402 1.00 P
 AXEC3  0.347 1.00 P
 AXAS1  0.522 1.00 P
 AXID1  0.537 0.50 P
 AXEC1  0.862 0.33 S
 AXEC2  0.792 0.33 S
 AXEC3  0.822 0.33 S
 AXAS1  1.142 0.25 S
 AXAS2  1.137 0.25 S
# 2015  1 26  6  0 42.103   45.94614 -130.02121  1.259  0.1  0.538  1.295  0.037  21498
 AXCC1  0.487 1.00 P
 AXEC1  0.817 0.75 P
 AXEC2  0.957 0.75 P
 AXEC3  0.947 0.50 P
 AXAS2  0.557 0.75 P
 AXID1  0.932 0.50 P
 AXCC1  1.172 0.25 S
 AXEC1  1.552 0.25 S
 AXEC2  1.727 0.33 S
 AXEC3  1.707 0.33 S
 AXAS1  1.522 0.33 S
 AXAS2  0.832 0.33 S
# 2015  1 26  6 32 31.351   45.94148 -129.98305  1.522  0.5  0.270  0.660  0.024  21552
 AXCC1  0.734 1.00 P
 AXEC1  0.469 1.00 P
 AXEC2  0.459 1.00 P
 AXEC3  0.449 1.00 P
 AXAS1  0.579 1.00 P
 AXAS2  0.699 1.00 P
 AXID1  0.584 0.75 P
 AXEC1  0.904 0.33 S
 AXEC2  0.849 0.33 S
 AXEC3  0.909 0.33 S
 AXAS1  1.224 0.33 S
 AXAS2  1.204 0.25 S
# 2015  1 26  6 41 28.531   45.93758 -129.97748  1.855  0.4  0.360  0.638  0.037  21577
 AXCC1  0.854 0.75 P
 AXEC1  0.544 1.00 P
 AXEC2  0.539 1.00 P
 AXEC3  0.409 0.50 P
 AXAS1  0.664 1.00 P
 AXAS2  0.779 0.50 P
 AXID1  0.489 0.75 P
 AXEC1  1.004 0.33 S
 AXEC2  0.929 0.33 S
 AXEC3  0.964 0.33 S
 AXAS1  1.314 0.33 S
 AXAS2  1.269 0.25 S
# 2015  1 26  6 46 24.747   45.94173 -129.98434  0.986  0.3  0.248  0.467  0.022  21586
 AXCC1  0.708 1.00 P
 AXEC1  0.403 1.00 P
 AXEC2  0.398 1.00 P
 AXEC3  0.383 1.00 P
 AXAS1  0.518 1.00 P
 AXAS2  0.683 1.00 P
 AXEC1  0.863 0.33 S
 AXEC2  0.788 0.33 S
 AXEC3  0.823 0.33 S
 AXAS1  1.158 0.33 S
 AXAS2  1.143 0.25 S
# 2015  1 26  6 48 24.449   45.94187 -129.98488  0.937  0.2  0.218  0.547  0.025  21589
 AXCC1  0.701 0.75 P
 AXEC1  0.396 1.00 P
 AXEC2  0.391 1.00 P
 AXEC3  0.381 1.00 P
 AXAS1  0.501 1.00 P
 AXAS2  0.666 1.00 P
 AXID1  0.606 0.75 P
 AXEC1  0.851 0.33 S
 AXEC2  0.781 0.33 S
 AXEC3  0.781 0.33 S
 AXAS1  1.171 0.33 S
 AXAS2  1.136 0.25 S
# 2015  1 26  8 58 44.687   45.94328 -130.01625  0.781  1.2  0.583  0.456  0.027  21650
 AXCC1  0.493 1.00 P
 AXEC1  0.788 1.00 P
 AXEC2  0.873 1.00 P
 AXEC3  0.833 0.50 P
 AXAS1  0.603 1.00 P
 AXAS2  0.413 1.00 P
 AXID1  0.908 1.00 P
 AXEC1  1.523 0.33 S
 AXEC2  1.628 0.25 S
 AXEC3  1.683 0.33 S
 AXAS1  1.343 0.25 S
 AXID1  1.643 0.25 S
# 2015  1 26  9 30 53.484   45.92575 -129.99586  1.047  0.2  0.384  0.765  0.033  21665
 AXCC1  0.960 0.75 P
 AXEC2  0.600 0.50 P
 AXEC3  0.575 1.00 P
 AXAS1  0.430 1.00 P
 AXAS2  0.525 1.00 P
 AXID1  0.495 1.00 P
 AXEC1  1.440 0.33 S
 AXEC2  1.255 0.25 S
 AXEC3  1.180 0.33 S
 AXAS1  0.865 0.25 S
 AXAS2  0.845 0.25 S
# 2015  1 26 10 49 49.654   45.93498 -130.01988  1.279  0.9  0.510  0.415  0.031  21677
 AXCC1  0.666 1.00 P
 AXEC1  0.891 1.00 P
 AXEC2  0.916 1.00 P
 AXEC3  0.851 1.00 P
 AXAS1  0.611 1.00 P
 AXAS2  0.386 1.00 P
 AXID1  0.836 1.00 P
 AXCC1  1.451 0.25 S
 AXEC1  1.651 0.33 S
 AXEC2  1.666 0.33 S
 AXEC3  1.631 0.33 S
 AXAS1  1.236 0.25 S
 AXAS2  0.636 0.33 S
# 2015  1 26 13 15 34.162   45.94267 -130.01628  0.881  0.0  0.815  1.088  0.034  21699
 AXCC1  0.483 1.00 P
 AXEC2  0.858 1.00 P
 AXEC3  0.878 1.00 P
 AXAS1  0.563 0.50 P
 AXAS2  0.393 1.00 P
 AXID1  0.908 0.75 P
 AXEC1  1.463 0.25 S
 AXEC2  1.578 0.33 S
 AXEC3  1.618 0.25 S
 AXAS1  1.298 0.25 S
 AXAS2  0.653 0.25 S
 AXID1  1.533 0.25 S
# 2015  1 26 17  2 55.122   45.94212 -129.98331  1.610  0.2  0.449  1.138  0.064  21736
 AXCC1  0.733 0.50 P
 AXEC1  0.413 1.00 P
 AXEC2  0.413 1.00 P
 AXEC3  0.398 1.00 P
 AXAS1  0.528 1.00 P
 AXAS2  0.738 0.75 P
 AXEC1  0.823 0.33 S
 AXEC2  0.803 0.25 S
 AXEC3  0.863 0.33 S
 AXAS1  1.158 0.25 S
 AXAS2  1.123 0.25 S
# 2015  1 26 19 47  6.848   45.94947 -129.97865  1.339  0.3  0.486  0.527  0.066  21794
 AXCC1  0.677 1.00 P
 AXEC1  0.387 1.00 P
 AXEC2  0.477 1.00 P
 AXEC3  0.532 0.75 P
 AXAS1  0.717 0.75 P
 AXAS2  0.862 0.75 P
 AXEC1  0.777 0.33 S
 AXEC2  0.957 0.25 S
 AXEC3  0.977 0.33 S
 AXAS1  1.417 0.25 S
 AXAS2  1.622 0.25 S
# 2015  1 26 19 48 46.939   45.94869 -129.98126  1.525  0.4  0.472  0.671  0.031  21806
 AXCC1  0.681 1.00 P
 AXEC1  0.421 1.00 P
 AXEC2  0.506 1.00 P
 AXEC3  0.526 1.00 P
 AXAS1  0.671 1.00 P
 AXAS2  0.821 0.75 P
 AXID1  0.676 0.75 P
 AXCC1  1.351 0.25 S
 AXEC1  0.821 0.33 S
 AXEC2  0.971 0.25 S
 AXEC3  1.046 0.33 S
 AXAS2  1.401 0.25 S
 AXID1  1.711 0.33 S
# 2015  1 27  3 49 14.553   45.94342 -130.02071  1.083  0.3  0.713  0.873  0.035  21953
 AXCC1  0.517 1.00 P
 AXEC1  0.817 0.75 P
 AXEC2  0.922 1.00 P
 AXEC3  0.907 1.00 P
 AXAS1  0.667 1.00 P
 AXAS2  0.452 1.00 P
 AXID1  0.992 0.50 P
 AXEC1  1.537 0.25 S
 AXEC2  1.647 0.25 S
 AXEC3  1.687 0.25 S
 AXAS1  1.362 0.25 S
 AXAS2  0.697 0.33 S
# 2015  1 27  4 16 55.335   45.94634 -129.98473  1.462  1.0  0.319  0.698  0.020  21985
 AXCC1  0.640 1.00 P
 AXEC1  0.405 1.00 P
 AXEC2  0.510 1.00 P
 AXEC3  0.515 1.00 P
 AXAS1  0.635 1.00 P
 AXAS2  0.725 1.00 P
 AXID1  0.670 1.00 P
 AXCC1  1.380 0.25 S
 AXEC1  0.830 0.25 S
 AXEC2  0.970 0.33 S
 AXEC3  1.000 0.33 S
 AXAS1  1.060 0.25 S
# 2015  1 27  4 37  7.257   45.94688 -129.98608  0.984  0.2  0.447  0.601  0.022  22023
 AXCC1  0.598 1.00 P
 AXEC1  0.348 1.00 P
 AXEC2  0.458 1.00 P
 AXEC3  0.468 1.00 P
 AXAS1  0.588 1.00 P
 AXID1  0.818 0.50 P
 AXCC1  1.268 0.25 S
 AXEC1  0.788 0.25 S
 AXEC2  0.933 0.25 S
 AXEC3  0.948 0.33 S
 AXAS1  1.173 0.25 S
# 2015  1 27  7 14  3.133   45.93892 -130.01530  0.672  0.2  0.603  0.547  0.053  22187
 AXCC1  0.552 1.00 P
 AXEC1  0.802 0.75 P
 AXEC2  0.837 1.00 P
 AXEC3  0.707 1.00 P
 AXAS1  0.512 1.00 P
 AXAS2  0.287 1.00 P
 AXCC1  1.252 0.25 S
 AXEC1  1.382 0.25 S
 AXEC2  1.607 0.33 S
 AXEC3  1.522 0.25 S
 AXAS1  1.122 0.25 S
 AXAS2  0.302 0.28 S
# 2015  1 27  7 53 36.705   45.93730 -129.97223  1.681  0.1  0.461  0.494  0.028  22213
 AXCC1  0.845 0.50 P
 AXEC1  0.565 0.75 P
 AXEC2  0.470 1.00 P
 AXEC3  0.485 1.00 P
 AXAS1  0.700 1.00 P
 AXID1  0.505 1.00 P
 AXEC1  0.985 0.33 S
 AXEC2  0.830 0.33 S
 AXEC3  0.905 0.33 S
 AXAS1  1.355 0.25 S
 AXID1  1.035 0.25 S
# 2015  1 27  8  8 26.472   45.93264 -129.97104  1.374  0.5  0.423  0.347  0.095  22226
 AXCC1  0.973 0.75 P
 AXEC1  0.613 1.00 P
 AXEC2  0.453 1.00 P
 AXEC3  0.438 1.00 P
 AXAS1  0.643 1.00 P
 AXID1  0.448 1.00 P
 AXEC1  1.138 0.33 S
 AXEC2  0.858 0.33 S
 AXEC3  0.888 0.33 S
 AXAS1  1.328 0.33 S
 AXID1  0.758 0.25 S
# 2015  1 27 10 19 17.751   45.94205 -130.01886  1.092  0.4  0.594  0.678  0.030  22291
 AXCC1  0.519 1.00 P
 AXEC1  0.814 0.50 P
 AXEC2  0.869 0.50 P
 AXEC3  0.839 1.00 P
 AXAS1  0.599 1.00 P
 AXAS2  0.419 1.00 P
 AXID1  0.944 1.00 P
 AXEC1  1.514 0.25 S
 AXEC2  1.599 0.25 S
 AXAS1  1.319 0.25 S
 AXAS2  0.664 0.33 S
 AXID1  1.669 0.25 S
# 2015  1 27 12 53 32.779   45.94249 -130.02046  1.110  1.1  0.677  0.587  0.034  22320
 AXCC1  0.536 1.00 P
 AXEC1  0.826 1.00 P
 AXEC2  0.906 1.00 P
 AXEC3  0.866 1.00 P
 AXAS1  0.641 1.00 P
 AXAS2  0.451 1.00 P
 AXID1  0.936 1.00 P
 AXEC2  1.671 0.25 S
 AXEC3  1.716 0.33 S
 AXAS1  1.366 0.33 S
 AXAS2  0.706 0.33 S
 AXID1  1.641 0.25 S
# 2015  1 27 12 54 10.580   45.94279 -130.01971  1.017  0.6  0.589  1.704  0.036  22321
 AXCC1  0.520 1.00 P
 AXEC1  0.805 1.00 P
 AXEC2  0.885 1.00 P
 AXEC3  0.845 1.00 P
 AXAS1  0.630 1.00 P
 AXAS2  0.430 1.00 P
 AXID1  0.945 1.00 P
 AXEC2  1.640 0.25 S
 AXEC3  1.685 0.33 S
 AXAS1  1.335 0.33 S
 AXAS2  0.675 0.33 S
 AXID1  1.610 0.25 S
# 2015  1 27 19  0 15.507   45.94521 -130.01653  0.902  0.7  0.791  0.910  0.040  22419
 AXCC1  0.428 1.00 P
 AXEC1  0.778 1.00 P
 AXEC2  0.858 1.00 P
 AXEC3  0.843 1.00 P
 AXAS1  0.658 1.00 P
 AXAS2  0.453 1.00 P
 AXID1  0.973 1.00 P
 AXCC1  1.208 0.25 S
 AXEC1  1.513 0.25 S
 AXEC2  1.658 0.33 S
 AXEC3  1.668 0.33 S
 AXAS1  1.433 0.25 S
 AXAS2  0.783 0.33 S
 AXID1  1.623 0.25 S
# 2015  1 27 19 36 54.264   45.94274 -130.01765  0.702  0.3  1.559  0.947  0.051  22452
 AXCC1  0.452 1.00 P
 AXEC1  0.817 0.75 P
 AXEC2  0.852 1.00 P
 AXEC3  0.877 1.00 P
 AXAS1  0.562 0.75 P
 AXAS2  0.367 0.75 P
 AXEC1  1.462 0.25 S
 AXEC2  1.572 0.25 S
 AXEC3  1.602 0.25 S
 AXAS1  1.287 0.25 S
 AXAS2  0.572 0.32 S
# 2015  1 27 19 37  0.693   45.94391 -130.01936  1.489  0.9  0.488  0.789  0.025  22453
 AXCC1  0.542 1.00 P
 AXEC1  0.822 1.00 P
 AXEC2  0.907 1.00 P
 AXEC3  0.867 1.00 P
 AXAS1  0.647 1.00 P
 AXAS2  0.467 1.00 P
 AXID1  0.972 1.00 P
 AXEC1  1.532 0.25 S
 AXEC2  1.657 0.33 S
 AXEC3  1.672 0.25 S
 AXAS1  1.372 0.33 S
 AXID1  1.637 0.25 S
# 2015  1 27 19 38 18.085   45.95395 -129.99391  0.299  0.5  0.980  0.338  0.087  22456
 AXCC1  0.390 1.00 P
 AXEC1  0.430 1.00 P
 AXEC2  0.625 1.00 P
 AXEC3  0.670 1.00 P
 AXAS1  0.780 0.75 P
 AXAS2  0.750 1.00 P
 AXEC1  0.950 0.33 S
 AXEC2  1.270 0.33 S
 AXEC3  1.330 0.33 S
 AXAS2  1.270 0.20 S
 AXID1  1.550 0.20 S
# 2015  1 27 22  3  2.607   45.94227 -130.01904  0.917  0.9  0.867  0.779  0.035  22593
 AXCC1  0.517 1.00 P
 AXEC1  0.802 1.00 P
 AXEC2  0.877 1.00 P
 AXEC3  0.837 1.00 P
 AXAS1  0.607 1.00 P
 AXAS2  0.412 1.00 P
 AXID1  0.932 1.00 P
 AXEC2  1.632 0.25 S
 AXEC3  1.682 0.33 S
 AXAS1  1.327 0.25 S
 AXAS2  0.667 0.33 S
 AXID1  1.587 0.25 S
# 2015  1 28  0 30 46.351   45.94838 -130.02162  1.010  0.3  0.483  1.327  0.041  22638
 AXCC1  0.414 1.00 P
 AXEC1  0.819 1.00 P
 AXEC2  0.949 1.00 P
 AXEC3  0.939 1.00 P
 AXAS1  0.749 0.75 P
 AXAS2  0.504 1.00 P
 AXID1  1.009 0.75 P
 AXEC1  1.554 0.25 S
 AXEC2  1.759 0.33 S
 AXEC3  1.729 0.33 S
 AXAS1  1.479 0.25 S
 AXID1  1.694 0.25 S
# 2015  1 28  4 44 59.553   45.94367 -130.01852  1.043  0.7  0.813  1.939  0.043  22688
 AXCC1  0.477 1.00 P
 AXEC1  0.787 1.00 P
 AXEC2  0.872 1.00 P
 AXEC3  0.837 1.00 P
 AXAS1  0.627 1.00 P
 AXAS2  0.422 1.00 P
 AXID1  1.042 0.50 P
 AXEC1  1.512 0.25 S
 AXEC2  1.637 0.33 S
 AXEC3  1.672 0.25 S
 AXAS1  1.342 0.25 S
 AXAS2  0.637 0.33 S
 AXID1  1.592 0.25 S
# 2015  1 28  7 31 12.700   45.93578 -130.01851  1.526  2.0  0.567  0.618  0.033  22841
 AXCC1  0.585 0.50 P
 AXEC1  0.875 1.00 P
 AXEC2  0.910 1.00 P
 AXEC3  0.840 1.00 P
 AXAS1  0.610 1.00 P
 AXAS2  0.405 1.00 P
 AXID1  0.860 1.00 P
 AXCC1  1.450 0.25 S
 AXEC1  1.695 0.25 S
 AXEC2  1.645 0.33 S
 AXEC3  1.605 0.33 S
 AXID1  1.355 0.25 S
# 2015  1 28  7 41  7.416   45.93690 -129.97646  1.416  0.6  0.367  0.460  0.028  22849
 AXCC1  0.879 0.75 P
 AXEC1  0.519 1.00 P
 AXEC2  0.404 1.00 P
 AXEC3  0.404 1.00 P
 AXAS1  0.624 1.00 P
 AXAS2  0.774 1.00 P
 AXID1  0.499 1.00 P
 AXEC1  1.009 0.33 S
 AXEC2  0.779 0.33 S
 AXEC3  0.839 0.33 S
 AXAS1  1.289 0.25 S
 AXAS2  1.264 0.25 S
 AXID1  0.874 0.25 S
# 2015  1 28  8  0 53.858   45.93711 -129.97554  1.431  1.0  0.370  0.421  0.021  22878
 AXCC1  0.872 1.00 P
 AXEC1  0.522 1.00 P
 AXEC2  0.402 1.00 P
 AXEC3  0.402 1.00 P
 AXAS1  0.627 1.00 P
 AXAS2  0.782 1.00 P
 AXID1  0.507 1.00 P
 AXEC1  1.022 0.33 S
 AXEC2  0.797 0.33 S
 AXEC3  0.857 0.33 S
 AXAS1  1.302 0.25 S
 AXID1  0.942 0.25 S
# 2015  1 28  8 12 31.724   45.95040 -129.98091  1.379  0.3  0.482  0.598  0.024  22886
 AXCC1  0.631 1.00 P
 AXEC1  0.391 1.00 P
 AXEC2  0.526 1.00 P
 AXEC3  0.546 1.00 P
 AXAS1  0.696 1.00 P
 AXAS2  0.871 1.00 P
 AXCC1  1.336 0.25 S
 AXEC1  0.791 0.33 S
 AXEC2  1.016 0.33 S
 AXEC3  1.061 0.33 S
 AXAS1  1.441 0.25 S
 AXID1  1.326 0.25 S
# 2015  1 28  8 28 54.664   45.93876 -129.97667  1.430  0.3  0.452  0.562  0.024  22904
 AXEC1  0.506 1.00 P
 AXEC2  0.391 1.00 P
 AXEC3  0.416 1.00 P
 AXAS1  0.636 1.00 P
 AXAS2  0.771 1.00 P
 AXID1  0.526 0.50 P
 AXCC1  1.581 0.25 S
 AXEC1  0.941 0.33 S
 AXEC2  0.771 0.33 S
 AXEC3  0.856 0.33 S
 AXAS1  1.226 0.25 S
 AXID1  0.946 0.25 S
# 2015  1 28  9 46 53.946   45.95145 -130.02463  1.620  0.6  0.604  0.769  0.029  22953
 AXCC1  0.514 1.00 P
 AXEC1  0.919 1.00 P
 AXEC2  1.024 1.00 P
 AXEC3  1.024 0.75 P
 AXAS1  0.844 0.75 P
 AXAS2  0.594 0.50 P
 AXID1  1.069 1.00 P
 AXEC1  1.654 0.25 S
 AXEC2  1.894 0.25 S
 AXEC3  1.894 0.33 S
 AXAS1  1.669 0.25 S
 AXID1  1.874 0.25 S
# 2015  1 28 10 25 53.070   45.95880 -129.99373  0.760  0.3  1.055  0.537  0.026  22972
 AXCC1  0.445 1.00 P
 AXEC1  0.515 1.00 P
 AXEC2  0.735 1.00 P
 AXEC3  0.780 1.00 P
 AXAS1  0.860 0.50 P
 AXAS2  0.885 0.75 P
 AXCC1  1.120 0.25 S
 AXEC1  1.080 0.33 S
 AXEC2  1.430 0.33 S
 AXEC3  1.530 0.33 S
 AXAS2  1.410 0.25 S
# 2015  1 28 10 28 34.872   45.96035 -129.99490  1.215  0.8  0.624  1.152  0.030  22975
 AXCC1  0.463 1.00 P
 AXEC1  0.568 1.00 P
 AXEC2  0.758 1.00 P
 AXEC3  0.788 1.00 P
 AXAS1  0.853 1.00 P
 AXAS2  0.843 1.00 P
 AXID1  1.013 0.75 P
 AXCC1  1.168 0.25 S
 AXEC1  1.103 0.33 S
 AXEC2  1.458 0.33 S
 AXEC3  1.548 0.33 S
 AXAS2  1.398 0.25 S
# 2015  1 28 15  3 30.432   45.94234 -130.01872  1.019  0.2  0.690  2.047  0.036  23031
 AXCC1  0.493 1.00 P
 AXEC1  0.783 0.75 P
 AXEC2  0.928 1.00 P
 AXEC3  0.843 0.50 P
 AXAS1  0.573 0.75 P
 AXAS2  0.408 1.00 P
 AXID1  0.953 0.50 P
 AXEC1  1.473 0.25 S
 AXEC2  1.608 0.25 S
 AXEC3  1.643 0.25 S
 AXAS1  1.293 0.25 S
 AXAS2  0.648 0.33 S
 AXID1  1.588 0.25 S
# 2015  1 28 15 27  6.074   45.94003 -130.01924  1.184  1.2  0.634  0.445  0.029  23034
 AXCC1  0.576 1.00 P
 AXEC1  0.826 1.00 P
 AXEC2  0.891 1.00 P
 AXEC3  0.846 1.00 P
 AXAS1  0.611 1.00 P
 AXAS2  0.411 1.00 P
 AXID1  0.891 1.00 P
 AXCC1  1.271 0.25 S
 AXEC1  1.611 0.25 S
 AXEC2  1.666 0.33 S
 AXAS1  1.301 0.25 S
 AXAS2  0.646 0.33 S
# 2015  1 28 15 28 40.451   45.94180 -130.02222  2.053  1.3  0.456  0.750  0.039  23035
 AXCC1  0.619 1.00 P
 AXEC1  0.914 1.00 P
 AXEC2  0.994 1.00 P
 AXEC3  0.959 1.00 P
 AXAS1  0.739 1.00 P
 AXAS2  0.554 1.00 P
 AXID1  0.904 1.00 P
 AXEC1  1.634 0.33 S
 AXEC2  1.754 0.33 S
 AXEC3  1.769 0.33 S
 AXAS1  1.469 0.25 S
 AXID1  1.739 0.25 S
# 2015  1 28 18 39 50.872   45.94305 -130.01889  1.574  0.9  0.469  0.829  0.024  23157
 AXCC1  0.557 1.00 P
 AXEC1  0.827 1.00 P
 AXEC2  0.907 1.00 P
 AXEC3  0.867 1.00 P
 AXAS1  0.652 1.00 P
 AXAS2  0.467 1.00 P
 AXID1  0.932 1.00 P
 AXEC1  1.547 0.25 S
 AXEC2  1.652 0.33 S
 AXEC3  1.657 0.33 S
 AXAS1  1.367 0.25 S
 AXID1  1.617 0.25 S
# 2015  1 28 20 13 48.803   45.94668 -130.01904  1.050  0.4  0.668  1.347  0.036  23236
 AXCC1  0.447 1.00 P
 AXEC1  0.772 0.75 P
 AXEC2  0.947 0.75 P
 AXEC3  0.947 0.75 P
 AXAS2  0.507 1.00 P
 AXID1  0.997 0.50 P
 AXEC1  1.537 0.25 S
 AXEC2  1.707 0.33 S
 AXEC3  1.667 0.33 S
 AXAS1  1.442 0.33 S
 AXAS2  0.822 0.33 S
 AXID1  1.727 0.25 S
# 2015  1 28 20 21 40.270   45.94851 -130.03809  0.860  0.4  1.246  0.698  0.063  23261
 AXCC1  0.620 1.00 P
 AXEC1  1.080 0.50 P
 AXEC2  1.200 0.75 P
 AXEC3  1.115 1.00 P
 AXAS1  0.950 1.00 P
 AXAS2  0.630 1.00 P
 AXID1  1.175 1.00 P
 AXEC1  1.745 0.24 S
 AXEC2  1.980 0.25 S
 AXEC3  1.955 0.33 S
 AXAS1  1.740 0.25 S
 AXAS2  1.060 0.24 S
# 2015  1 28 21 19 40.788   45.95804 -129.99454  1.708  0.6  0.568  0.922  0.045  23336
 AXCC1  0.517 1.00 P
 AXEC1  0.562 1.00 P
 AXEC2  0.747 1.00 P
 AXEC3  0.772 1.00 P
 AXAS1  0.907 0.75 P
 AXAS2  0.742 0.75 P
 AXCC1  1.227 0.25 S
 AXEC1  1.082 0.33 S
 AXEC2  1.437 0.33 S
 AXEC3  1.467 0.33 S
 AXAS2  1.457 0.25 S
# 2015  1 28 21 48 30.140   45.94226 -130.02090  0.866  0.4  0.813  0.858  0.038  23365
 AXCC1  0.530 1.00 P
 AXEC1  0.860 0.75 P
 AXEC2  0.900 1.00 P
 AXEC3  0.955 1.00 P
 AXAS1  0.655 1.00 P
 AXAS2  0.385 1.00 P
 AXEC1  1.515 0.25 S
 AXEC2  1.670 0.25 S
 AXEC3  1.705 0.33 S
 AXAS1  1.335 0.25 S
 AXAS2  0.715 0.25 S
# 2015  1 28 23 53 10.911   45.94781 -129.98071  1.451  0.5  0.466  0.626  0.027  23485
 AXCC1  0.669 1.00 P
 AXEC1  0.394 1.00 P
 AXEC2  0.514 1.00 P
 AXEC3  0.484 1.00 P
 AXAS1  0.679 1.00 P
 AXID1  0.714 0.75 P
 AXEC1  0.799 0.33 S
 AXEC2  0.994 0.33 S
 AXEC3  1.049 0.33 S
 AXAS1  1.404 0.25 S
 AXID1  1.114 0.25 S
# 2015  1 29  0  1  6.130   45.95525 -129.98769  1.656  0.8  0.501  0.784  0.037  23495
 AXCC1  0.575 1.00 P
 AXEC1  0.475 1.00 P
 AXEC2  0.665 1.00 P
 AXEC3  0.690 1.00 P
 AXAS1  0.810 1.00 P
 AXAS2  0.795 1.00 P
 AXID1  0.870 0.75 P
 AXEC1  0.955 0.33 S
 AXEC3  1.320 0.33 S
 AXAS1  1.655 0.25 S
 AXAS2  1.455 0.25 S
 AXID1  1.415 0.25 S
# 2015  1 29  0 34 32.365   45.94575 -129.98346  0.857  0.0  0.275  0.746  0.018  23539
 AXCC1  0.665 0.75 P
 AXEC1  0.315 1.00 P
 AXEC2  0.430 1.00 P
 AXEC3  0.445 1.00 P
 AXAS1  0.565 1.00 P
 AXAS2  0.775 0.75 P
 AXCC1  1.350 0.25 S
 AXEC1  0.695 0.33 S
 AXEC2  0.870 0.25 S
 AXEC3  0.910 0.25 S
 AXAS1  1.285 0.25 S
# 2015  1 29  1  6  1.395   45.94114 -129.98344  1.226  0.4  0.396  0.901  0.022  23576
 AXCC1  0.730 1.00 P
 AXEC1  0.435 1.00 P
 AXEC2  0.410 1.00 P
 AXEC3  0.400 1.00 P
 AXAS1  0.545 1.00 P
 AXAS2  0.690 1.00 P
 AXEC1  0.860 0.33 S
 AXEC2  0.830 0.25 S
 AXEC3  0.845 0.33 S
 AXAS1  1.170 0.25 S
 AXAS2  1.155 0.25 S
